{"type": "FeatureCollection", "features": [{"type": "Feature", "properties": {"iso3": "COD", "country_name": "Democratic Republic of the Congo", "requirements_usd": 2132641156, "funding_usd": 1023048895, "coverage_pct": 48.0, "n_plans": 1, "plan_names": ["R\u00e9publique D\u00e9mocratique du Congo Besoins Humanitaires et Plan de R\u00e9ponse 2026"], "top_donors": [{"name": "United States of America, Government of", "amount_usd": 183094129}, {"name": "European Commission's Humanitarian Aid and Civil Protection Department", "amount_usd": 73208354}, {"name": "United States Department of State", "amount_usd": 60199047}, {"name": "Germany, Government of", "amount_usd": 20739540}, {"name": "Switzerland, Government of", "amount_usd": 15805144}, {"name": "Belgium, Government of", "amount_usd": 12578372}, {"name": "Canada, Government of", "amount_usd": 7084563}, {"name": "Democratic Republic of the Congo, Government of", "amount_usd": 6017033}], "totalPopulation": 112800000, "inNeed": 18488689, "target": 10735805}, "geometry": {"type": "Polygon", "coordinates": [[[29.339997592900346, -4.4999834122940925], [29.519986606572928, -5.419978936386315], [29.419992710088167, -5.939998874539434], [29.620032179490014, -6.520015150583426], [30.199996779101696, -7.079980970898163], [30.74001549655179, -8.340007419470915], [30.346086053190817, -8.238256524288218], [29.00291222506047, -8.407031752153472], [28.734866570762502, -8.526559340044578], [28.449871046672826, -9.164918308146085], [28.67368167492893, -9.605924981324932], [28.372253045370428, -11.793646742401393], [29.34154788586909, -12.360743910372413], [29.61600141777123, -12.178894545137311], [29.69961388521949, -13.257226657771831], [28.934285922976837, -13.248958428605135], [28.155108676879987, -12.272480564017897], [27.388798862423783, -12.132747491100666], [27.164419793412463, -11.608748467661075], [26.553087599399618, -11.924439792532127], [25.752309604604733, -11.784965101776358], [25.418118116973204, -11.330935967659961], [24.78316979340295, -11.238693536018964], [24.31451622894795, -11.26282642989927], [24.25715538910399, -10.951992689663657], [23.45679080576744, -10.867863457892483], [22.83734541188474, -11.01762175867433], [22.402798292742375, -10.993075453335692], [22.155268182064308, -11.084801120653772], [22.208753289486395, -9.894796237836509], [21.875181919042348, -9.523707777548566], [21.8018013851879, -8.90870655684298], [21.949130893652043, -8.305900974158277], [21.74645592620331, -7.920084730667149], [21.7281107927397, -7.290872491081302], [20.5147481625265, -7.2996058081386295], [20.6018229509383, -6.939317722199682], [20.091621534920648, -6.943090101756994], [20.037723016040218, -7.116361179231646], [19.41750247567316, -7.155428562044299], [19.01675174324967, -7.988245944860132], [18.464175652752687, -7.847014255406443], [18.13422163256905, -7.987677504104923], [17.472970004962235, -8.0685511206417], [16.8601908708452, -7.2222978654299865], [16.573179965896145, -6.6226445451150875], [16.326528354567046, -5.877470391466268], [13.375597364971895, -5.8642412247995495], [13.024869419006961, -5.984388929878158], [12.735171339578699, -5.965682061388499], [12.32243167486351, -6.10009246177966], [12.182336866920252, -5.789930515163839], [12.436688266660868, -5.6843038875592455], [12.468004184629736, -5.248361504745005], [12.63161176926579, -4.991271254092936], [12.995517205465177, -4.781103203961884], [13.258240187237048, -4.882957452009165], [13.600234816144678, -4.50013844159097], [14.144956088933299, -4.510008640158716], [14.209034864975223, -4.793092136253598], [14.582603794013181, -4.97023894615014], [15.170991652088444, -4.343507175314301], [15.753540073314753, -3.8551648901560966], [16.0062895036543, -3.535132744972529], [15.972803175529151, -2.7123922664536124], [16.407091912510054, -1.7409270157986825], [16.865306837642123, -1.2258163387132868], [17.523716261472856, -0.743830254726987], [17.638644646889986, -0.4248316381892465], [17.66355268725468, -0.05808399821381727], [17.826540154703252, 0.28892324462610475], [17.774191928791566, 0.8556586775710854], [17.898835483479587, 1.7418319767282782], [18.094275750407434, 2.365721543788055], [18.393792351971143, 2.90044342692822], [18.54298221199778, 4.201785183118318], [18.93231245288476, 4.709506130385975], [19.46778364429315, 5.03152781821278], [20.290679152108936, 4.691677761245288], [20.927591180106276, 4.322785549329737], [21.659122755630023, 4.22434194581372], [22.405123732195538, 4.029160061047321], [22.70412356943629, 4.633050848810157], [22.841479526468106, 4.710126247573484], [23.29721398285014, 4.609693101414223], [24.410531040146253, 5.10878408448913], [24.805028924262416, 4.89724660890235], [25.12883344900328, 4.92724477784779], [25.278798455514305, 5.170408229997192], [25.650455356557472, 5.256087754737123], [26.402760857862543, 5.1508745385908705], [27.04406538260471, 5.127852688004836], [27.37422610851749, 5.233944403500061], [27.97997724784281, 4.408413397637375], [28.428993768026913, 4.287154649264494], [28.696677687298802, 4.455077215996937], [29.1590784034465, 4.389267279473231], [29.71599531425602, 4.600804755060153], [29.953500197069474, 4.173699042167684], [30.83385989759381, 3.509165961110341], [30.77334679538004, 2.339883327642127], [31.174149204235817, 2.204465236821264], [30.85267011894806, 1.8493964705438088], [30.46850752129029, 1.5838054467797065], [30.086153598762706, 1.0623127303062887], [29.875778842902434, 0.5973798689763612], [29.819503208136638, -0.2053101538133717], [29.58783776217217, -0.587405694179381], [29.579466180140884, -1.3413131648856265], [29.291886834436614, -1.6200558406679872], [29.254834832483343, -2.2151099585089113], [29.117478875451553, -2.2922111954883846], [29.024926385216787, -2.8392579077301576], [29.276383904749053, -3.293907159034063], [29.339997592900346, -4.4999834122940925]]]}}, {"type": "Feature", "properties": {"iso3": "SOM", "country_name": "Somalia", "requirements_usd": 852000000, "funding_usd": 260748784, "coverage_pct": 30.6, "n_plans": 1, "plan_names": ["Somalia Humanitarian Needs and Response Plan 2026"], "top_donors": [{"name": "European Commission's Humanitarian Aid and Civil Protection Department", "amount_usd": 45433428}, {"name": "United Kingdom, Government of", "amount_usd": 34571916}, {"name": "Germany, Government of", "amount_usd": 17186210}, {"name": "Canada, Government of", "amount_usd": 9049149}, {"name": "Switzerland, Government of", "amount_usd": 7792877}, {"name": "Qatar Charity", "amount_usd": 7066815}, {"name": "Denmark, Government of", "amount_usd": 6773941}, {"name": "Norway, Government of", "amount_usd": 6057471}], "totalPopulation": 19700000, "inNeed": 4796040, "target": 2430751}, "geometry": {"type": "Polygon", "coordinates": [[[41.58513, -1.6832500000000001], [40.993, -0.85829], [40.98105, 2.7845199999999997], [42.128609999999995, 4.23413], [42.76967, 4.25259], [43.66086999999999, 4.957550000000083], [44.96360000000001, 5.00162], [47.78942, 8.003], [48.93812951029645, 9.451748968946617], [48.94820475850974, 11.410617281697963], [49.26776, 11.43033], [49.72862, 11.5789], [50.25878000000001, 11.67957], [50.73202, 12.021900000000002], [51.1112, 12.024640000000002], [51.13387, 11.74815], [51.04153, 11.16651], [51.04531, 10.6409], [50.834179999999996, 10.279720000000001], [50.55239, 9.19874], [49.45270000000001, 6.80466], [48.594550000000005, 5.339110000000001], [47.740790000000004, 4.2194], [46.56476, 2.85529], [45.563990000000004, 2.04576], [44.068149999999996, 1.0528300000000002], [43.13597, 0.2922], [42.04157000000001, -0.9191600000000001], [41.81095, -1.4464700000000001], [41.58513, -1.6832500000000001]]]}}, {"type": "Feature", "properties": {"iso3": "SDN", "country_name": "Sudan", "requirements_usd": 3363146517, "funding_usd": 1301213418, "coverage_pct": 38.7, "n_plans": 2, "plan_names": ["Sudan Humanitarian Needs and Response Plan 2026", "Sudan Emergency: Regional Refugee Response Plan 2026"], "top_donors": [{"name": "United States of America, Government of", "amount_usd": 262027755}, {"name": "European Commission's Humanitarian Aid and Civil Protection Department", "amount_usd": 72417066}, {"name": "Uganda (Eastern, Southern Africa HF)", "amount_usd": 35240030}, {"name": "United Kingdom, Government of", "amount_usd": 26543785}, {"name": "Canada, Government of", "amount_usd": 24180035}, {"name": "France, Government of", "amount_usd": 22091766}, {"name": "Germany, Government of", "amount_usd": 21413762}, {"name": "GAVI Alliance", "amount_usd": 16427103}], "totalPopulation": 47500000, "inNeed": 33699770, "target": 20419163}, "geometry": {"type": "Polygon", "coordinates": [[[24.567369012152085, 8.229187933785468], [23.805813429466752, 8.666318874542526], [23.459012892355986, 8.954285793488893], [23.394779087017184, 9.265067857292223], [23.55724979014283, 9.681218166538684], [23.554304233502194, 10.089255275915308], [22.97754357269261, 10.71446259199854], [22.864165480244225, 11.142395127807546], [22.876219999999932, 11.384610000000123], [22.50869, 11.679360000000031], [22.497619999999984, 12.260240000000067], [22.288010000000043, 12.646049999999946], [21.93680999999998, 12.588180000000136], [22.037589999999966, 12.95545999999996], [22.296580000000006, 13.372319999999945], [22.18329, 13.78648000000004], [22.512020000000007, 14.093179999999961], [22.30350999999996, 14.326820000000055], [22.56795000000011, 14.944290000000137], [23.024590000000103, 15.680720000000065], [23.886890000000108, 15.610839999999996], [23.850000000000136, 20.000000000000057], [25.000000000000114, 20.003040000000055], [25.0, 22.0], [36.86622999999997, 22.0], [37.1887200000001, 21.018850000000043], [36.969409999999925, 20.83744000000013], [37.11470000000014, 19.807960000000094], [37.4817900000001, 18.61409000000009], [38.410089959473225, 17.998307399970315], [37.90400000000011, 17.427540000000022], [37.167470000000094, 17.263140000000135], [36.852530000000115, 16.956549999999993], [36.75389000000007, 16.291860000000042], [36.32321999999999, 14.822490000000016], [36.42951000000005, 14.422110000000032], [36.27022000000005, 13.563330000000121], [35.86363, 12.578280000000063], [35.26049000000006, 12.08286000000004], [34.83163000000013, 11.318960000000118], [34.73115000000013, 10.910170000000107], [34.25745000000006, 10.630089999999996], [33.961620000000096, 9.583580000000097], [33.97498000000007, 8.68455999999992], [33.963392794971185, 9.464285229420625], [33.82496348090751, 9.484060845715362], [33.84213085302815, 9.981914637215993], [33.72195924818311, 10.325262079630193], [33.206938084561784, 10.720111638406593], [33.086766479716744, 11.441141267476496], [33.206938084561784, 12.179338268667095], [32.743419037302544, 12.248007757149992], [32.67474954881965, 12.02483191958072], [32.073891524594785, 11.973329803218519], [32.31423473428475, 11.68148447716652], [32.400071594888345, 11.080626452941488], [31.850715687025513, 10.531270545078826], [31.35286189552488, 9.810240916008695], [30.837840731903384, 9.70723668328452], [29.996639497988554, 10.290927335388687], [29.61895731133285, 10.084918869940225], [29.515953078608618, 9.793073543888056], [29.000931914987177, 9.60423245056029], [28.966597170745786, 9.398223985111656], [27.970889587744352, 9.398223985111656], [27.833550610778786, 9.60423245056029], [27.112520981708883, 9.638567194801624], [26.752006167173818, 9.466893473594496], [26.477328213242515, 9.552730334198088], [25.962307049621018, 10.136420986302426], [25.790633328413946, 10.411098940233728], [25.069603699343986, 10.273759963267992], [24.794925745412684, 9.810240916008695], [24.53741516360202, 8.91753756573172], [23.886979580860668, 8.619729712933065], [24.567369012152085, 8.229187933785468]]]}}, {"type": "Feature", "properties": {"iso3": "TCD", "country_name": "Chad", "requirements_usd": 986069627, "funding_usd": 348025292, "coverage_pct": 35.3, "n_plans": 1, "plan_names": ["Tchad Besoins Humanitaires et Plan de R\u00e9ponse 2026"], "top_donors": [{"name": "United States of America, Government of", "amount_usd": 103486906}, {"name": "European Commission's Humanitarian Aid and Civil Protection Department", "amount_usd": 37526052}, {"name": "European Commission", "amount_usd": 10953467}, {"name": "Canada, Government of", "amount_usd": 7317386}, {"name": "United Kingdom, Government of", "amount_usd": 6605020}, {"name": "Switzerland, Government of", "amount_usd": 4562594}, {"name": "Italy, Government of", "amount_usd": 3848911}, {"name": "Kuwait, Government of", "amount_usd": 3200000}], "totalPopulation": 21000000, "inNeed": 4509014, "target": 3352810}, "geometry": {"type": "Polygon", "coordinates": [[[23.83766000000014, 19.580470000000105], [23.886890000000108, 15.610839999999996], [23.024590000000103, 15.680720000000065], [22.56795000000011, 14.944290000000137], [22.30350999999996, 14.326820000000055], [22.512020000000007, 14.093179999999961], [22.18329, 13.78648000000004], [22.296580000000006, 13.372319999999945], [22.037589999999966, 12.95545999999996], [21.93680999999998, 12.588180000000136], [22.288010000000043, 12.646049999999946], [22.497619999999984, 12.260240000000067], [22.50869, 11.679360000000031], [22.876219999999932, 11.384610000000123], [22.864165480244225, 11.142395127807546], [22.23112918466876, 10.97188873946061], [21.723821648859456, 10.567055568885976], [21.000868361096167, 9.475985215691509], [20.05968549976427, 9.012706000194854], [19.09400800952602, 9.07484691002584], [18.812009718509273, 8.982914536978598], [18.911021762780507, 8.630894680206353], [18.38955488452322, 8.281303615751824], [17.964929640380888, 7.890914008002994], [16.705988396886255, 7.5083275415299795], [16.456184523187346, 7.734773667832968], [16.290561557691888, 7.754307359239419], [16.106231723706742, 7.497087917506462], [15.279460483469109, 7.421924546737969], [15.436091749745742, 7.692812404811889], [14.97999555833769, 8.796104234243472], [14.54446658698177, 8.965861314322268], [13.954218377344006, 9.549494940626687], [14.171466098699028, 10.021378282099931], [14.62720055508106, 9.920919297724538], [14.909353875394716, 9.992129421422732], [15.467872755605242, 9.982336737503545], [14.92356489427496, 10.891325181517473], [14.9601518083376, 11.555574042197224], [14.89336000000003, 12.219049999999982], [14.495787387762846, 12.85939626713733], [14.595781284247607, 13.33042694747786], [13.95447675950561, 13.353448798063766], [13.956698846094127, 13.996691189016929], [13.540393507550789, 14.367133693901224], [13.972170000000006, 15.684370000000058], [15.247731154041844, 16.627305813050782], [15.30044111497972, 17.927949937405003], [15.685740594147774, 19.957180080642388], [15.903246697664315, 20.387618923417506], [15.487148064850146, 20.730414537025638], [15.47106000000008, 21.04845000000006], [15.096887648181848, 21.30851878507491], [14.851300000000037, 22.862950000000126], [15.860850000000084, 23.409719999999993], [23.83766000000014, 19.580470000000105]]]}}, {"type": "Feature", "properties": {"iso3": "HTI", "country_name": "Haiti", "requirements_usd": 880327426, "funding_usd": 415841275, "coverage_pct": 47.2, "n_plans": 1, "plan_names": ["Haiti Besoins Humanitaires et Plan de R\u00e9ponse 2026"], "top_donors": [{"name": "United States of America, Government of", "amount_usd": 143242609}, {"name": "Haiti (Latin America, Caribbean HF)", "amount_usd": 121500000}, {"name": "European Commission's Humanitarian Aid and Civil Protection Department", "amount_usd": 22885979}, {"name": "Canada, Government of", "amount_usd": 12250050}, {"name": "Central Emergency Response Fund", "amount_usd": 9000000}, {"name": "Switzerland, Government of", "amount_usd": 7468988}, {"name": "Spain, Government of", "amount_usd": 2161324}, {"name": "Finland, Government of", "amount_usd": 1690762}], "totalPopulation": 11899555, "inNeed": 6414193, "target": 4162202}, "geometry": {"type": "Polygon", "coordinates": [[[-71.71236141629296, 19.714455878167357], [-71.62487321642283, 19.169837958243306], [-71.7013026597825, 18.785416978424053], [-71.94511206733556, 18.61690013272026], [-71.68773759630588, 18.31666006110447], [-71.70830481635805, 18.044997056546094], [-72.37247616238935, 18.21496084235406], [-72.84441118029488, 18.145611070218365], [-73.45455481636503, 18.2179063989947], [-73.92243323433566, 18.030992743395004], [-74.45803361682478, 18.342549953682706], [-74.36992529976713, 18.66490753831941], [-72.69493709989064, 18.445799465401862], [-72.334881557897, 18.668421535715254], [-72.79164954292489, 19.10162506761803], [-72.78410478381028, 19.48359141690341], [-73.41502234566175, 19.639550889560283], [-73.18979061551762, 19.915683905511912], [-72.57967281766362, 19.871500555902358], [-71.71236141629296, 19.714455878167357]]]}}, {"type": "Feature", "properties": {"iso3": "COL", "country_name": "Colombia", "requirements_usd": 619784400, "funding_usd": 293362658, "coverage_pct": 47.3, "n_plans": 1, "plan_names": ["Colombia Necesidades Humanitarias y Plan de Respuesta 2026"], "top_donors": [{"name": "United States of America, Government of", "amount_usd": 122915011}, {"name": "Colombia (Latin America, Caribbean HF)", "amount_usd": 56600000}, {"name": "European Commission's Humanitarian Aid and Civil Protection Department", "amount_usd": 11209523}, {"name": "Switzerland, Government of", "amount_usd": 7639038}, {"name": "Canada, Government of", "amount_usd": 2804204}, {"name": "Swedish International Development Cooperation Agency (SIDA)", "amount_usd": 2680061}, {"name": "Japan, Government of", "amount_usd": 2248409}, {"name": "Private (individuals & organizations)", "amount_usd": 2030729}], "totalPopulation": 53400000, "inNeed": 8141887, "target": 3327773}, "geometry": {"type": "Polygon", "coordinates": [[[-66.87632585312258, 1.253360500489336], [-67.0650481838525, 1.130112209473225], [-67.2599975246736, 1.7199986840849562], [-67.5378100246747, 2.03716278727633], [-67.86856502955884, 1.6924551456733923], [-69.81697323269162, 1.7148052026396243], [-69.80459672715773, 1.0890811222334662], [-69.21863766140018, 0.9856765812174331], [-69.25243404811906, 0.6026508650700748], [-69.45239600287246, 0.7061587589506929], [-70.01556576198931, 0.5414142928042054], [-70.02065589057005, -0.18515634521953928], [-69.5770653957766, -0.549991957200163], [-69.42048580593223, -1.1226185034264091], [-69.44410193548961, -1.5562871232198177], [-69.89363521999663, -4.2981869441943275], [-70.39404395209499, -3.7665914852078255], [-70.69268205430971, -3.742872002785859], [-70.04770850287485, -2.725156345229699], [-70.81347571479196, -2.2568645158007428], [-71.41364579942979, -2.3428024227021282], [-71.7747607082854, -2.169789727388938], [-72.32578650581365, -2.434218031426454], [-73.07039221870724, -2.3089543595509525], [-73.6595035468346, -1.2604912247811342], [-74.12239518908906, -1.002832533373848], [-74.44160051135597, -0.5308200008198867], [-75.10662451852008, -0.05720549886486026], [-75.37322323271385, -0.1520317521204504], [-76.29231441924097, 0.4160472680641192], [-76.5763797675494, 0.256935533037435], [-77.4249843004304, 0.395686753741117], [-77.66861284047044, 0.8258930525709616], [-77.85506140817952, 0.8099250349927729], [-78.85525875518871, 1.380923773601822], [-78.99093522817104, 1.6913699405952514], [-78.61783138702371, 1.766404120283056], [-78.66211808949785, 2.2673554549204766], [-78.42761043975733, 2.629555568854215], [-77.93154252797149, 2.6966057397529255], [-77.12768978545526, 3.8496361352653565], [-77.49627193877703, 4.087606105969428], [-77.3076012844794, 4.6679841170394525], [-77.53322058786573, 5.582811997902497], [-77.31881507028675, 5.84535411216136], [-77.47666073272228, 6.691116441266303], [-77.88157141794525, 7.223771267114785], [-77.7534138658614, 7.709839789252143], [-77.43110795765699, 7.638061224798734], [-77.24256649444008, 7.935278225125444], [-77.47472286651133, 8.524286200388218], [-77.35336076527386, 8.67050466555807], [-76.83667395700357, 8.638749497914716], [-76.08638383655786, 9.336820583529487], [-75.67460018584006, 9.443248195834599], [-75.66470414905618, 9.774003200718738], [-75.48042599150335, 10.618990383339309], [-74.90689510771199, 11.083044745320322], [-74.27675269234489, 11.102035834187587], [-74.1972226630477, 11.310472723836867], [-73.41476396350029, 11.22701528568548], [-72.23819495307892, 11.955549628136326], [-71.75409013536864, 12.437303168177309], [-71.3998223537917, 12.376040757695293], [-71.13746110704588, 12.112981879113505], [-71.3315836249503, 11.776284084515808], [-71.97392167833829, 11.60867157637712], [-72.22757544624294, 11.10870209395324], [-72.61465776232521, 10.821975409381778], [-72.9052860175347, 10.450344346554772], [-73.02760413276957, 9.736770331252444], [-73.30495154488005, 9.151999823437606], [-72.7887298245004, 9.085027167187334], [-72.6604947577681, 8.625287787302682], [-72.43986223009796, 8.405275376820029], [-72.36090064155597, 8.002638454617895], [-72.47967892117885, 7.632506008327354], [-72.44448727078807, 7.423784898300482], [-72.19835242378188, 7.340430813013683], [-71.96017574734864, 6.991614895043539], [-70.67423356798152, 7.087784735538719], [-70.09331295437242, 6.96037649172311], [-69.38947994655712, 6.0998605411988365], [-68.98531856960236, 6.206804917826858], [-68.26505245631823, 6.153268133972475], [-67.69508724635502, 6.267318020040647], [-67.34143958196557, 6.095468044454023], [-67.52153194850275, 5.556870428891969], [-67.74469662135522, 5.221128648291668], [-67.82301225449355, 4.503937282728899], [-67.62183590358129, 3.8394817163199946], [-67.33756384954368, 3.5423422306417223], [-67.30317318385345, 3.31845408773718], [-67.8099381171237, 2.820655015469569], [-67.44709204778631, 2.6002808699608693], [-67.18129431829307, 2.250638129074062], [-66.87632585312258, 1.253360500489336]]]}}, {"type": "Feature", "properties": {"iso3": "VEN", "country_name": "Venezuela, Bolivarian Republic of", "requirements_usd": 1694396459, "funding_usd": 501055673, "coverage_pct": 29.6, "n_plans": 2, "plan_names": ["Venezuela Plan de Respuesta Humanitaria 2026", "Venezuela Regional Refugee and Migrant Response Plan (RMRP) 2026"], "top_donors": [{"name": "European Commission's Humanitarian Aid and Civil Protection Department", "amount_usd": 52159818}, {"name": "United States of America, Government of", "amount_usd": 25392988}, {"name": "United States Department of State", "amount_usd": 19460000}, {"name": "Germany, Government of", "amount_usd": 18757032}, {"name": "Korea, Republic of, Government of", "amount_usd": 9254896}, {"name": "Switzerland, Government of", "amount_usd": 7291482}, {"name": "Canada, Government of", "amount_usd": 4840047}, {"name": "Swedish International Development Cooperation Agency (SIDA)", "amount_usd": 4439396}], "totalPopulation": 28500000, "inNeed": 7943720, "target": 6200000}, "geometry": {"type": "Polygon", "coordinates": [[[-60.73357418480372, 5.200277207861901], [-60.601179165271944, 4.91809804933213], [-60.96689327660154, 4.536467596856639], [-62.08542965355913, 4.162123521334308], [-62.804533047116706, 4.006965033377952], [-63.093197597899106, 3.7705711938587854], [-63.88834286157416, 4.020530096854571], [-64.62865943058755, 4.14848094320925], [-64.81606401229402, 4.056445217297423], [-64.3684944322141, 3.797210394705246], [-64.40882788761792, 3.126786200366624], [-64.2699991522658, 2.497005520025567], [-63.42286739770512, 2.4110676131241746], [-63.368788011311665, 2.200899562993129], [-64.08308549666609, 1.9163691267940803], [-64.19930579289051, 1.49285492594602], [-65.35471330428837, 1.0952822941085003], [-65.54826738143757, 0.7892544620760303], [-66.32576514348496, 0.7244522159820121], [-66.87632585312258, 1.253360500489336], [-67.18129431829307, 2.250638129074062], [-67.44709204778631, 2.6002808699608693], [-67.8099381171237, 2.820655015469569], [-67.30317318385345, 3.31845408773718], [-67.33756384954368, 3.5423422306417223], [-67.62183590358129, 3.8394817163199946], [-67.82301225449355, 4.503937282728899], [-67.74469662135522, 5.221128648291668], [-67.52153194850275, 5.556870428891969], [-67.34143958196557, 6.095468044454023], [-67.69508724635502, 6.267318020040647], [-68.26505245631823, 6.153268133972475], [-68.98531856960236, 6.206804917826858], [-69.38947994655712, 6.0998605411988365], [-70.09331295437242, 6.96037649172311], [-70.67423356798152, 7.087784735538719], [-71.96017574734864, 6.991614895043539], [-72.19835242378188, 7.340430813013683], [-72.44448727078807, 7.423784898300482], [-72.47967892117885, 7.632506008327354], [-72.36090064155597, 8.002638454617895], [-72.43986223009796, 8.405275376820029], [-72.6604947577681, 8.625287787302682], [-72.7887298245004, 9.085027167187334], [-73.30495154488005, 9.151999823437606], [-73.02760413276957, 9.736770331252444], [-72.9052860175347, 10.450344346554772], [-72.61465776232521, 10.821975409381778], [-72.22757544624294, 11.10870209395324], [-71.97392167833829, 11.60867157637712], [-71.3315836249503, 11.776284084515808], [-71.36000566271082, 11.539993597861212], [-71.94704993354651, 11.423282375530022], [-71.62086829292019, 10.969459947142795], [-71.63306393094109, 10.446494452349029], [-72.07417395698451, 9.865651353388373], [-71.69564409044654, 9.072263088411248], [-71.26455929226773, 9.137194525585983], [-71.03999935574339, 9.859992784052409], [-71.35008378771079, 10.211935126176215], [-71.40062333849224, 10.968969021036015], [-70.15529883490652, 11.37548167566004], [-70.29384334988103, 11.846822414594214], [-69.94324459499683, 12.162307033736099], [-69.58430009629747, 11.459610907431212], [-68.88299923366445, 11.443384507691563], [-68.23327145045873, 10.885744126829946], [-68.19412655299763, 10.554653225135922], [-67.29624854192633, 10.54586823164631], [-66.227864142508, 10.648626817258688], [-65.65523759628175, 10.200798855017323], [-64.89045223657817, 10.0772146671913], [-64.32947872583374, 10.38959870039568], [-64.31800655786495, 10.64141795495398], [-61.880946010980196, 10.715625311725104], [-62.73011898461641, 10.420268662960906], [-62.388511928950976, 9.94820445397464], [-61.58876746280194, 9.873066921422264], [-60.83059668643172, 9.381339829948942], [-60.67125240745973, 8.580174261911878], [-60.15009558779618, 8.602756862823426], [-59.758284878159195, 8.367034816924047], [-60.5505879380582, 7.779602972846178], [-60.637972785063766, 7.4149999048108555], [-60.2956680975624, 7.043911444522919], [-60.54399919294099, 6.856584377464883], [-61.15933631045648, 6.696077378766319], [-61.13941504580795, 6.234296779806144], [-61.410302903881956, 5.959068101419618], [-60.73357418480372, 5.200277207861901]]]}}, {"type": "Feature", "properties": {"iso3": "CUB", "country_name": "Cuba", "requirements_usd": 81755350, "funding_usd": 26275699, "coverage_pct": 32.1, "n_plans": 1, "plan_names": ["Cuba Plan of Action 2026 \u2013 Response to Hurricane Melissa"], "top_donors": [{"name": "European Commission's Humanitarian Aid and Civil Protection Department", "amount_usd": 10232464}, {"name": "Japan, Government of", "amount_usd": 7700126}, {"name": "Qatar Fund for Development", "amount_usd": 4500000}, {"name": "Canada, Government of", "amount_usd": 1491592}, {"name": "United Nations Development Programme", "amount_usd": 934579}, {"name": "Global Links", "amount_usd": 769778}, {"name": "Switzerland, Government of", "amount_usd": 766284}, {"name": "Spain, Government of", "amount_usd": 339578}], "totalPopulation": 11309345, "inNeed": 4200000, "target": 2000000}, "geometry": {"type": "Polygon", "coordinates": [[[-82.26815121125706, 23.188610744717707], [-80.6187686835812, 23.105980129483], [-79.67952368846025, 22.76530324959883], [-79.28148596873208, 22.399201565027056], [-78.34743445505649, 22.512166246017088], [-76.52382483590856, 21.206819566324373], [-76.19462012399319, 21.220565497314013], [-75.59822241891267, 21.016624457274133], [-75.67106035022806, 20.735091254148003], [-74.9338960435845, 20.693905137611385], [-74.17802486845126, 20.28462779385974], [-74.29664811877726, 20.05037852628068], [-74.96159461129294, 19.92343537035569], [-75.63468014189459, 19.873774318923196], [-76.323656175426, 19.95289093676206], [-77.75548092315307, 19.855480861891877], [-77.08510840524674, 20.413353786698792], [-77.49265458851661, 20.673105373613893], [-78.13729224314159, 20.739948838783434], [-78.48282670766119, 21.02861338956585], [-78.71986650258401, 21.598113511638434], [-79.28499996612794, 21.5591753199065], [-80.21747534861865, 21.827324327069036], [-80.51753455272141, 22.03707896574176], [-81.82094336620318, 22.19205658618507], [-82.16999182811864, 22.387109279870753], [-81.79500179719267, 22.636964830001958], [-82.77589799674085, 22.688150336187064], [-83.49445878775936, 22.16851797127613], [-83.90880042187563, 22.154565334557333], [-84.05215084505326, 21.910575059491254], [-84.54703019889638, 21.801227728761646], [-84.97491105827311, 21.89602814380109], [-84.44706214062776, 22.204949856041907], [-84.23035702181178, 22.565754706303764], [-83.7782399156902, 22.788118394455694], [-83.26754757356575, 22.983041897060644], [-82.51043616405751, 23.078746649665188], [-82.26815121125706, 23.188610744717707]]]}}, {"type": "Feature", "properties": {"iso3": "MLI", "country_name": "Mali", "requirements_usd": 577866412, "funding_usd": 126439094, "coverage_pct": 21.9, "n_plans": 1, "plan_names": ["Mali Besoins Humanitaires et Plan de R\u00e9ponse 2026"], "top_donors": [{"name": "European Commission's Humanitarian Aid and Civil Protection Department", "amount_usd": 21927060}, {"name": "Germany, Government of", "amount_usd": 13080099}, {"name": "Switzerland, Government of", "amount_usd": 6721839}, {"name": "Italy, Government of", "amount_usd": 5493964}, {"name": "Canada, Government of", "amount_usd": 5279563}, {"name": "Private (individuals & organizations)", "amount_usd": 4887501}, {"name": "Japan, Government of", "amount_usd": 4192333}, {"name": "Belgium, Government of", "amount_usd": 3512881}], "totalPopulation": 25200000, "inNeed": 5083155, "target": 3808385}, "geometry": {"type": "Polygon", "coordinates": [[[-11.51394283695059, 12.442987575729418], [-11.467899135778524, 12.754518947800975], [-11.55339779300543, 13.141213690641067], [-11.927716030311615, 13.422075100147396], [-12.12488745772126, 13.994727484589788], [-12.170750291380301, 14.616834214735505], [-11.834207526079467, 14.79909699142894], [-11.666078253617854, 15.388208319556298], [-11.349095017939504, 15.411256008358478], [-10.650791388379417, 15.132745876521426], [-10.086846482778213, 15.330485744686271], [-9.700255092802706, 15.264107367407362], [-9.55023840985939, 15.486496893775438], [-5.537744309908447, 15.501689764869257], [-5.315277268891933, 16.20185374599184], [-5.488522508150439, 16.325102037007966], [-6.453786586930335, 24.956590684503425], [-4.923337368174231, 24.974574082941], [1.8232275732590324, 20.610809434486043], [2.06099083823392, 20.142233384679486], [3.1466610042539003, 19.693578599521445], [3.158133172222705, 19.057364203360038], [4.267419467800039, 19.155265204337], [4.2702099951438015, 16.852227484601215], [3.7234216650634835, 16.184283759012615], [3.6382589046464773, 15.568119818580456], [2.749992709981484, 15.409524847876696], [1.3855281917468576, 15.323561102759172], [1.0157833186984817, 14.96818227788799], [-0.2662572900305804, 14.924308986872148], [-0.5158544580003479, 15.116157741755728], [-1.0663634912056636, 14.973815009007765], [-2.001035122068771, 14.559008287000893], [-2.1918245100903846, 14.246417548067356], [-2.9676944645205765, 13.79815033615151], [-3.1037068343127596, 13.541266791228594], [-3.522802700199861, 13.337661647998615], [-4.006390753587226, 13.472485459848116], [-4.28040503581488, 13.228443508349741], [-4.427166103523803, 12.542645575404295], [-5.220941941743121, 11.713858954307227], [-5.1978425765086484, 11.37514577885014], [-5.470564947929006, 10.951269842976048], [-5.404341599946974, 10.370736802609146], [-6.050452032892267, 10.096360785355444], [-6.205222947606431, 10.524060777219134], [-6.493965013037268, 10.411302801958271], [-6.666460944027548, 10.430810655148449], [-6.8505065576350574, 10.138993841996239], [-7.622759161804809, 10.147236232946796], [-7.899589809592372, 10.297382106970828], [-8.029943610048619, 10.206534939001713], [-8.33537716310974, 10.494811916541934], [-8.282357143578281, 10.792597357623846], [-8.407310756860028, 10.909256903522762], [-8.620321010767128, 10.810890814655183], [-8.581305304386774, 11.136245632364805], [-8.376304897484914, 11.393645941610629], [-8.786099005559464, 11.812560939984706], [-8.90526485842453, 12.088358059126437], [-9.127473517279583, 12.308060411015333], [-9.327616339546012, 12.334286200403454], [-9.890992804392013, 12.060478623904972], [-10.165213792348837, 11.844083563682744], [-10.593223842806282, 11.92397532800598], [-10.870829637078215, 12.17788747807211], [-11.03655595543826, 12.211244615116515], [-11.297573614944511, 12.077971096235771], [-11.456168585648271, 12.076834214725338], [-11.51394283695059, 12.442987575729418]]]}}, {"type": "Feature", "properties": {"iso3": "NER", "country_name": "Niger", "requirements_usd": 675619589, "funding_usd": 106513995, "coverage_pct": 15.8, "n_plans": 1, "plan_names": ["Niger Besoins Humanitaires et Plan de R\u00e9ponse 2026"], "top_donors": [{"name": "European Commission's Humanitarian Aid and Civil Protection Department", "amount_usd": 25522430}, {"name": "Switzerland, Government of", "amount_usd": 12534882}, {"name": "Germany, Government of", "amount_usd": 10406203}, {"name": "Central Emergency Response Fund", "amount_usd": 9999400}, {"name": "Belgium, Government of", "amount_usd": 7852157}, {"name": "United States of America, Government of", "amount_usd": 6355830}, {"name": "Norway, Government of", "amount_usd": 3662976}, {"name": "Swedish International Development Cooperation Agency (SIDA)", "amount_usd": 3311139}], "totalPopulation": 27900000, "inNeed": 3081200, "target": 1983640}, "geometry": {"type": "Polygon", "coordinates": [[[14.851300000000037, 22.862950000000126], [15.096887648181848, 21.30851878507491], [15.47106000000008, 21.04845000000006], [15.487148064850146, 20.730414537025638], [15.903246697664315, 20.387618923417506], [15.685740594147774, 19.957180080642388], [15.30044111497972, 17.927949937405003], [15.247731154041844, 16.627305813050782], [13.972170000000006, 15.684370000000058], [13.540393507550789, 14.367133693901224], [13.956698846094127, 13.996691189016929], [13.95447675950561, 13.353448798063766], [14.595781284247607, 13.33042694747786], [14.495787387762846, 12.85939626713733], [14.213530714584635, 12.802035427293347], [14.181336297266794, 12.483656927943116], [13.995352817448293, 12.461565253138303], [13.318701613018561, 13.556356309457826], [13.083987257548813, 13.596147162322495], [12.302071160540523, 13.037189032437524], [11.527803175511394, 13.328980007373588], [10.989593133191534, 13.387322699431195], [10.701031935273706, 13.246917832894084], [10.114814487354693, 13.27725189864941], [9.524928012742947, 12.851102199754479], [9.014933302454438, 12.826659247280418], [7.804671258178786, 13.343526923063747], [7.330746697630019, 13.0980380314612], [6.820441928747754, 13.115091254117518], [6.445426059605637, 13.492768459522678], [5.443058302440136, 13.865923977102227], [4.368343540066007, 13.747481594289411], [4.107945997747322, 13.531215725147831], [3.9672827490488487, 12.956108710171575], [3.6806335791258107, 12.552903347214226], [3.611180454125559, 11.660167141155968], [2.8486430192265857, 12.23563589115821], [2.49016360841793, 12.233052069543675], [2.1544735042499212, 11.940150051313339], [2.177107781593776, 12.625017808477535], [1.0241032242974768, 12.851825669806574], [0.9930456884900708, 13.335749620003824], [0.429927605805517, 13.988733018443924], [0.29564639649510127, 14.444234930880654], [0.3748922054146817, 14.92890818934613], [1.0157833186984817, 14.96818227788799], [1.3855281917468576, 15.323561102759172], [2.749992709981484, 15.409524847876696], [3.6382589046464773, 15.568119818580456], [3.7234216650634835, 16.184283759012615], [4.2702099951438015, 16.852227484601215], [4.267419467800039, 19.155265204337], [5.677565952180686, 19.601206976799716], [8.572893100629784, 21.565660712159143], [11.999505649471613, 23.47166840259645], [13.581424594790462, 23.04050608976928], [14.143870883855243, 22.491288967371133], [14.851300000000037, 22.862950000000126]]]}}, {"type": "Feature", "properties": {"iso3": "NGA", "country_name": "Nigeria", "requirements_usd": 516399423, "funding_usd": 358872364, "coverage_pct": 69.5, "n_plans": 1, "plan_names": ["Nigeria Humanitarian Needs and Response Plan 2026"], "top_donors": [{"name": "United States of America, Government of", "amount_usd": 125000000}, {"name": "European Commission's Humanitarian Aid and Civil Protection Department", "amount_usd": 20372952}, {"name": "Nigeria Humanitarian Fund", "amount_usd": 14000000}, {"name": "Canada, Government of", "amount_usd": 9503624}, {"name": "Switzerland, Government of", "amount_usd": 9460246}, {"name": "Germany, Government of", "amount_usd": 8846164}, {"name": "European Commission Directorate-General for International Partnerships (formerly EuropeAid DEVCO)", "amount_usd": 3127332}, {"name": "Japan, Government of", "amount_usd": 3126665}], "totalPopulation": 237500000, "inNeed": 5929291, "target": 2527178}, "geometry": {"type": "Polygon", "coordinates": [[[2.6917016943562544, 6.258817246928629], [2.7490625342002204, 7.870734361192888], [2.723792758809509, 8.50684540448971], [2.912308383810256, 9.137607937044322], [3.2203515967021015, 9.444152533399702], [3.7054382666259187, 10.063210354040208], [3.600070021182802, 10.332186184119408], [3.7971122575117136, 10.734745591673105], [3.572216424177469, 11.32793935795152], [3.6806335791258107, 12.552903347214226], [3.9672827490488487, 12.956108710171575], [4.107945997747322, 13.531215725147831], [4.368343540066007, 13.747481594289411], [5.443058302440136, 13.865923977102227], [6.445426059605637, 13.492768459522678], [6.820441928747754, 13.115091254117518], [7.330746697630019, 13.0980380314612], [7.804671258178786, 13.343526923063747], [9.014933302454438, 12.826659247280418], [9.524928012742947, 12.851102199754479], [10.114814487354693, 13.27725189864941], [10.701031935273706, 13.246917832894084], [10.989593133191534, 13.387322699431195], [11.527803175511394, 13.328980007373588], [12.302071160540523, 13.037189032437524], [13.083987257548813, 13.596147162322495], [13.318701613018561, 13.556356309457826], [13.995352817448293, 12.461565253138303], [14.181336297266794, 12.483656927943116], [14.577177768622533, 12.085360826053503], [14.468192172918975, 11.904751695193411], [14.415378859116684, 11.572368882692075], [13.572949659894562, 10.798565985553566], [13.308676385153918, 10.160362046748928], [13.167599724997103, 9.640626328973411], [12.955467970438974, 9.417771714714704], [12.753671502339216, 8.717762762888995], [12.218872104550599, 8.305824082874324], [12.063946160539558, 7.799808457872302], [11.839308709366803, 7.397042344589437], [11.74577436691851, 6.981382961449754], [11.058787876030351, 6.6444267846905944], [10.497375115611419, 7.0553577742755635], [10.118276808318257, 7.03876963950988], [9.522705926154401, 6.453482367372117], [9.233162876023044, 6.444490668153335], [8.757532993208628, 5.479665839047911], [8.500287713259695, 4.7719829370268485], [7.462108188515941, 4.412108262546241], [7.0825964697644395, 4.4646890324032285], [6.6980721370806, 4.240594183769517], [5.898172641634687, 4.262453314628985], [5.3628048030908815, 4.887970689305959], [5.033574252959369, 5.611802476418234], [4.325607130560684, 6.2706511499234665], [2.6917016943562544, 6.258817246928629]]]}}, {"type": "Feature", "properties": {"iso3": "CMR", "country_name": "Cameroon", "requirements_usd": 318976221, "funding_usd": 85505871, "coverage_pct": 26.8, "n_plans": 1, "plan_names": ["Cameroon Humanitarian Needs and Response Plan 2026"], "top_donors": [{"name": "United States Department of State", "amount_usd": 30000000}, {"name": "European Commission's Humanitarian Aid and Civil Protection Department", "amount_usd": 21677641}, {"name": "European Commission", "amount_usd": 5254443}, {"name": "Swedish International Development Cooperation Agency (SIDA)", "amount_usd": 4565749}, {"name": "Germany, Government of", "amount_usd": 3628638}, {"name": "European Commission Directorate-General for International Partnerships (formerly EuropeAid DEVCO)", "amount_usd": 3162889}, {"name": "Canada, Government of", "amount_usd": 2166949}, {"name": "World Bank", "amount_usd": 2166789}], "totalPopulation": 29900000, "inNeed": 2875515, "target": 1880879}, "geometry": {"type": "Polygon", "coordinates": [[[14.495787387762846, 12.85939626713733], [14.89336000000003, 12.219049999999982], [14.9601518083376, 11.555574042197224], [14.92356489427496, 10.891325181517473], [15.467872755605242, 9.982336737503545], [14.909353875394716, 9.992129421422732], [14.62720055508106, 9.920919297724538], [14.171466098699028, 10.021378282099931], [13.954218377344006, 9.549494940626687], [14.54446658698177, 8.965861314322268], [14.97999555833769, 8.796104234243472], [15.436091749745742, 7.692812404811889], [14.776545444404576, 6.408498033062045], [14.536560092841114, 6.2269587264206905], [14.459407179429348, 5.4517605656103], [14.558935988023507, 5.03059764243153], [14.47837243008047, 4.732605495620447], [14.950953403389661, 4.210389309094921], [15.036219516671252, 3.8513672957471243], [15.405395948964383, 3.33530060466434], [15.862732374747482, 3.0135372989989833], [15.907380812247652, 2.557389431158612], [16.012852410555354, 2.267639675298085], [15.940918816805066, 1.7276726342802957], [14.33781253424658, 2.2278746606494906], [13.075822381246752, 2.2670970727590145], [12.951333855855609, 2.32161570882694], [12.359380323952221, 2.19281220133945], [11.75166548019979, 2.3267575138399934], [11.276449008843713, 2.261050930180872], [9.649158155972628, 2.2838660750377358], [9.795195753629457, 3.073404445809117], [9.404366896206, 3.734526882335203], [8.948115675501072, 3.9041289331171356], [8.744923943729418, 4.35221527751996], [8.48881554529089, 4.495617377129918], [8.500287713259695, 4.7719829370268485], [8.757532993208628, 5.479665839047911], [9.233162876023044, 6.444490668153335], [9.522705926154401, 6.453482367372117], [10.118276808318257, 7.03876963950988], [10.497375115611419, 7.0553577742755635], [11.058787876030351, 6.6444267846905944], [11.74577436691851, 6.981382961449754], [11.839308709366803, 7.397042344589437], [12.063946160539558, 7.799808457872302], [12.218872104550599, 8.305824082874324], [12.753671502339216, 8.717762762888995], [12.955467970438974, 9.417771714714704], [13.167599724997103, 9.640626328973411], [13.308676385153918, 10.160362046748928], [13.572949659894562, 10.798565985553566], [14.415378859116684, 11.572368882692075], [14.468192172918975, 11.904751695193411], [14.577177768622533, 12.085360826053503], [14.181336297266794, 12.483656927943116], [14.213530714584635, 12.802035427293347], [14.495787387762846, 12.85939626713733]]]}}, {"type": "Feature", "properties": {"iso3": "BFA", "country_name": "Burkina Faso", "requirements_usd": 658486359, "funding_usd": 121456245, "coverage_pct": 18.4, "n_plans": 1, "plan_names": ["Burkina Faso Besoins Humanitaires et Plan de R\u00e9ponse 2026"], "top_donors": [{"name": "European Commission's Humanitarian Aid and Civil Protection Department", "amount_usd": 26667513}, {"name": "Germany, Government of", "amount_usd": 10972854}, {"name": "Canada, Government of", "amount_usd": 6290023}, {"name": "Switzerland, Government of", "amount_usd": 5059047}, {"name": "Italy, Government of", "amount_usd": 4771204}, {"name": "Norway, Government of", "amount_usd": 4281063}, {"name": "Japan, Government of", "amount_usd": 3939999}, {"name": "Belgium, Government of", "amount_usd": 3630753}], "totalPopulation": 24100000, "inNeed": 4474321, "target": 2651923}, "geometry": {"type": "Polygon", "coordinates": [[[-5.404341599946974, 10.370736802609146], [-5.470564947929006, 10.951269842976048], [-5.1978425765086484, 11.37514577885014], [-5.220941941743121, 11.713858954307227], [-4.427166103523803, 12.542645575404295], [-4.28040503581488, 13.228443508349741], [-4.006390753587226, 13.472485459848116], [-3.522802700199861, 13.337661647998615], [-3.1037068343127596, 13.541266791228594], [-2.9676944645205765, 13.79815033615151], [-2.1918245100903846, 14.246417548067356], [-2.001035122068771, 14.559008287000893], [-1.0663634912056636, 14.973815009007765], [-0.5158544580003479, 15.116157741755728], [-0.2662572900305804, 14.924308986872148], [0.3748922054146817, 14.92890818934613], [0.29564639649510127, 14.444234930880654], [0.429927605805517, 13.988733018443924], [0.9930456884900708, 13.335749620003824], [1.0241032242974768, 12.851825669806574], [2.177107781593776, 12.625017808477535], [2.1544735042499212, 11.940150051313339], [1.9359855485198807, 11.641150214072553], [1.4471781754710662, 11.547719224488858], [1.2434696793764886, 11.110510769083461], [0.8995630224740694, 10.99733938236426], [0.023802524423700785, 11.018681748900804], [-0.43870154458858224, 11.098340969278722], [-0.7615758935481834, 10.936929633015055], [-1.2033577132114317, 11.009819240762738], [-2.9404093082704605, 10.962690334512558], [-2.9638962467471117, 10.395334784380083], [-2.8274963037127065, 9.642460842319778], [-3.511898972986273, 9.90032623945622], [-3.9804491845766847, 9.8623440617217], [-4.3302469547603835, 9.610834865757141], [-4.7798835921319665, 9.821984768101743], [-4.954653286143099, 10.152713934769736], [-5.404341599946974, 10.370736802609146]]]}}, {"type": "Feature", "properties": {"iso3": "CAF", "country_name": "Central African Republic", "requirements_usd": 264097388, "funding_usd": 115699855, "coverage_pct": 43.8, "n_plans": 1, "plan_names": ["R\u00e9publique Centrafricaine Besoins Humanitaires et Plan de R\u00e9ponse 2026"], "top_donors": [{"name": "United States of America, Government of", "amount_usd": 50000000}, {"name": "European Commission's Humanitarian Aid and Civil Protection Department", "amount_usd": 21821041}, {"name": "Central African Republic Humanitarian Fund", "amount_usd": 6725000}, {"name": "Germany, Government of", "amount_usd": 6525378}, {"name": "Switzerland, Government of", "amount_usd": 5162361}, {"name": "United Kingdom, Government of", "amount_usd": 4444346}, {"name": "Swedish International Development Cooperation Agency (SIDA)", "amount_usd": 3715025}, {"name": "China, Government of", "amount_usd": 3459287}], "totalPopulation": 6567382, "inNeed": 2286959, "target": 1265483}, "geometry": {"type": "Polygon", "coordinates": [[[27.37422610851749, 5.233944403500061], [27.04406538260471, 5.127852688004836], [26.402760857862543, 5.1508745385908705], [25.650455356557472, 5.256087754737123], [25.278798455514305, 5.170408229997192], [25.12883344900328, 4.92724477784779], [24.805028924262416, 4.89724660890235], [24.410531040146253, 5.10878408448913], [23.29721398285014, 4.609693101414223], [22.841479526468106, 4.710126247573484], [22.70412356943629, 4.633050848810157], [22.405123732195538, 4.029160061047321], [21.659122755630023, 4.22434194581372], [20.927591180106276, 4.322785549329737], [20.290679152108936, 4.691677761245288], [19.46778364429315, 5.03152781821278], [18.93231245288476, 4.709506130385975], [18.54298221199778, 4.201785183118318], [18.45306521980993, 3.5043858911233485], [17.809900343505262, 3.5601964379985698], [17.133042433346304, 3.728196519379452], [16.537058139724138, 3.198254706226279], [16.012852410555354, 2.267639675298085], [15.907380812247652, 2.557389431158612], [15.862732374747482, 3.0135372989989833], [15.405395948964383, 3.33530060466434], [15.036219516671252, 3.8513672957471243], [14.950953403389661, 4.210389309094921], [14.47837243008047, 4.732605495620447], [14.558935988023507, 5.03059764243153], [14.459407179429348, 5.4517605656103], [14.536560092841114, 6.2269587264206905], [14.776545444404576, 6.408498033062045], [15.279460483469109, 7.421924546737969], [16.106231723706742, 7.497087917506462], [16.290561557691888, 7.754307359239419], [16.456184523187346, 7.734773667832968], [16.705988396886255, 7.5083275415299795], [17.964929640380888, 7.890914008002994], [18.38955488452322, 8.281303615751824], [18.911021762780507, 8.630894680206353], [18.812009718509273, 8.982914536978598], [19.09400800952602, 9.07484691002584], [20.05968549976427, 9.012706000194854], [21.000868361096167, 9.475985215691509], [21.723821648859456, 10.567055568885976], [22.23112918466876, 10.97188873946061], [22.864165480244225, 11.142395127807546], [22.97754357269261, 10.71446259199854], [23.554304233502194, 10.089255275915308], [23.55724979014283, 9.681218166538684], [23.394779087017184, 9.265067857292223], [23.459012892355986, 8.954285793488893], [23.805813429466752, 8.666318874542526], [24.567369012152085, 8.229187933785468], [25.11493248871679, 7.825104071479174], [25.124130893664727, 7.500085150579437], [25.79664798351118, 6.979315904158071], [26.213418409945117, 6.546603298362072], [26.465909458123235, 5.9467174341018705], [27.21340905122517, 5.5509534773945575], [27.37422610851749, 5.233944403500061]]]}}, {"type": "Feature", "properties": {"iso3": "MOZ", "country_name": "Mozambique", "requirements_usd": 534342584, "funding_usd": 228226962, "coverage_pct": 42.7, "n_plans": 1, "plan_names": ["Mozambique Humanitarian Needs and Response Plan 2026"], "top_donors": [{"name": "United States of America, Government of", "amount_usd": 81678688}, {"name": "Mozambique (Eastern, Southern Africa HF)", "amount_usd": 77800000}, {"name": "European Commission's Humanitarian Aid and Civil Protection Department", "amount_usd": 11193478}, {"name": "Central Emergency Response Fund", "amount_usd": 9510198}, {"name": "Germany, Government of", "amount_usd": 7316392}, {"name": "Canada, Government of", "amount_usd": 4201622}, {"name": "Switzerland, Government of", "amount_usd": 3708854}, {"name": "Swedish International Development Cooperation Agency (SIDA)", "amount_usd": 2866837}], "totalPopulation": 35600000, "inNeed": 2356162, "target": 1745582}, "geometry": {"type": "Polygon", "coordinates": [[[34.55998904799935, -11.520020033415925], [35.31239790216904, -11.439146416879147], [36.51408165868426, -11.720938002166735], [36.775150994622805, -11.594537448780805], [37.471289999999954, -11.568759999999997], [37.827639999999974, -11.26878999999991], [38.42755659358775, -11.285202325081656], [39.52099999999996, -10.89688000000001], [40.31658857601719, -10.317096042525698], [40.47838748552303, -10.765440769089993], [40.437253045418686, -11.761710707245015], [40.56081139502857, -12.639176527561027], [40.59962039567975, -14.201975192931862], [40.775475294768995, -14.691764418194241], [40.4772506040126, -15.406294447493972], [40.08926395036522, -16.10077402106446], [39.45255862809705, -16.72089120856694], [37.41113284683888, -17.586368096591237], [36.28127933120936, -18.65968759529345], [35.89649661636406, -18.842260430580637], [35.198399692533144, -19.552811374593894], [34.78638349787005, -19.784011732667736], [34.70189253107284, -20.49704314543101], [35.176127150215365, -21.25436126066841], [35.37342776870574, -21.840837090748877], [35.385848253705404, -22.14], [35.562545536369086, -22.090000000000003], [35.533934767404304, -23.070787855727758], [35.37177412287238, -23.5353589820317], [35.60747033055563, -23.706563002214683], [35.45874555841962, -24.12260995859655], [35.04073489761066, -24.478350518493805], [33.01321007663901, -25.357573337507738], [32.574632195777866, -25.727318210556092], [32.66036339695009, -26.148584486599447], [32.91595503106569, -26.215867201443466], [32.830120477028885, -26.742191664336197], [32.07166548028107, -26.73382008230491], [31.75240848158188, -25.484283949487413], [31.930588820124253, -24.36941659922254], [31.19140913262129, -22.2515096981724], [32.244988234188014, -21.116488539313693], [32.50869306817344, -20.395292250248307], [32.65974327976258, -20.304290052982317], [32.772707960752626, -19.715592136313298], [32.61199425632489, -19.419382826416275], [32.65488569512715, -18.672089939043495], [32.84986087416439, -17.97905730557718], [32.847638787575846, -16.713398125884616], [32.32823896661023, -16.392074069893752], [31.8520406430406, -16.319417006091378], [31.636498243951195, -16.071990248277885], [31.17306399915768, -15.860943698797874], [30.338954705534544, -15.880839125230246], [30.17948123548183, -14.796099134991529], [33.214024692525214, -13.971860039936153], [33.789700148256685, -14.45183074306307], [34.064825473778626, -14.35995004644812], [34.45963341648854, -14.613009535381423], [34.51766604995231, -15.013708591372612], [34.307291294092096, -15.478641452702597], [34.38129194513405, -16.183559665596043], [35.033810255683534, -16.801299737213093], [35.339062941231646, -16.10744028083011], [35.77190473810836, -15.896858819240727], [35.68684533055594, -14.611045830954332], [35.26795617039801, -13.887834161029566], [34.907151320136165, -13.565424899960568], [34.55998904799935, -13.579997653866876], [34.28000613784198, -12.280025323132506], [34.55998904799935, -11.520020033415925]]]}}, {"type": "Feature", "properties": {"iso3": "LBN", "country_name": "Lebanon", "requirements_usd": 639875890, "funding_usd": 330755254, "coverage_pct": 51.7, "n_plans": 1, "plan_names": ["Lebanon Flash Appeal 2026"], "top_donors": [{"name": "Canada, Government of", "amount_usd": 19797661}, {"name": "Germany, Government of", "amount_usd": 16003888}, {"name": "Central Emergency Response Fund", "amount_usd": 14999947}, {"name": "Lebanon Humanitarian Fund", "amount_usd": 14961095}, {"name": "European Commission", "amount_usd": 11709602}, {"name": "Switzerland, Government of", "amount_usd": 9522316}, {"name": "United Kingdom, Government of", "amount_usd": 7371057}, {"name": "Sweden, Government of", "amount_usd": 5593946}], "totalPopulation": null, "inNeed": 1390000, "target": 1390000}, "geometry": {"type": "Polygon", "coordinates": [[[35.82110070165024, 33.2774264592763], [35.55279666519081, 33.26427480725802], [35.460709262846706, 33.08904002535628], [35.126052687324545, 33.09090037691878], [35.48220665868013, 33.90545014091944], [35.99840254084364, 34.644914048800004], [36.4481942075121, 34.59393524834407], [36.61175011571589, 34.20178864189718], [36.066460402172055, 33.82491242119255], [35.82110070165024, 33.2774264592763]]]}}, {"type": "Feature", "properties": {"iso3": "MDG", "country_name": "Madagascar", "requirements_usd": 67953475, "funding_usd": 45285434, "coverage_pct": 66.6, "n_plans": 1, "plan_names": ["Madagascar Appel \u00c9clair Cyclones Fytia et Gezani 2026"], "top_donors": [{"name": "United States of America, Government of", "amount_usd": 14804000}, {"name": "Central Emergency Response Fund", "amount_usd": 7500400}, {"name": "European Commission's Humanitarian Aid and Civil Protection Department", "amount_usd": 6708934}, {"name": "Germany, Government of", "amount_usd": 4463147}, {"name": "Private (individuals & organizations)", "amount_usd": 3017835}, {"name": "Switzerland, Government of", "amount_usd": 2002179}, {"name": "Canada, Government of", "amount_usd": 1236293}, {"name": "Madagascar, Government of", "amount_usd": 900000}], "totalPopulation": 33522052, "inNeed": 632461, "target": 454975}, "geometry": {"type": "Polygon", "coordinates": [[[49.54351891459575, -12.469832858940554], [49.808980747279094, -12.895284925999555], [50.056510857957164, -13.555761407121985], [50.21743126811407, -14.758788750876796], [50.47653689962553, -15.226512139550543], [50.377111443895956, -15.706069431219127], [50.20027469259318, -16.000263360256767], [49.86060550313868, -15.414252618066918], [49.67260664246086, -15.710203545802479], [49.863344354050156, -16.451036879138776], [49.77456424337271, -16.8750420060936], [49.49861209493412, -17.106035658438273], [49.435618523970305, -17.953064060134366], [47.93074913919867, -22.391501153251085], [47.54772342305131, -23.781958916928517], [47.095761346226595, -24.941629733990453], [46.282477654817086, -25.178462823184105], [45.40950768411045, -25.60143442149309], [44.03972049334976, -24.988345228782308], [43.76376834491117, -24.46067717864999], [43.697777540874455, -23.574116306250602], [43.345654331237625, -22.776903985283873], [43.254187046081, -22.057413018484123], [43.43329756040464, -21.33647511158019], [43.893682895692926, -21.16330738697013], [43.896370070172104, -20.830459486578174], [44.37432539243966, -20.07236622485639], [44.46439741392439, -19.435454196859048], [44.23242190936617, -18.961994724200906], [44.042976108584156, -18.33138722094317], [43.96308434426091, -17.409944756746782], [44.31246870298628, -16.850495700754955], [44.4465173683514, -16.216219170804507], [44.94493655780653, -16.1793738745804], [45.87299360533626, -15.793454278224687], [46.31224327981721, -15.780018405828798], [46.882182651564285, -15.210182386946315], [47.70512983581236, -14.594302666891764], [48.005214878131255, -14.091232598530375], [47.869047479042166, -13.663868503476586], [48.29382775248138, -13.784067884987486], [48.84506025573879, -13.089174899958664], [48.86350874206698, -12.48786793381042], [49.194651320193316, -12.04055673589197], [49.54351891459575, -12.469832858940554]]]}}, {"type": "Feature", "properties": {"iso3": "PSE", "country_name": "Occupied Palestinian Territory", "requirements_usd": 4064305808, "funding_usd": 1607204536, "coverage_pct": 39.5, "n_plans": 1, "plan_names": ["Escalation of Hostilities in the OPT Flash Appeal 2026"], "top_donors": [{"name": "European Commission's Humanitarian Aid and Civil Protection Department", "amount_usd": 106911199}, {"name": "United Arab Emirates, Government of", "amount_usd": 87736382}, {"name": "Canada, Government of", "amount_usd": 45109795}, {"name": "Japan, Government of", "amount_usd": 31413332}, {"name": "Germany, Government of", "amount_usd": 23796814}, {"name": "Switzerland, Government of", "amount_usd": 10233064}, {"name": "United Kingdom, Government of", "amount_usd": 9818848}, {"name": "Belgium, Government of", "amount_usd": 6270183}], "totalPopulation": 5564858, "inNeed": 3618110, "target": 2970096}, "geometry": {"type": "Polygon", "coordinates": [[[35.397560662586045, 31.489086005167582], [34.92740848159457, 31.353435370401414], [34.970506626125996, 31.61677846936081], [35.22589155451243, 31.754341132121766], [34.97464074070933, 31.866582343059722], [35.183930291491436, 32.53251068778894], [35.54566531753454, 32.393992011030576], [35.5452519060762, 31.78250478772084], [35.397560662586045, 31.489086005167582]]]}}, {"type": "Feature", "properties": {"iso3": "MMR", "country_name": "Myanmar", "requirements_usd": 889600798, "funding_usd": 414323474, "coverage_pct": 46.6, "n_plans": 1, "plan_names": ["Myanmar Humanitarian Needs and Response Plan 2026"], "top_donors": [{"name": "United States of America, Government of", "amount_usd": 140000000}, {"name": "Myanmar Humanitarian Fund", "amount_usd": 99249799}, {"name": "European Commission's Humanitarian Aid and Civil Protection Department", "amount_usd": 25001869}, {"name": "Korea, Republic of, Government of", "amount_usd": 10000000}, {"name": "United Kingdom, Government of", "amount_usd": 8100542}, {"name": "Canada, Government of", "amount_usd": 7148224}, {"name": "Swedish International Development Cooperation Agency (SIDA)", "amount_usd": 5750660}, {"name": "Switzerland, Government of", "amount_usd": 5520023}], "totalPopulation": 54900000, "inNeed": 16229050, "target": 4868096}, "geometry": {"type": "Polygon", "coordinates": [[[100.11598758341785, 20.417849636308187], [99.54330936075931, 20.186597601802063], [98.95967573445488, 19.752980658440947], [98.25372399291561, 19.708203029860044], [97.79778283080441, 18.627080389881755], [97.37589643757354, 18.445437730375815], [97.85912275593486, 17.567946071843664], [98.49376102091135, 16.83783559820793], [98.90334842325676, 16.17782420497612], [98.53737592976572, 15.308497422746084], [98.1920740091914, 15.123702500870351], [98.43081912637987, 14.622027696180837], [99.09775516153876, 13.827502549693278], [99.21201175333609, 13.269293728076464], [99.19635379435167, 12.80474843998867], [99.58728600463972, 11.892762762901697], [99.03812055867398, 10.960545762572437], [98.55355065307305, 9.932959906448545], [98.45717410684873, 10.67526601810515], [98.76454552612078, 11.441291612183749], [98.42833865762985, 12.032986761925685], [98.50957400919268, 13.122377631070677], [98.1036039571077, 13.640459703012851], [97.77773237507517, 14.837285874892642], [97.59707156778276, 16.10056793869977], [97.1645398294998, 16.92873444260934], [96.505768670643, 16.42724050543285], [95.3693522481124, 15.7143899601826], [94.80840457558412, 15.80345429123764], [94.18880415240454, 16.037936102762018], [94.53348595579135, 17.277240301985728], [94.32481652219676, 18.2135139022499], [93.54098839719364, 19.366492621330025], [93.66325483599621, 19.726961574781996], [93.07827762245219, 19.855144965081976], [92.36855350135562, 20.670883287025347], [92.30323449093868, 21.47548533780982], [92.65225711463799, 21.324047552978485], [92.67272098182556, 22.041238918541254], [93.16612755734837, 22.278459580977103], [93.06029422401463, 22.70311066333557], [93.28632693885928, 23.043658352139005], [93.3251876159428, 24.078556423432204], [94.10674197792507, 23.85074087167348], [94.55265791217164, 24.675238348890336], [94.60324913938538, 25.162495428970402], [95.1551534362626, 26.001307277932085], [95.12476769407496, 26.5735720891323], [96.41936567585097, 27.264589341739224], [97.1339990580153, 27.083773505149964], [97.0519885599681, 27.69905894623315], [97.40256147663614, 27.882536119085444], [97.32711388549004, 28.26158274994634], [97.91198774616944, 28.335945136014345], [98.2462309102333, 27.74722138112918], [98.68269005737046, 27.50881216075062], [98.71209394734451, 26.743535874940267], [98.67183800658916, 25.918702500913525], [97.72460900267914, 25.083637193293], [97.60471967976198, 23.897404690033042], [98.66026248575577, 24.063286037689966], [98.89874922078278, 23.14272207284253], [99.5319922220874, 22.94903880461258], [99.24089887898725, 22.11831431730458], [100.41653771362738, 21.558839423096614], [101.15003299357825, 21.849984442629022], [101.18000532430754, 21.436572984294028], [100.32910119018953, 20.786121731036232], [100.11598758341785, 20.417849636308187]]]}}, {"type": "Feature", "properties": {"iso3": "VNM", "country_name": "Viet Nam", "requirements_usd": 61132366, "funding_usd": 5351609, "coverage_pct": 8.8, "n_plans": 1, "plan_names": ["Viet Nam\u00a025-26 Joint Response Plan Multiple Typhoons and Floods 2026"], "top_donors": [{"name": "United States Department of State", "amount_usd": 1750000}, {"name": "Japan, Government of", "amount_usd": 1065556}, {"name": "Korea, Republic of, Government of", "amount_usd": 1015000}, {"name": "European Commission's Humanitarian Aid and Civil Protection Department", "amount_usd": 446467}, {"name": "Switzerland, Government of", "amount_usd": 408684}, {"name": "Save the Children", "amount_usd": 381279}, {"name": "Canada, Government of", "amount_usd": 284623}], "totalPopulation": 101344000, "inNeed": 1443903, "target": 658761}, "geometry": {"type": "Polygon", "coordinates": [[[104.33433475140347, 10.48654368737523], [105.19991499229235, 10.889309800658097], [106.24967003786946, 10.961811835163587], [105.81052371625313, 11.567614650921229], [107.49140302941089, 12.337205918827948], [107.61454796756243, 13.535530707244206], [107.38272749230109, 14.202440904186972], [107.5645251811039, 15.20217316330556], [107.3127059265456, 15.90853831630318], [106.55600792849569, 16.604283962464805], [105.09459842328152, 18.66697459561108], [103.89653201702671, 19.265180975821806], [104.18338789267894, 19.62466807706022], [104.8225736836971, 19.886641750563882], [104.43500044150805, 20.75873322192153], [103.20386111858645, 20.76656220141375], [102.75489627483466, 21.675137233969465], [102.17043582561358, 22.464753119389304], [102.7069922221001, 22.708795070887675], [103.50451460166056, 22.70375661873921], [104.47685835166448, 22.819150092046968], [105.32920942588663, 23.352063300056912], [105.81124718630522, 22.976892401617903], [106.72540327354847, 22.79426788989842], [106.56727339073532, 22.21820486092477], [107.04342003787264, 21.811898912029914], [108.05018029178294, 21.55237986906012], [106.7150679870901, 20.69685069425202], [105.88168216351903, 19.752050482659698], [105.66200564984631, 19.05816518806057], [107.36195356651974, 16.697456569887052], [108.26949507042963, 16.07974233648615], [108.87710656131748, 15.27669057867044], [109.33526981001722, 13.426028347217724], [109.20013593957398, 11.666859239137764], [108.36612999881545, 11.008320624226272], [107.22092858279524, 10.364483954301832], [106.40511274620343, 9.53083974856932], [105.15826378786511, 8.599759629750494], [104.79518517458239, 9.241038316276502], [105.07620161338562, 9.918490505406808], [104.33433475140347, 10.48654368737523]]]}}, {"type": "Feature", "properties": {"iso3": "BGD", "country_name": "Bangladesh", "requirements_usd": 710508363, "funding_usd": 352664082, "coverage_pct": 49.6, "n_plans": 1, "plan_names": ["Rohingya Humanitarian Crisis Joint Response Plan 2026"], "top_donors": [{"name": "Bangladesh (Asia, Pacific HF)", "amount_usd": 145896618}, {"name": "European Commission's Humanitarian Aid and Civil Protection Department", "amount_usd": 19152732}, {"name": "Australia, Government of", "amount_usd": 17165342}, {"name": "Korea, Republic of, Government of", "amount_usd": 15234763}, {"name": "European Commission", "amount_usd": 9866962}, {"name": "Japan, Government of", "amount_usd": 9394417}, {"name": "United Kingdom, Government of", "amount_usd": 8548783}, {"name": "Canada, Government of", "amount_usd": 7890586}], "totalPopulation": null, "inNeed": 1890109, "target": 1557361}, "geometry": {"type": "Polygon", "coordinates": [[[92.67272098182556, 22.041238918541254], [92.65225711463799, 21.324047552978485], [92.30323449093868, 21.47548533780982], [92.36855350135562, 20.670883287025347], [92.08288618364614, 21.19219513598577], [92.02521528520839, 21.701569729086767], [91.83489098507744, 22.182935695885565], [91.41708702999766, 22.76501902922122], [90.49600630082728, 22.80501658781513], [90.58695682166098, 22.392793687422866], [90.27297081905556, 21.83636770272011], [89.84746707556428, 22.039146023033425], [89.70204959509493, 21.857115790285306], [89.03196129756623, 22.055708319582976], [88.87631188350309, 22.87914642993783], [88.52976972855379, 23.631141872649167], [88.69994022009092, 24.23371491138856], [88.08442223506242, 24.501657212821925], [88.30637251175602, 24.866079413344206], [88.93155398962308, 25.238692328384776], [88.2097892598025, 25.768065700782714], [88.56304935094977, 26.446525580342723], [89.35509402868729, 26.014407253518073], [89.83248091019962, 25.96508209889548], [89.92069258012185, 25.26974986419218], [90.87221072791212, 25.132600612889547], [91.79959598182208, 25.147431748957317], [92.37620161333481, 24.976692816664965], [91.91509280799443, 24.130413723237112], [91.46772993364368, 24.072639471934792], [91.15896325069973, 23.50352692310439], [91.70647505083211, 22.985263983649187], [91.86992760617132, 23.624346421802784], [92.14603478390681, 23.627498684172593], [92.67272098182556, 22.041238918541254]]]}}, {"type": "Feature", "properties": {"iso3": "PAK", "country_name": "Pakistan", "requirements_usd": 64943909, "funding_usd": 25694105, "coverage_pct": 39.6, "n_plans": 1, "plan_names": ["Pakistan Floods Support Plan 2026"], "top_donors": [{"name": "European Commission's Humanitarian Aid and Civil Protection Department", "amount_usd": 8239256}, {"name": "Swedish International Development Cooperation Agency (SIDA)", "amount_usd": 6604251}, {"name": "Qatar Charity", "amount_usd": 3860194}, {"name": "Education Cannot Wait Fund", "amount_usd": 2000000}, {"name": "Qatar Fund for Development", "amount_usd": 1050455}, {"name": "Canada, Government of", "amount_usd": 965803}, {"name": "Private (individuals & organizations)", "amount_usd": 507225}, {"name": "Save the Children", "amount_usd": 490807}], "totalPopulation": 249336000, "inNeed": 2800000, "target": 1900000}, "geometry": {"type": "Polygon", "coordinates": [[[77.83745079947457, 35.494009507787766], [76.87172163280403, 34.65354401299274], [75.75706098826834, 34.50492259372132], [74.24020267120497, 34.748887030571254], [73.74994835805197, 34.31769887952785], [74.10429365427734, 33.44147329358685], [74.45155927927871, 32.7648996038055], [75.25864179881322, 32.2711054550405], [74.40592898956501, 31.69263947196528], [74.42138024282028, 30.979814764931177], [73.45063846221743, 29.97641347911987], [72.8237516620847, 28.961591701772054], [71.77766564320032, 27.913180243434525], [70.61649620960193, 27.989196275335868], [69.51439293811313, 26.940965684511372], [70.16892662952202, 26.491871649678842], [70.2828731627256, 25.72222870533983], [70.84469933460284, 25.21510203704352], [71.04324018746823, 24.3565239527302], [68.84259931831878, 24.35913361256094], [68.1766451353734, 23.69196503345671], [67.44366661974547, 23.94484365487699], [67.14544192898907, 24.663611151624647], [66.37282758979327, 25.42514089609385], [64.53040774929113, 25.23703868255143], [62.90570071803461, 25.21840932871021], [61.49736290878419, 25.0782370061185], [61.87418745305655, 26.239974880472104], [63.31663170761959, 26.756532497661667], [63.2338977395203, 27.21704702403071], [62.75542565292986, 27.378923448184988], [62.72783043808599, 28.25964488373539], [61.77186811711863, 28.6993338078908], [61.36930870956494, 29.303276272085924], [60.87424848820879, 29.829238999952608], [62.54985680527278, 29.31857249604431], [63.55026085801117, 29.468330796826166], [64.14800215033125, 29.340819200145972], [64.35041873561852, 29.560030625928093], [65.0468620136161, 29.472180691031905], [66.34647260932442, 29.887943427036177], [66.38145755398602, 30.738899237586452], [66.93889122911847, 31.304911200479353], [67.68339358914747, 31.30315420178142], [67.79268924344478, 31.58293040620963], [68.55693200060932, 31.713310044882018], [68.92667687365767, 31.620189113892067], [69.31776411324256, 31.901412258424443], [69.26252200712256, 32.5019440780883], [69.68714725126486, 33.105498969041236], [70.3235941913716, 33.35853261975839], [69.9305432473596, 34.02012014417511], [70.8818030129884, 33.98885590263852], [71.15677330921346, 34.34891144463215], [71.11501875192164, 34.733125718722235], [71.61307620635071, 35.153203436822864], [71.49876793812109, 35.650563259416], [71.26234826038575, 36.074387518857804], [71.84629194528392, 36.50994232842986], [72.92002485544447, 36.72000702569632], [74.06755171091783, 36.83617564548845], [74.57589277537298, 37.02084137628346], [75.15802778514092, 37.13303091078912], [75.89689741405013, 36.666806138651836], [76.19284834178569, 35.89840342868783], [77.83745079947457, 35.494009507787766]]]}}, {"type": "Feature", "properties": {"iso3": "AFG", "country_name": "Afghanistan", "requirements_usd": 1714181496, "funding_usd": 514789756, "coverage_pct": 30.0, "n_plans": 1, "plan_names": ["Afghanistan Humanitarian Needs and Response Plan 2026"], "top_donors": [{"name": "European Commission's Humanitarian Aid and Civil Protection Department", "amount_usd": 100126924}, {"name": "Asian Development Bank", "amount_usd": 21373631}, {"name": "United Kingdom, Government of", "amount_usd": 19203247}, {"name": "Switzerland, Government of", "amount_usd": 14627698}, {"name": "Germany, Government of", "amount_usd": 12943099}, {"name": "Canada, Government of", "amount_usd": 6700993}, {"name": "Australia, Government of", "amount_usd": 5799696}, {"name": "Japan, Government of", "amount_usd": 3287645}], "totalPopulation": 48595632, "inNeed": 21889283, "target": 17479657}, "geometry": {"type": "Polygon", "coordinates": [[[66.21738488145934, 37.39379018813392], [67.07578209825962, 37.35614390720929], [68.13556237170138, 37.02311513930431], [68.85944583524594, 37.344335842430596], [69.19627282092438, 37.15114350030743], [69.51878543485796, 37.60899669041342], [70.11657840361033, 37.58822276463209], [70.27057417184014, 37.735164699854025], [70.3763041523093, 38.13839590102752], [70.80682050973289, 38.486281643216415], [71.34813113799026, 38.25890534113216], [71.23940392444817, 37.953265082341886], [71.54191775908478, 37.905774441065645], [71.44869347523024, 37.06564484308052], [71.8446382994506, 36.73817129164692], [72.1930408059624, 36.948287665345674], [72.63688968291729, 37.047558091778356], [73.26005577992501, 37.495256862939], [73.9486959166465, 37.4215662704908], [74.98000247589542, 37.419990139305895], [75.15802778514092, 37.13303091078912], [74.57589277537298, 37.02084137628346], [74.06755171091783, 36.83617564548845], [72.92002485544447, 36.72000702569632], [71.84629194528392, 36.50994232842986], [71.26234826038575, 36.074387518857804], [71.49876793812109, 35.650563259416], [71.61307620635071, 35.153203436822864], [71.11501875192164, 34.733125718722235], [71.15677330921346, 34.34891144463215], [70.8818030129884, 33.98885590263852], [69.9305432473596, 34.02012014417511], [70.3235941913716, 33.35853261975839], [69.68714725126486, 33.105498969041236], [69.26252200712256, 32.5019440780883], [69.31776411324256, 31.901412258424443], [68.92667687365767, 31.620189113892067], [68.55693200060932, 31.713310044882018], [67.79268924344478, 31.58293040620963], [67.68339358914747, 31.30315420178142], [66.93889122911847, 31.304911200479353], [66.38145755398602, 30.738899237586452], [66.34647260932442, 29.887943427036177], [65.0468620136161, 29.472180691031905], [64.35041873561852, 29.560030625928093], [64.14800215033125, 29.340819200145972], [63.55026085801117, 29.468330796826166], [62.54985680527278, 29.31857249604431], [60.87424848820879, 29.829238999952608], [61.781221551363444, 30.735850328081238], [61.69931440618083, 31.379506130492672], [60.94194461451113, 31.548074652628753], [60.863654819588966, 32.18291962333443], [60.536077915290775, 32.98126882581157], [60.963700392506006, 33.52883230237626], [60.52842980331158, 33.676446031218006], [61.210817091725744, 35.650072333309225], [62.230651483005886, 35.270663967422294], [62.98466230657661, 35.40404083916762], [63.19353844590035, 35.857165635718914], [63.98289594915871, 36.0079574651466], [64.5464791197339, 36.31207326918427], [64.7461051776774, 37.111817735333304], [65.58894778835784, 37.30521678318564], [65.74563073106683, 37.66116404881207], [66.21738488145934, 37.39379018813392]]]}}, {"type": "Feature", "properties": {"iso3": "IRN", "country_name": "Iran, Islamic Republic of", "requirements_usd": 80000000, "funding_usd": 41623958, "coverage_pct": 52.0, "n_plans": 1, "plan_names": ["Islamic Republic of Iran Flash Refugee Response Plan March - May 2026"], "top_donors": [{"name": "European Commission's Humanitarian Aid and Civil Protection Department", "amount_usd": 14821211}, {"name": "Japan, Government of", "amount_usd": 14066667}, {"name": "Germany, Government of", "amount_usd": 8711655}, {"name": "Norway, Government of", "amount_usd": 2321690}, {"name": "Multi-donor flexible humanitarian contribution (UNICEF Global Humanitarian Thematic)", "amount_usd": 824456}, {"name": "Swedish International Development Cooperation Agency (SIDA)", "amount_usd": 732371}, {"name": "UNICEF National Committees", "amount_usd": 103912}, {"name": "Bulgaria, Government of", "amount_usd": 40462}], "totalPopulation": null, "inNeed": 2800000, "target": 2800000}, "geometry": {"type": "Polygon", "coordinates": [[[48.567971225789755, 29.926778265903522], [48.0145683123761, 30.452456773392598], [48.004698113808324, 30.985137437457244], [47.68528608581227, 30.984853217079632], [47.8492037290421, 31.70917593029867], [47.33466149271191, 32.46915538179911], [46.10936160663932, 33.017287299119005], [45.41669070819904, 33.967797756479584], [45.64845950702809, 34.748137722303014], [46.15178795755094, 35.09325877536429], [46.0763403664048, 35.67738332777549], [45.42061811705321, 35.977545884742824], [44.77267, 37.17045], [44.22575564960053, 37.97158437758935], [44.421402622257546, 38.28128123631454], [44.10922529478234, 39.4281362981681], [44.79398969908195, 39.71300263117705], [44.95268802265031, 39.33576467544637], [45.45772179543877, 38.87413910578306], [46.14362308124882, 38.74120148371222], [46.50571984231797, 38.770605373686294], [47.685079380083096, 39.50836395930122], [48.06009524922524, 39.58223541926246], [48.35552941263788, 39.28876496027691], [48.01074425638648, 38.79401479751452], [48.63437544128482, 38.27037750910097], [48.88324913920249, 38.32024526626262], [49.19961225769334, 37.582874253889884], [50.14777143738462, 37.37456655532134], [50.84235436381971, 36.8728142359834], [52.264024692601424, 36.7004216578577], [53.82578982932642, 36.965030829408235], [53.92159793479556, 37.19891836196126], [54.800303989486565, 37.392420762678185], [55.51157840355191, 37.96411713312317], [56.18037479027333, 37.93512665460743], [56.61936608259282, 38.121394354803485], [57.330433790928986, 38.02922943781094], [58.436154412678206, 37.5223094752438], [59.23476199731681, 37.41298798273034], [60.37763797388388, 36.52738312432837], [61.123070509694145, 36.491597194966246], [61.210817091725744, 35.650072333309225], [60.52842980331158, 33.676446031218006], [60.963700392506006, 33.52883230237626], [60.536077915290775, 32.98126882581157], [60.863654819588966, 32.18291962333443], [60.94194461451113, 31.548074652628753], [61.69931440618083, 31.379506130492672], [61.781221551363444, 30.735850328081238], [60.87424848820879, 29.829238999952608], [61.36930870956494, 29.303276272085924], [61.77186811711863, 28.6993338078908], [62.72783043808599, 28.25964488373539], [62.75542565292986, 27.378923448184988], [63.2338977395203, 27.21704702403071], [63.31663170761959, 26.756532497661667], [61.87418745305655, 26.239974880472104], [61.49736290878419, 25.0782370061185], [59.616134067630846, 25.380156561783778], [58.525761346272304, 25.60996165618573], [57.39725141788239, 25.73990204518364], [56.970765822177555, 26.966106268821363], [56.492138706290206, 27.143304755150197], [55.723710158110066, 26.964633490501043], [54.71508955263727, 26.480657863871514], [53.49309695823135, 26.81236888275305], [52.48359785340961, 27.580849107365495], [51.52076256694742, 27.865689602158298], [50.85294803243954, 28.814520575469388], [50.115008579311585, 30.147772528599717], [49.576850213423995, 29.985715236932407], [48.94133344909855, 30.317090359004037], [48.567971225789755, 29.926778265903522]]]}}, {"type": "Feature", "properties": {"iso3": "SYR", "country_name": "Syrian Arab Republic", "requirements_usd": 5722906443, "funding_usd": 1217357858, "coverage_pct": 21.3, "n_plans": 2, "plan_names": ["Syrian Arab Republic Humanitarian Needs and Response Plan 2026", "Syrian Arab Republic Regional Refugee and Resilience Plan (3RP) 2026"], "top_donors": [{"name": "European Commission's Humanitarian Aid and Civil Protection Department", "amount_usd": 153508183}, {"name": "United States of America, Government of", "amount_usd": 150000000}, {"name": "Japan, Government of", "amount_usd": 34357360}, {"name": "United Kingdom, Government of", "amount_usd": 30856109}, {"name": "Germany, Government of", "amount_usd": 29916109}, {"name": "Switzerland, Government of", "amount_usd": 27997539}, {"name": "Netherlands, Government of", "amount_usd": 12732111}, {"name": "United States Department of State", "amount_usd": 9585000}], "totalPopulation": 25600000, "inNeed": 15598267, "target": 8565035}, "geometry": {"type": "Polygon", "coordinates": [[[35.71991824722275, 32.709192409794866], [35.836396925608625, 32.86812327730851], [35.82110070165024, 33.2774264592763], [36.066460402172055, 33.82491242119255], [36.61175011571589, 34.20178864189718], [36.4481942075121, 34.59393524834407], [35.99840254084364, 34.644914048800004], [35.905023227692226, 35.410009467097325], [36.149762811026534, 35.82153473565367], [36.6853890317318, 36.259699205056464], [36.7394942563414, 36.81752045343109], [37.06676110204583, 36.62303620050062], [38.1677274920242, 36.90121043552777], [38.6998913917659, 36.71292735447234], [39.52258019385255, 36.71605377862599], [40.67325931169569, 37.09127635349729], [41.21208947120305, 37.074352321921694], [42.34959109881177, 37.2298725449041], [41.83706424334096, 36.605853786763575], [41.289707472505455, 36.35881460219227], [41.383965285005814, 35.628316555314356], [41.006158888519934, 34.41937226006212], [38.792340529136084, 33.378686428352225], [36.834062127435544, 32.312937526980775], [35.71991824722275, 32.709192409794866]]]}}, {"type": "Feature", "properties": {"iso3": "UKR", "country_name": "Ukraine", "requirements_usd": 2303961975, "funding_usd": 1664538592, "coverage_pct": 72.2, "n_plans": 1, "plan_names": ["Ukraine Humanitarian Needs and Response Plan 2026"], "top_donors": [{"name": "Norway, Government of", "amount_usd": 111576087}, {"name": "European Commission's Humanitarian Aid and Civil Protection Department", "amount_usd": 99821260}, {"name": "Germany, Government of", "amount_usd": 61397862}, {"name": "Switzerland, Government of", "amount_usd": 51615085}, {"name": "United Kingdom, Government of", "amount_usd": 33899265}, {"name": "Denmark, Government of", "amount_usd": 10355884}, {"name": "Qatar Fund for Development", "amount_usd": 8361000}, {"name": "Sweden, Government of", "amount_usd": 7867852}], "totalPopulation": 34200000, "inNeed": 10849697, "target": 4118954}, "geometry": {"type": "Polygon", "coordinates": [[[31.78599244755525, 52.1016775699397], [32.15944000000013, 52.06125000000014], [32.41205813978769, 52.28869497334978], [32.715760532367085, 52.23846548116211], [33.75269982273579, 52.3350745713318], [34.39173058445709, 51.768881740925906], [34.141978387190534, 51.566413479206346], [34.22481570815427, 51.25599315042888], [35.02218305841791, 51.2075723333715], [35.377909999999986, 50.773940000000096], [35.356116163887975, 50.57719737405904], [36.62616784032542, 50.225590928745135], [37.39345950699516, 50.38395335550365], [38.01063113785693, 49.9156615260747], [38.59498823421342, 49.9264619004237], [40.06904000000014, 49.60104999999999], [40.080789015469406, 49.30742991799934], [39.674649999999986, 48.78382000000016], [39.89562000000018, 48.23241000000007], [39.738277622238854, 47.89893707945197], [38.77057000000008, 47.825620000000185], [38.25511233902978, 47.54640045835691], [38.223538038899335, 47.10218984637595], [37.4251371599899, 47.02222056740419], [36.75985477066445, 46.69870026304102], [35.82368452326489, 46.64596446388714], [34.96234174982385, 46.27319651954974], [35.01265897004737, 45.73772519982549], [34.861792128174045, 45.76818243191957], [34.73201738827845, 45.96566573176062], [34.41040172853718, 46.005162391728845], [33.69946184910907, 46.219572831556434], [33.435988094713366, 45.971917370797485], [33.29856733575474, 46.08059845639781], [31.744140252415207, 46.33334788673733], [31.67530724460255, 46.70624502215554], [30.74874881360921, 46.583100084004116], [30.377608676888883, 46.03241018328572], [29.603289015427436, 45.293308010431126], [29.149724969201653, 45.464925442072456], [28.67977949393938, 45.304030870131704], [28.23355350109904, 45.48828318946829], [28.485269402792767, 45.5969070501459], [28.65998742037158, 45.93998688413164], [28.933717482221596, 46.25883047137256], [28.862972446414062, 46.43788930926383], [29.07210696789929, 46.517677720722496], [29.170653924279804, 46.37926239682872], [29.759971958136394, 46.34998769793536], [30.024658644335375, 46.42393667254504], [29.838210076626297, 46.52532583270169], [29.908851759569302, 46.67436066343146], [29.559674106573112, 46.928582872091326], [29.415135125452736, 47.34664520933258], [29.05086795422727, 47.5102269557525], [29.12269819511303, 47.849095160506465], [28.670891147585166, 48.1181485052341], [28.259546746541844, 48.15556224221342], [27.522537469195157, 48.467119452501116], [26.857823520624805, 48.368210761094495], [26.619336785597795, 48.22072622333347], [26.19745039236693, 48.22088125263035], [25.9459411964024, 47.987148749374214], [25.20774336111299, 47.89105642352747], [24.866317172960578, 47.737525743188314], [24.40205610525038, 47.98187775328043], [23.76095828623741, 47.985598456405455], [23.142236362406805, 48.09634105080695], [22.710531447040495, 47.88219391538941], [22.640819939878725, 48.150239569687415], [22.085608351334855, 48.42226430927179], [22.28084191253356, 48.82539215758067], [22.558137648211755, 49.085738023467144], [22.776418898212626, 49.02739533140962], [22.518450148211603, 49.47677358661974], [23.426508416444392, 50.30850576435745], [23.92275719574326, 50.42488108987874], [24.029985792748903, 50.70540660257518], [23.52707075368437, 51.57845408793031], [24.00507775238418, 51.617443956094405], [24.553106316839518, 51.888461005249184], [25.32778771332701, 51.91065603291855], [26.337958611768556, 51.83228872334797], [27.454066196408405, 51.592303371784396], [28.24161502453657, 51.57222707783907], [28.61761274589225, 51.42771393493484], [28.992835320763533, 51.602044379271476], [29.25493818534784, 51.36823436136689], [30.157363722460897, 51.41613841410147], [30.555117221811457, 51.31950348571566], [30.619454380014815, 51.822806098022454], [30.927549269338982, 52.04235342061439], [31.78599244755525, 52.1016775699397]]]}}, {"type": "Feature", "properties": {"iso3": "LKA", "country_name": "Sri Lanka", "requirements_usd": 35300000, "funding_usd": 25123221, "coverage_pct": 71.2, "n_plans": 1, "plan_names": ["Sri Lanka Humanitarian Priorities Plan Cyclone Ditwa 2026"], "top_donors": [{"name": "United States Department of State", "amount_usd": 4000000}, {"name": "Japan, Government of", "amount_usd": 3666666}, {"name": "Qatar Charity", "amount_usd": 3241253}, {"name": "European Commission's Humanitarian Aid and Civil Protection Department", "amount_usd": 2998886}, {"name": "Canada, Government of", "amount_usd": 2322910}, {"name": "Germany, Government of", "amount_usd": 1623045}, {"name": "Korea, Republic of, Government of", "amount_usd": 1560000}, {"name": "Australia, Government of", "amount_usd": 1420455}], "totalPopulation": 23200000, "inNeed": 1200000, "target": 658370}, "geometry": {"type": "Polygon", "coordinates": [[[81.7879590188914, 7.523055324733164], [81.63732221876059, 6.481775214051922], [81.21801964714433, 6.197141424988288], [80.34835696810441, 5.968369859232155], [79.87246870312853, 6.76346344647493], [79.69516686393513, 8.200843410673386], [80.14780073437964, 9.824077663609557], [80.83881798698656, 9.268426825391188], [81.30431928907177, 8.56420624433369], [81.7879590188914, 7.523055324733164]]]}}, {"type": "Feature", "properties": {"iso3": "YEM", "country_name": "Yemen", "requirements_usd": 2162563336, "funding_usd": 432462630, "coverage_pct": 20.0, "n_plans": 1, "plan_names": ["Yemen Humanitarian Needs and Response Plan 2026"], "top_donors": [{"name": "European Commission's Humanitarian Aid and Civil Protection Department", "amount_usd": 104336105}, {"name": "United Kingdom, Government of", "amount_usd": 35403393}, {"name": "Germany, Government of", "amount_usd": 23190502}, {"name": "KFW Development", "amount_usd": 16218457}, {"name": "Canada, Government of", "amount_usd": 16063691}, {"name": "Korea, Republic of, Government of", "amount_usd": 12899222}, {"name": "Saudi Arabia (Kingdom of), Government of", "amount_usd": 12884656}, {"name": "Switzerland, Government of", "amount_usd": 10668033}], "totalPopulation": 41800000, "inNeed": 22325198, "target": 12004155}, "geometry": {"type": "Polygon", "coordinates": [[[52.00000980002224, 19.000003363516058], [53.10857262554751, 16.651051133688952], [52.38520592632588, 16.382411200419654], [52.19172936382509, 15.93843313238402], [52.1681649107, 15.597420355689948], [51.172515089732485, 15.175249742081492], [49.57457645040315, 14.708766587782748], [48.67923058451416, 14.00320241948566], [48.23894738138742, 13.948089504446372], [47.938914015500785, 14.007233181204427], [47.354453566279716, 13.592219753468383], [46.717076450391744, 13.39969920496502], [45.87759280781027, 13.347764390511685], [45.62505008319988, 13.290946153206763], [45.406458774605255, 13.026905422411433], [45.14435591002086, 12.95393830001531], [44.989533318874415, 12.69958690027471], [44.49457645038285, 12.721652736863348], [44.17511274595449, 12.585950425664876], [43.48295861183713, 12.636800035040084], [43.22287112811213, 13.220950425667425], [43.25144819516953, 13.767583726450852], [43.08794396339806, 14.06263031662131], [42.892245314308724, 14.802249253798749], [42.60487267433362, 15.213335272680595], [42.80501549660005, 15.261962795467255], [42.70243777850066, 15.718885809791999], [42.823670688657415, 15.911742255105267], [42.77933230975097, 16.347891343648683], [43.21837527850275, 16.66688996018641], [43.11579756040336, 17.088440456607373], [43.380794305196105, 17.57998668056767], [43.79151858905192, 17.31997671149111], [44.06261315285508, 17.410358791569593], [45.21665123879719, 17.433328965723334], [45.39999922056876, 17.333335069238558], [46.366658563020536, 17.233315334537636], [46.74999433776165, 17.283338120996177], [47.000004917189756, 16.949999294497445], [47.46669477721763, 17.116681626854884], [48.18334354024134, 18.166669216377315], [49.11667158386487, 18.616667588774945], [52.00000980002224, 19.000003363516058]]]}}, {"type": "Feature", "properties": {"iso3": "DJI", "country_name": "Djibouti", "requirements_usd": 52990581, "funding_usd": 43465950, "coverage_pct": 82.0, "n_plans": 1, "plan_names": ["Regional Migrant Response Plan for Horn of Africa to Yemen and Southern Africa 2026"], "top_donors": [{"name": "United Kingdom, Government of", "amount_usd": 10615584}, {"name": "European Commission's Humanitarian Aid and Civil Protection Department", "amount_usd": 10609605}, {"name": "United States Department of State", "amount_usd": 8398192}, {"name": "Canada, Government of", "amount_usd": 4894233}, {"name": "Japan, Government of", "amount_usd": 3852632}, {"name": "Korea, Republic of, Government of", "amount_usd": 2468739}, {"name": "Kenya (Eastern, Southern Africa HF)", "amount_usd": 1065519}, {"name": "Djibouti, Government of", "amount_usd": 1000000}], "totalPopulation": null, "inNeed": 1352987, "target": 868751}, "geometry": {"type": "Polygon", "coordinates": [[[42.35156000000012, 12.542230000000131], [42.77964236834475, 12.455415757695675], [43.08122602720016, 12.699638576707116], [43.31785241066467, 12.390148423711025], [43.286381463398925, 11.974928290245884], [42.715873650896526, 11.735640570518342], [43.14530480324214, 11.462039699748857], [42.77685184100096, 10.92687856693442], [42.55493000000013, 11.105110000000195], [42.31414000000012, 11.034200000000055], [41.755570000000205, 11.050910000000101], [41.73959000000019, 11.355110000000138], [41.66176000000013, 11.631199999999978], [42.35156000000012, 12.542230000000131]]]}}, {"type": "Feature", "properties": {"iso3": "UGA", "country_name": "Uganda", "requirements_usd": 828700000, "funding_usd": 278193836, "coverage_pct": 33.6, "n_plans": 1, "plan_names": ["Uganda Regional Refugee Response Plan 2026"], "top_donors": [{"name": "United States of America, Government of", "amount_usd": 156000000}, {"name": "Uganda (Eastern, Southern Africa HF)", "amount_usd": 38659963}, {"name": "United States Department of State", "amount_usd": 17710000}, {"name": "European Commission's Humanitarian Aid and Civil Protection Department", "amount_usd": 15436539}, {"name": "Private (individuals & organizations)", "amount_usd": 6491540}, {"name": "Netherlands, Government of", "amount_usd": 6440160}, {"name": "Korea, Republic of, Government of", "amount_usd": 6163765}, {"name": "Canada, Government of", "amount_usd": 6076509}], "totalPopulation": null, "inNeed": 2225443, "target": 2225443}, "geometry": {"type": "Polygon", "coordinates": [[[33.90371119710453, -0.9500000000000001], [31.866170000000068, -1.0273599999999306], [30.769860000000108, -1.0145499999999856], [30.419104852019245, -1.1346591121504161], [29.821518588996014, -1.4433224422297855], [29.579466180140884, -1.3413131648856265], [29.58783776217217, -0.587405694179381], [29.819503208136638, -0.2053101538133717], [29.875778842902434, 0.5973798689763612], [30.086153598762706, 1.0623127303062887], [30.46850752129029, 1.5838054467797065], [30.85267011894806, 1.8493964705438088], [31.174149204235817, 2.204465236821264], [30.77334679538004, 2.339883327642127], [30.833852421715427, 3.5091716042224625], [31.24556000000007, 3.7819000000000074], [31.881449999999973, 3.558269999999993], [32.686420000000055, 3.7923200000000747], [33.3900000000001, 3.7899999999999636], [34.005, 4.249884947362048], [34.47913, 3.5556000000000836], [34.59607, 3.0537400000001185], [35.03599, 1.90584], [34.6721, 1.1769399999999999], [33.893568969666944, 0.1098135378618963], [33.90371119710453, -0.9500000000000001]]]}}, {"type": "Feature", "properties": {"iso3": "SSD", "country_name": "South Sudan", "requirements_usd": 1463046056, "funding_usd": 522596631, "coverage_pct": 35.7, "n_plans": 1, "plan_names": ["South Sudan Humanitarian Needs and Response Plan 2026"], "top_donors": [{"name": "United States of America, Government of", "amount_usd": 100000000}, {"name": "United Kingdom, Government of", "amount_usd": 38964507}, {"name": "European Commission's Humanitarian Aid and Civil Protection Department", "amount_usd": 24540998}, {"name": "Germany, Government of", "amount_usd": 15594410}, {"name": "African Development Bank", "amount_usd": 12122279}, {"name": "Korea, Republic of, Government of", "amount_usd": 10026268}, {"name": "Republic of South Sudan, Government of", "amount_usd": 9340491}, {"name": "Switzerland, Government of", "amount_usd": 9159287}], "totalPopulation": 14363363, "inNeed": 9913863, "target": 4343435}, "geometry": {"type": "Polygon", "coordinates": [[[30.833852421715427, 3.5091716042224625], [29.953500197069474, 4.173699042167684], [29.71599531425602, 4.600804755060153], [29.1590784034465, 4.389267279473231], [28.696677687298802, 4.455077215996937], [28.428993768026913, 4.287154649264494], [27.97997724784281, 4.408413397637375], [27.37422610851749, 5.233944403500061], [27.21340905122517, 5.5509534773945575], [26.465909458123235, 5.9467174341018705], [26.213418409945117, 6.546603298362072], [25.79664798351118, 6.979315904158071], [25.124130893664727, 7.500085150579437], [25.11493248871679, 7.825104071479174], [24.567369012152085, 8.229187933785468], [23.886979580860668, 8.619729712933065], [24.53741516360202, 8.91753756573172], [24.794925745412684, 9.810240916008695], [25.069603699343986, 10.273759963267992], [25.790633328413946, 10.411098940233728], [25.962307049621018, 10.136420986302426], [26.477328213242515, 9.552730334198088], [26.752006167173818, 9.466893473594496], [27.112520981708883, 9.638567194801624], [27.833550610778786, 9.60423245056029], [27.970889587744352, 9.398223985111656], [28.966597170745786, 9.398223985111656], [29.000931914987177, 9.60423245056029], [29.515953078608618, 9.793073543888056], [29.61895731133285, 10.084918869940225], [29.996639497988554, 10.290927335388687], [30.837840731903384, 9.70723668328452], [31.35286189552488, 9.810240916008695], [31.850715687025513, 10.531270545078826], [32.400071594888345, 11.080626452941488], [32.31423473428475, 11.68148447716652], [32.073891524594785, 11.973329803218519], [32.67474954881965, 12.02483191958072], [32.743419037302544, 12.248007757149992], [33.206938084561784, 12.179338268667095], [33.086766479716744, 11.441141267476496], [33.206938084561784, 10.720111638406593], [33.72195924818311, 10.325262079630193], [33.84213085302815, 9.981914637215993], [33.82496348090751, 9.484060845715362], [33.963392794971185, 9.464285229420625], [33.97498000000007, 8.68455999999992], [33.82550000000015, 8.37916000000007], [33.29480000000012, 8.354580000000055], [32.954180000000065, 7.784970000000101], [33.568290000000104, 7.7133400000000165], [34.07510000000002, 7.2259500000000685], [34.250320000000045, 6.8260700000000725], [34.70702, 6.594220000000121], [35.29800711823298, 5.506], [34.005, 4.249884947362048], [33.3900000000001, 3.7899999999999636], [32.686420000000055, 3.7923200000000747], [31.881449999999973, 3.558269999999993], [31.24556000000007, 3.7819000000000074], [30.833852421715427, 3.5091716042224625]]]}}]}