{"type": "Feature", "properties": {"name": "Lake Ontario", "name:moh": "Oniatar\u00ed:io", "name:cay": "Ganyad\u00e1iyo\u02c0", "name:oj": "Niigani-gichigami", "sqkm": "19011", "wikidata": "Q1062", "osm_relation": 1206310}, "geometry": {"type": "Polygon", "coordinates": [[[-78.253735, 43.3719736], [-78.3003973, 43.3711699], [-78.3102984, 43.373635], [-78.363508, 43.3739891], [-78.3702903, 43.3762498], [-78.4720216, 43.370646], [-78.4859298, 43.3750241], [-78.5301781, 43.3714287], [-78.6366852, 43.3574827], [-78.6972332, 43.3409285], [-78.7161377, 43.3389002], [-78.7185701, 43.3407518], [-78.7188908, 43.3383993], [-78.7195439, 43.3407895], [-78.7756042, 43.3272439], [-78.8363492, 43.3182388], [-78.8518334, 43.3120122], [-78.9256871, 43.2948194], [-78.9826119, 43.2786833], [-79.0214919, 43.2735152], [-79.0646058, 43.2628611], [-79.0890791, 43.2621674], [-79.116194, 43.2560922], [-79.131353, 43.2581507], [-79.1935637, 43.2281527], [-79.2117342, 43.2270029], [-79.2134137, 43.2293921], [-79.2112841, 43.2364768], [-79.2123463, 43.2416076], [-79.2074592, 43.2442879], [-79.2176009, 43.2448707], [-79.2197147, 43.2422113], [-79.220676, 43.2263541], [-79.2293846, 43.2195083], [-79.2557456, 43.2069155], [-79.2592393, 43.2065633], [-79.2594177, 43.2088321], [-79.2593995, 43.2067481], [-79.2632363, 43.2074923], [-79.2633876, 43.2094656], [-79.2590427, 43.2093031], [-79.2635816, 43.2111668], [-79.2643164, 43.2053129], [-79.2927371, 43.1955283], [-79.3174971, 43.1834218], [-79.3357393, 43.1805243], [-79.3649179, 43.1828565], [-79.3656841, 43.184988], [-79.3767482, 43.1863211], [-79.3943199, 43.1943477], [-79.4135825, 43.1982984], [-79.4509615, 43.1982615], [-79.4652881, 43.1950529], [-79.4775412, 43.1966222], [-79.4881218, 43.194266], [-79.5007112, 43.1966697], [-79.5294909, 43.19532], [-79.5572507, 43.206178], [-79.5856319, 43.2062378], [-79.6014474, 43.2129936], [-79.6160853, 43.222283], [-79.6180353, 43.2260275], [-79.6266956, 43.2238823], [-79.6228847, 43.2262151], [-79.6280775, 43.2286104], [-79.6543984, 43.2226818], [-79.6820897, 43.233853], [-79.6892314, 43.2355139], [-79.6915784, 43.2321596], [-79.6901362, 43.235548], [-79.7075608, 43.2357964], [-79.7314224, 43.2453195], [-79.7467397, 43.2462895], [-79.756493, 43.2518706], [-79.7701771, 43.2644406], [-79.7851533, 43.2836455], [-79.794091, 43.297854], [-79.7904151, 43.3011414], [-79.7987892, 43.2967793], [-79.7965576, 43.2967105], [-79.7904043, 43.2848753], [-79.7941226, 43.2836396], [-79.7925396, 43.2801735], [-79.7813188, 43.2687637], [-79.7856928, 43.2690781], [-79.7883419, 43.2629367], [-79.7866399, 43.2692838], [-79.7891934, 43.2708743], [-79.7900994, 43.2688678], [-79.7903854, 43.2689782], [-79.7893403, 43.2712274], [-79.7944291, 43.2749613], [-79.7973387, 43.2738302], [-79.8013213, 43.2666932], [-79.7965321, 43.2783301], [-79.8037767, 43.2802703], [-79.8113747, 43.263481], [-79.808051, 43.2715918], [-79.8095188, 43.2724216], [-79.8046343, 43.2803853], [-79.8259897, 43.2851752], [-79.832067, 43.2717505], [-79.8328936, 43.2742956], [-79.8356026, 43.2730184], [-79.8324385, 43.2716287], [-79.833318, 43.2697153], [-79.8403034, 43.2734974], [-79.8427724, 43.2704316], [-79.8413591, 43.2737169], [-79.8443281, 43.2743602], [-79.8465117, 43.2711113], [-79.8450386, 43.2745144], [-79.8491132, 43.2753819], [-79.8516698, 43.2711241], [-79.8498356, 43.2755425], [-79.854541, 43.2765115], [-79.8530549, 43.2746176], [-79.8614581, 43.2781695], [-79.8601116, 43.2750022], [-79.8666127, 43.2737865], [-79.8683981, 43.275508], [-79.8694569, 43.272903], [-79.8674221, 43.2713985], [-79.8695844, 43.2698506], [-79.8710018, 43.2727259], [-79.875785, 43.273355], [-79.8744519, 43.2717097], [-79.8767928, 43.2713489], [-79.8713696, 43.2699607], [-79.8718715, 43.2691764], [-79.8834511, 43.2717192], [-79.8898001, 43.2797485], [-79.8934838, 43.2793651], [-79.892907, 43.2705161], [-79.8941156, 43.2626663], [-79.8932, 43.2718361], [-79.8964394, 43.2759901], [-79.9057137, 43.2690776], [-79.901551, 43.273746], [-79.9088723, 43.2697963], [-79.9120738, 43.2715962], [-79.9215152, 43.2678777], [-79.9194552, 43.2703151], [-79.9215152, 43.2719087], [-79.9169147, 43.2741209], [-79.9252861, 43.2716542], [-79.9252749, 43.2723502], [-79.9232747, 43.2746521], [-79.9116189, 43.2779953], [-79.9072158, 43.2772204], [-79.9077394, 43.2799449], [-79.8987341, 43.2821018], [-79.8968989, 43.2856121], [-79.8927962, 43.2797949], [-79.8901836, 43.2797907], [-79.8905471, 43.2849189], [-79.8874464, 43.2894147], [-79.886219, 43.28416], [-79.8812149, 43.2840915], [-79.8834178, 43.2804501], [-79.8741939, 43.2867844], [-79.868057, 43.2864095], [-79.8484286, 43.3007055], [-79.8443587, 43.2989479], [-79.8452968, 43.3010249], [-79.8385687, 43.3049849], [-79.8129699, 43.3132378], [-79.8063866, 43.3131526], [-79.8085196, 43.3144532], [-79.8060147, 43.3133069], [-79.8009728, 43.303457], [-79.8043084, 43.3000027], [-79.8016219, 43.2969418], [-79.791024, 43.301784], [-79.7948238, 43.3006757], [-79.7968852, 43.3024827], [-79.8006534, 43.3133286], [-79.7999815, 43.3196875], [-79.7718983, 43.3350281], [-79.7539216, 43.3516863], [-79.7265649, 43.3680337], [-79.7232419, 43.3726774], [-79.7166759, 43.3745853], [-79.709833, 43.3924814], [-79.708072, 43.39232], [-79.7066653, 43.392673], [-79.7104715, 43.3929553], [-79.7126516, 43.390878], [-79.7143445, 43.3918961], [-79.7103845, 43.3937342], [-79.7058599, 43.3928153], [-79.7035265, 43.3935142], [-79.7067309, 43.3936787], [-79.7035617, 43.3962509], [-79.7017389, 43.3951252], [-79.7030266, 43.3929111], [-79.7014759, 43.3952965], [-79.7027863, 43.3983384], [-79.6916624, 43.4039613], [-79.6907935, 43.413506], [-79.6856619, 43.4165391], [-79.6841224, 43.4241453], [-79.6793109, 43.4272726], [-79.6779999, 43.4314182], [-79.6661631, 43.4395963], [-79.6616732, 43.4469472], [-79.6453365, 43.460755], [-79.6412263, 43.4687978], [-79.6270135, 43.4775868], [-79.6254333, 43.4827794], [-79.6159981, 43.4879921], [-79.61249, 43.4859521], [-79.6155631, 43.4889254], [-79.6138314, 43.4932008], [-79.6066285, 43.4965484], [-79.6025765, 43.4927927], [-79.6064299, 43.4966355], [-79.6011679, 43.5098916], [-79.6022944, 43.5237227], [-79.5992285, 43.5344014], [-79.5951592, 43.5390506], [-79.590064, 43.5394906], [-79.5845007, 43.544262], [-79.5826088, 43.5432427], [-79.5811823, 43.5470053], [-79.5867218, 43.5505021], [-79.597479, 43.5524386], [-79.5988622, 43.5538535], [-79.5976719, 43.5539939], [-79.5926641, 43.5531534], [-79.5852263, 43.5503629], [-79.5850855, 43.5512389], [-79.5804428, 43.5481809], [-79.5764998, 43.5481063], [-79.5804732, 43.5484591], [-79.5811099, 43.552319], [-79.5747407, 43.5486785], [-79.5762354, 43.5474889], [-79.5745997, 43.5487101], [-79.5810125, 43.5526687], [-79.5717861, 43.5570356], [-79.5644495, 43.5641063], [-79.5665998, 43.5649568], [-79.5692086, 43.5668293], [-79.5648166, 43.5646274], [-79.5621655, 43.5618106], [-79.5605186, 43.5630195], [-79.5636226, 43.5652461], [-79.5612248, 43.5674474], [-79.5619516, 43.5651569], [-79.5592863, 43.5626343], [-79.5577247, 43.5624118], [-79.5559847, 43.5637283], [-79.5580122, 43.5637373], [-79.5571601, 43.5673491], [-79.5590602, 43.5684562], [-79.5563149, 43.5678581], [-79.55427, 43.5713864], [-79.5556106, 43.5630056], [-79.5530537, 43.5681637], [-79.5480513, 43.5713778], [-79.5419934, 43.5678312], [-79.5471837, 43.5717465], [-79.5520325, 43.5697485], [-79.5483986, 43.5719644], [-79.5463756, 43.5719114], [-79.5420254, 43.5690805], [-79.5408777, 43.5686306], [-79.5440848, 43.5705336], [-79.5393252, 43.5734802], [-79.5412686, 43.5744722], [-79.543041, 43.5817624], [-79.5375431, 43.5878712], [-79.5186339, 43.590753], [-79.5151913, 43.5889181], [-79.5155502, 43.5908504], [-79.5110932, 43.5888104], [-79.5172526, 43.5883926], [-79.5093814, 43.587232], [-79.5106503, 43.5936378], [-79.5010453, 43.594886], [-79.4962111, 43.6019222], [-79.4925633, 43.6021273], [-79.4871732, 43.6084829], [-79.4870362, 43.6129666], [-79.4843607, 43.6179133], [-79.4788589, 43.6171823], [-79.4804648, 43.614082], [-79.4841602, 43.6132039], [-79.478943, 43.6120798], [-79.4742441, 43.6212102], [-79.4691243, 43.6225899], [-79.4719633, 43.6253817], [-79.4738773, 43.6226665], [-79.478858, 43.6220441], [-79.4749245, 43.6285502], [-79.460202, 43.6367876], [-79.447447, 43.6365261], [-79.4272553, 43.6297335], [-79.4103553, 43.6310914], [-79.4143006, 43.6300417], [-79.4137835, 43.6289765], [-79.4145716, 43.627705], [-79.4160031, 43.6282631], [-79.4178983, 43.6279585], [-79.4187105, 43.6272276], [-79.4196601, 43.6293401], [-79.4227785, 43.6290825], [-79.4224051, 43.6274989], [-79.4199499, 43.6267716], [-79.419491, 43.6269276], [-79.4180202, 43.6264906], [-79.4166148, 43.6263023], [-79.4156653, 43.6263799], [-79.4186409, 43.6267801], [-79.4106942, 43.6275816], [-79.408636, 43.633075], [-79.4016057, 43.6342066], [-79.4003088, 43.6329282], [-79.4044258, 43.6315607], [-79.4023177, 43.6310141], [-79.3954453, 43.6347261], [-79.3969532, 43.636424], [-79.3944545, 43.6354711], [-79.3894361, 43.638684], [-79.3795893, 43.6380476], [-79.3802679, 43.6396832], [-79.3788459, 43.6383645], [-79.3602895, 43.6466838], [-79.3471241, 43.6332332], [-79.3406332, 43.6390626], [-79.3358716, 43.6393679], [-79.334391, 43.6404447], [-79.3374252, 43.6402127], [-79.3286701, 43.6474396], [-79.3295449, 43.6490644], [-79.3253928, 43.6456198], [-79.3285125, 43.6443282], [-79.3274315, 43.6416127], [-79.3309352, 43.6386692], [-79.3294993, 43.6370497], [-79.3247261, 43.6400868], [-79.3262807, 43.6408236], [-79.3243106, 43.6452305], [-79.3216073, 43.6446962], [-79.3229886, 43.6382429], [-79.3290549, 43.6336186], [-79.3289536, 43.6334494], [-79.3278238, 43.6342553], [-79.3264532, 43.6346494], [-79.3257746, 43.634265], [-79.3267671, 43.6317859], [-79.3296309, 43.6333948], [-79.3364468, 43.6292612], [-79.3289148, 43.6309204], [-79.3316982, 43.626645], [-79.3274591, 43.6275368], [-79.3241848, 43.6258715], [-79.3242726, 43.6228744], [-79.3330988, 43.6223337], [-79.3312962, 43.6258], [-79.3347385, 43.6252081], [-79.3391693, 43.6293955], [-79.3375365, 43.6226759], [-79.3431678, 43.6233989], [-79.3397789, 43.6211968], [-79.3416028, 43.6197891], [-79.3432913, 43.6221395], [-79.3450575, 43.621791], [-79.3432556, 43.6201881], [-79.344255, 43.6135943], [-79.3366554, 43.6191997], [-79.3272007, 43.6188716], [-79.3275511, 43.6219289], [-79.3248189, 43.621358], [-79.3273348, 43.617689], [-79.3238224, 43.6173288], [-79.3211853, 43.6429435], [-79.315109, 43.6511665], [-79.3166974, 43.6573005], [-79.313078, 43.6579466], [-79.3177868, 43.6609423], [-79.3133356, 43.6616107], [-79.3124391, 43.6567911], [-79.3069226, 43.657293], [-79.3112241, 43.6558839], [-79.3085045, 43.6541653], [-79.3049669, 43.6566746], [-79.3059428, 43.6607895], [-79.3025029, 43.6648274], [-79.2776235, 43.671909], [-79.2555925, 43.6950746], [-79.2410513, 43.7030849], [-79.2356783, 43.7012723], [-79.2336842, 43.7068939], [-79.2289682, 43.7046576], [-79.2274817, 43.707345], [-79.2318127, 43.7067044], [-79.2327167, 43.709654], [-79.2293942, 43.7125416], [-79.2268489, 43.7124317], [-79.2280533, 43.7082307], [-79.2259937, 43.7072934], [-79.2224896, 43.7192269], [-79.188712, 43.7467898], [-79.1701244, 43.7559032], [-79.1523097, 43.7594828], [-79.1341423, 43.7739523], [-79.119723, 43.7916235], [-79.0985423, 43.8086606], [-79.0908093, 43.8123053], [-79.0867736, 43.8123917], [-79.0861936, 43.8104257], [-79.0867167, 43.8136203], [-79.095795, 43.8113413], [-79.0961617, 43.8208054], [-79.0991122, 43.8223026], [-79.0959973, 43.8241304], [-79.0924664, 43.8219019], [-79.0916511, 43.8220525], [-79.091084, 43.8229926], [-79.0906799, 43.8230927], [-79.0902131, 43.8206278], [-79.0921437, 43.8210572], [-79.0894669, 43.8201432], [-79.0902741, 43.8185741], [-79.0805168, 43.8129938], [-79.0765913, 43.812978], [-79.0790966, 43.8158754], [-79.0767096, 43.8152897], [-79.0758294, 43.8185262], [-79.0714851, 43.8196067], [-79.0757564, 43.8167614], [-79.0751043, 43.8119361], [-79.0859222, 43.8134499], [-79.0861289, 43.812504], [-79.0856514, 43.8105065], [-79.0833089, 43.8124396], [-79.0714104, 43.811402], [-79.070989, 43.8062166], [-79.0700724, 43.8089386], [-79.0637663, 43.8081125], [-79.0692084, 43.8079578], [-79.0698114, 43.8060152], [-79.0688556, 43.8075745], [-79.0608589, 43.8060226], [-79.0608449, 43.8093252], [-79.0598032, 43.8077377], [-79.0548079, 43.8091857], [-79.0436614, 43.8157679], [-79.024033, 43.8158108], [-78.995921, 43.8269729], [-78.9855135, 43.8272582], [-78.9900785, 43.8310615], [-78.9834388, 43.827364], [-78.9859935, 43.827125], [-78.9836472, 43.8271303], [-78.9805371, 43.8279042], [-78.9554706, 43.8446675], [-78.9436387, 43.8458262], [-78.9353678, 43.8510713], [-78.9290952, 43.851491], [-78.928145, 43.8490115], [-78.9290206, 43.8515621], [-78.9330967, 43.8527276], [-78.9368601, 43.8513996], [-78.9401677, 43.8553669], [-78.9386506, 43.8588863], [-78.9364319, 43.8563192], [-78.9313766, 43.8565584], [-78.9288372, 43.8630383], [-78.9291153, 43.8576092], [-78.9344964, 43.8546202], [-78.9286901, 43.8525306], [-78.9271742, 43.8499619], [-78.9020845, 43.8455041], [-78.8913701, 43.8531066], [-78.8696142, 43.8503379], [-78.8414283, 43.8577164], [-78.8316107, 43.8578616], [-78.8254294, 43.8642559], [-78.8221884, 43.8641907], [-78.8300724, 43.8675622], [-78.8283551, 43.8679086], [-78.8311085, 43.869315], [-78.8302205, 43.8702922], [-78.8278471, 43.8677638], [-78.8245337, 43.8694166], [-78.8211478, 43.8646664], [-78.8183961, 43.8686562], [-78.8102092, 43.8699351], [-78.7972329, 43.8673014], [-78.7826179, 43.8694733], [-78.7538761, 43.86798], [-78.7378359, 43.8699977], [-78.7252371, 43.8668937], [-78.7143969, 43.8672024], [-78.6951321, 43.8751526], [-78.6893453, 43.8712075], [-78.6913191, 43.8757509], [-78.6861997, 43.8723761], [-78.6823775, 43.8736452], [-78.6839476, 43.8782868], [-78.6748578, 43.8857813], [-78.6174495, 43.8986214], [-78.586092, 43.8953041], [-78.5731526, 43.897421], [-78.5623152, 43.8950364], [-78.5022503, 43.900682], [-78.4818915, 43.896555], [-78.4675219, 43.900008], [-78.4424875, 43.9106392], [-78.4120405, 43.9140751], [-78.377248, 43.9292122], [-78.3437452, 43.9319303], [-78.3308227, 43.9381819], [-78.2987898, 43.9416512], [-78.2909775, 43.9400719], [-78.2952171, 43.9456251], [-78.2937282, 43.9460372], [-78.2914279, 43.9419455], [-78.2913842, 43.9457154], [-78.2903297, 43.9419872], [-78.290518, 43.9411594], [-78.2904179, 43.940542], [-78.2902155, 43.9402481], [-78.2902494, 43.942011], [-78.2907608, 43.9440116], [-78.2882483, 43.9456267], [-78.265158, 43.9508966], [-78.2668878, 43.9519542], [-78.2673066, 43.9531658], [-78.2629387, 43.9514136], [-78.2645299, 43.9510032], [-78.2517413, 43.9534279], [-78.2153035, 43.9507538], [-78.1920425, 43.9558192], [-78.1703266, 43.9541884], [-78.1676622, 43.95211], [-78.1670934, 43.9569131], [-78.1646014, 43.9574717], [-78.1645389, 43.9522894], [-78.1641574, 43.9561994], [-78.1610444, 43.9571541], [-78.1518529, 43.955385], [-78.1309627, 43.9584019], [-78.1155067, 43.9572011], [-78.0983396, 43.9662051], [-78.0894496, 43.9677773], [-78.0714326, 43.9650163], [-78.0635015, 43.9687272], [-78.0344927, 43.9690748], [-78.006866, 43.9630979], [-77.9828569, 43.9751302], [-77.9724648, 43.9776357], [-77.9348159, 43.9701513], [-77.9001698, 43.9807564], [-77.8759591, 43.9755526], [-77.8777802, 43.9772394], [-77.8763449, 43.9794735], [-77.8666932, 43.9837499], [-77.8647148, 43.9889896], [-77.8584968, 43.9918866], [-77.842789, 43.9943235], [-77.8392782, 43.9980065], [-77.8203481, 44.0034229], [-77.7970503, 44.002929], [-77.7837404, 44.0082851], [-77.7745884, 44.0091743], [-77.7488251, 44.0099854], [-77.7365085, 44.0002373], [-77.733236, 43.9944422], [-77.7332757, 43.9885571], [-77.7201039, 43.9903474], [-77.7041628, 43.9887053], [-77.6753264, 43.9980127], [-77.6846391, 44.0049347], [-77.6830563, 44.0025777], [-77.6965827, 44.0040412], [-77.6955582, 44.0054799], [-77.7178938, 43.9949147], [-77.7230206, 43.9936339], [-77.7241034, 43.9957156], [-77.7253021, 43.993855], [-77.724333, 43.9966298], [-77.721851, 43.9950252], [-77.7231748, 43.9976306], [-77.7207391, 43.9999735], [-77.7194323, 43.998669], [-77.7219635, 43.9974236], [-77.7213252, 43.9954037], [-77.7195471, 43.9949274], [-77.7210871, 43.9959224], [-77.7163241, 43.9991131], [-77.7188334, 43.9983841], [-77.7184408, 43.9999591], [-77.7107537, 44.003311], [-77.7178586, 44.001697], [-77.7146472, 44.0031621], [-77.7182749, 44.0038002], [-77.7148569, 44.004643], [-77.7307132, 44.0094621], [-77.7325654, 44.01221], [-77.7390668, 44.0108476], [-77.733029, 44.0130433], [-77.7320371, 44.0149914], [-77.7402718, 44.0114002], [-77.7421809, 44.0114728], [-77.7379959, 44.014315], [-77.742725, 44.0124593], [-77.7481499, 44.0134294], [-77.742634, 44.0127608], [-77.7404425, 44.0155555], [-77.7315241, 44.016387], [-77.7272927, 44.0186896], [-77.7296385, 44.0209524], [-77.7272878, 44.0237554], [-77.726046, 44.0218384], [-77.7233707, 44.0237857], [-77.7206148, 44.0227028], [-77.7246154, 44.0200159], [-77.7159206, 44.0201325], [-77.7122909, 44.0251694], [-77.7196791, 44.0250279], [-77.7162719, 44.0261434], [-77.7177949, 44.0275463], [-77.715021, 44.0286611], [-77.7170102, 44.0313824], [-77.715741, 44.0326352], [-77.7122423, 44.0292631], [-77.7089994, 44.0323125], [-77.7121587, 44.0270529], [-77.708976, 44.0265042], [-77.7039811, 44.0291371], [-77.7045231, 44.0316681], [-77.7023258, 44.030175], [-77.6994327, 44.0334317], [-77.6957696, 44.034943], [-77.7007734, 44.0295702], [-77.6934371, 44.0298029], [-77.6880124, 44.0332809], [-77.6840778, 44.0322509], [-77.6836765, 44.034565], [-77.6792096, 44.0328151], [-77.6766583, 44.0360672], [-77.6787066, 44.0372568], [-77.6790712, 44.0379519], [-77.673644, 44.0370778], [-77.6765416, 44.0348087], [-77.6745605, 44.0338302], [-77.6654577, 44.0382591], [-77.680158, 44.0283352], [-77.6849324, 44.0262441], [-77.6925004, 44.0257389], [-77.6918677, 44.0248529], [-77.6907895, 44.0247912], [-77.6897288, 44.0236362], [-77.6934036, 44.0245498], [-77.6909782, 44.0207985], [-77.6923638, 44.0188808], [-77.6797877, 44.0144313], [-77.6842905, 44.015887], [-77.6833304, 44.0116903], [-77.6689039, 44.0184985], [-77.6722095, 44.0200699], [-77.6694272, 44.0227082], [-77.6643026, 44.0208613], [-77.6664747, 44.0196357], [-77.6500151, 44.021836], [-77.6371297, 44.0203035], [-77.6243926, 44.0274936], [-77.6268773, 44.0336919], [-77.6148405, 44.0313681], [-77.6007134, 44.0382662], [-77.5943462, 44.0346271], [-77.5975651, 44.0331299], [-77.5931301, 44.0295434], [-77.5928624, 44.0257036], [-77.5869705, 44.0290547], [-77.5915955, 44.0249532], [-77.5900668, 44.0238663], [-77.5831792, 44.0258357], [-77.5811006, 44.0233295], [-77.57914, 44.0263796], [-77.5757792, 44.0277192], [-77.5778859, 44.0238392], [-77.5769589, 44.0243646], [-77.5757658, 44.0246622], [-77.5837439, 44.0209665], [-77.5807055, 44.0195917], [-77.5840742, 44.0201831], [-77.5870002, 44.0172556], [-77.5836562, 44.0149411], [-77.5720392, 44.0155209], [-77.569541, 44.0081741], [-77.5627909, 44.0090447], [-77.5578401, 44.0140753], [-77.5518522, 44.0102561], [-77.5325649, 44.0090483], [-77.532988, 44.0072033], [-77.5220334, 44.003871], [-77.5206801, 44.0025347], [-77.52538, 43.994556], [-77.5280632, 43.9956321], [-77.537814, 43.9894397], [-77.545187, 43.9918073], [-77.5477813, 43.9890518], [-77.5605751, 43.9856981], [-77.5640664, 43.9911709], [-77.5684768, 43.9910329], [-77.5756996, 43.9870858], [-77.5719672, 43.9868496], [-77.573094, 43.9817753], [-77.5705771, 43.9822885], [-77.5690988, 43.9820525], [-77.5737281, 43.9805691], [-77.5832547, 43.9904834], [-77.5811384, 43.9894782], [-77.5818805, 43.9914116], [-77.6057685, 44.0073056], [-77.6016493, 44.0132099], [-77.6057316, 44.0135609], [-77.6067505, 44.0155683], [-77.6076414, 44.0100161], [-77.6124828, 44.0082166], [-77.5888863, 43.9948891], [-77.5648094, 43.9717369], [-77.5456093, 43.9697739], [-77.5399031, 43.9634657], [-77.5318774, 43.963433], [-77.5156035, 43.9411093], [-77.5064284, 43.9431526], [-77.509827, 43.9465703], [-77.5161549, 43.9444951], [-77.5201974, 43.9494424], [-77.5043656, 43.9520956], [-77.505913, 43.9546149], [-77.4913622, 43.9612679], [-77.4838438, 43.9603556], [-77.4991206, 43.9500019], [-77.4961802, 43.9487163], [-77.4961812, 43.9454428], [-77.5019721, 43.9413752], [-77.5061949, 43.9429404], [-77.4942999, 43.9327051], [-77.4931879, 43.9296253], [-77.4954888, 43.9263917], [-77.4877606, 43.9255456], [-77.4618257, 43.9297749], [-77.4499682, 43.927386], [-77.4332352, 43.9318166], [-77.427118, 43.9304079], [-77.4002721, 43.935596], [-77.3595095, 43.9487793], [-77.3439183, 43.9508514], [-77.3274982, 43.9447027], [-77.2994223, 43.9205991], [-77.2792774, 43.8980859], [-77.2820216, 43.8930911], [-77.2801658, 43.8907764], [-77.272526, 43.8960134], [-77.2561687, 43.8984568], [-77.2432024, 43.9043642], [-77.2335111, 43.9017567], [-77.2217069, 43.8929385], [-77.2145986, 43.8831346], [-77.2485216, 43.8574569], [-77.2468942, 43.8553076], [-77.2106389, 43.8539304], [-77.2059305, 43.8554686], [-77.2067555, 43.8587428], [-77.1971623, 43.8617359], [-77.1870551, 43.8685584], [-77.1793523, 43.8689966], [-77.1684091, 43.8646672], [-77.164546, 43.8589557], [-77.1603825, 43.8574014], [-77.1595663, 43.8544941], [-77.1629469, 43.849624], [-77.1553423, 43.8387656], [-77.1400703, 43.8457036], [-77.1287955, 43.8459677], [-77.1077513, 43.8610355], [-77.0964588, 43.8629134], [-77.0906105, 43.8595285], [-77.0909125, 43.8634984], [-77.0806294, 43.8675858], [-77.0451241, 43.8901876], [-77.0383513, 43.8904615], [-77.0316061, 43.8874152], [-77.0093723, 43.8903215], [-76.9943524, 43.8989372], [-76.9734756, 43.9012145], [-76.9610702, 43.9105151], [-76.9408061, 43.9135111], [-76.9384093, 43.9174694], [-76.9410096, 43.916588], [-76.9420999, 43.9189445], [-76.934297, 43.923321], [-76.9328885, 43.9224736], [-76.9379246, 43.9206486], [-76.9395159, 43.9183719], [-76.9286367, 43.9225755], [-76.9020741, 43.9214566], [-76.8851552, 43.9289998], [-76.8704401, 43.9286817], [-76.8598185, 43.93319], [-76.8585362, 43.9373201], [-76.8641104, 43.9359187], [-76.8590692, 43.9412297], [-76.8651596, 43.9482421], [-76.8858887, 43.945293], [-76.9269593, 43.9314985], [-76.9381289, 43.929785], [-76.9444725, 43.9309119], [-76.9567629, 43.9407528], [-76.9867257, 43.9327519], [-76.990041, 43.9364551], [-76.9969644, 43.9341897], [-77.0037103, 43.9352315], [-77.006657, 43.9377109], [-77.0072758, 43.942478], [-77.0188007, 43.939491], [-77.0220358, 43.9253527], [-77.0332723, 43.9137562], [-77.0435296, 43.9101449], [-77.0389546, 43.916524], [-77.0444414, 43.9200016], [-77.0509803, 43.9176984], [-77.0516955, 43.9190118], [-77.0492689, 43.9190896], [-77.0455668, 43.92699], [-77.0391022, 43.9321675], [-77.0382461, 43.9362579], [-77.0423035, 43.9402697], [-77.0425654, 43.9497259], [-77.0252391, 43.9590052], [-77.0218872, 43.9636817], [-77.023201, 43.967577], [-77.0056266, 43.9692145], [-77.0052988, 43.9717946], [-77.0091237, 43.9726342], [-77.0097755, 43.9752091], [-76.9972024, 43.9859431], [-77.0055247, 43.986242], [-77.0116713, 43.9911893], [-77.0178034, 43.9855735], [-77.0261984, 43.9832277], [-77.0276297, 43.9804573], [-77.0304017, 43.9860335], [-77.025298, 43.9924429], [-77.0044833, 44.0029546], [-77.0077941, 43.9991483], [-76.9934875, 43.9999222], [-76.9843363, 44.0058295], [-76.9824524, 44.0047369], [-76.9652368, 44.0173013], [-76.9366803, 44.0197282], [-76.9316813, 44.0235083], [-76.9001695, 44.0340161], [-76.8987981, 44.0359558], [-76.9029627, 44.0417421], [-76.9005417, 44.0434788], [-76.8978488, 44.0559832], [-76.8820206, 44.0695885], [-76.8521725, 44.0826442], [-76.8434777, 44.0945261], [-76.8432806, 44.1104915], [-76.8511217, 44.1150128], [-76.8496598, 44.1131972], [-76.8511971, 44.1117611], [-76.8722256, 44.0991141], [-76.8823527, 44.0888267], [-76.8860259, 44.0889044], [-76.8764739, 44.0986252], [-76.8859642, 44.0993064], [-76.8866895, 44.0961101], [-76.8937739, 44.092429], [-76.9027978, 44.0824587], [-76.9156368, 44.0764394], [-76.9328334, 44.0629798], [-76.9605309, 44.0522048], [-76.9782495, 44.0486644], [-76.9923656, 44.0423203], [-76.9931986, 44.0393408], [-77.0033332, 44.0401191], [-77.02377, 44.0334284], [-77.041666, 44.0391373], [-77.047393, 44.0381996], [-77.0610961, 44.0428066], [-77.0838865, 44.0460542], [-77.1094938, 44.0427797], [-77.1203426, 44.0338965], [-77.1206761, 44.0287152], [-77.1269184, 44.0169214], [-77.1365155, 44.0087314], [-77.134414, 44.0144967], [-77.1313688, 44.0160799], [-77.1336494, 44.019331], [-77.1330462, 44.029541], [-77.1387665, 44.0339753], [-77.1265292, 44.0394186], [-77.1085008, 44.0667962], [-77.0938954, 44.0764292], [-77.0889976, 44.0871143], [-77.0802186, 44.0952305], [-77.0820944, 44.1007285], [-77.0778269, 44.1053028], [-77.0811126, 44.1123603], [-77.0752449, 44.1169865], [-77.0740619, 44.1291463], [-77.069547, 44.1351189], [-77.0671289, 44.1465455], [-77.0620294, 44.1522868], [-77.0588047, 44.1624826], [-77.0618727, 44.1653697], [-77.0691648, 44.1638085], [-77.0658083, 44.1696482], [-77.066976, 44.1738081], [-77.0863341, 44.1709535], [-77.1021533, 44.1643695], [-77.1202583, 44.160964], [-77.1242385, 44.1614886], [-77.1397521, 44.1508392], [-77.1392377, 44.152346], [-77.143682, 44.151646], [-77.1503243, 44.1483492], [-77.1723112, 44.1485733], [-77.1801217, 44.1454986], [-77.1867746, 44.1378301], [-77.1879547, 44.1326761], [-77.1933068, 44.1312549], [-77.1953848, 44.126782], [-77.207705, 44.122496], [-77.1941404, 44.1332789], [-77.1924242, 44.1380561], [-77.1958846, 44.1428419], [-77.227787, 44.1338143], [-77.2381983, 44.1346363], [-77.2600658, 44.1276045], [-77.2768861, 44.1178249], [-77.27908, 44.11246], [-77.2840282, 44.1134154], [-77.2834312, 44.1159124], [-77.2886556, 44.1157244], [-77.2921902, 44.1054694], [-77.2887886, 44.098247], [-77.291141, 44.0943351], [-77.2893505, 44.0920244], [-77.2737036, 44.0962553], [-77.2663847, 44.094361], [-77.259099, 44.0954867], [-77.2565229, 44.1004332], [-77.2585378, 44.0961312], [-77.2552, 44.0951583], [-77.2499927, 44.098856], [-77.2323851, 44.1058187], [-77.2308787, 44.1015218], [-77.2425838, 44.0968036], [-77.2420376, 44.0987521], [-77.245209, 44.099792], [-77.2433863, 44.0938912], [-77.2479747, 44.0913669], [-77.2565605, 44.0942299], [-77.255412, 44.091364], [-77.2575978, 44.0942425], [-77.2610918, 44.0908872], [-77.2591285, 44.0884392], [-77.2632328, 44.0851458], [-77.2639701, 44.0865529], [-77.2728097, 44.0827892], [-77.2862986, 44.0810732], [-77.290683, 44.0829933], [-77.2976454, 44.0820006], [-77.3079007, 44.0772802], [-77.307664, 44.0766912], [-77.3088211, 44.0739622], [-77.3082447, 44.077406], [-77.3149652, 44.0790089], [-77.316322, 44.0816782], [-77.3251274, 44.0828941], [-77.333491, 44.089531], [-77.3195778, 44.1008289], [-77.3220095, 44.1024554], [-77.3220845, 44.1110616], [-77.3129644, 44.1138667], [-77.3092244, 44.11939], [-77.310673, 44.1229213], [-77.3197928, 44.1225615], [-77.3152294, 44.1268901], [-77.320666, 44.1257819], [-77.3200128, 44.1226159], [-77.326751, 44.120209], [-77.3287289, 44.1240772], [-77.3234948, 44.1287152], [-77.3148845, 44.1292629], [-77.3093051, 44.1325583], [-77.3042233, 44.1318703], [-77.3066227, 44.1348647], [-77.297512, 44.1408046], [-77.3097616, 44.1375988], [-77.310983, 44.1436302], [-77.3080413, 44.1463966], [-77.3128312, 44.1486913], [-77.3338447, 44.1406693], [-77.3472392, 44.1390585], [-77.3419591, 44.1431775], [-77.3441014, 44.1447712], [-77.351047, 44.1395282], [-77.3592105, 44.1392423], [-77.3583098, 44.1378212], [-77.3617403, 44.1376361], [-77.3683393, 44.1318453], [-77.3727534, 44.1294255], [-77.3719106, 44.1275679], [-77.3734943, 44.1263905], [-77.3724803, 44.1329502], [-77.3712997, 44.1342652], [-77.3756618, 44.1378053], [-77.3751848, 44.1408488], [-77.3781145, 44.1395806], [-77.3854695, 44.143551], [-77.393907, 44.1350385], [-77.4104371, 44.1256461], [-77.4767278, 44.1105315], [-77.4856989, 44.1059242], [-77.4866014, 44.1078011], [-77.4966738, 44.1070229], [-77.4979431, 44.1054692], [-77.4958458, 44.1038528], [-77.4991937, 44.103509], [-77.5009912, 44.0984663], [-77.5065096, 44.097118], [-77.5047075, 44.0950403], [-77.5085724, 44.0945086], [-77.5107997, 44.0905053], [-77.5292995, 44.0796531], [-77.5410383, 44.0776729], [-77.5749955, 44.0520242], [-77.5780407, 44.054754], [-77.574292, 44.0527231], [-77.5716203, 44.055218], [-77.587862, 44.058061], [-77.5816655, 44.0613693], [-77.5877927, 44.0595097], [-77.5986775, 44.0660846], [-77.6025072, 44.0658259], [-77.5758448, 44.0862676], [-77.5752727, 44.0960135], [-77.5724124, 44.1003604], [-77.579383, 44.1047031], [-77.5785121, 44.1064875], [-77.5665143, 44.1001551], [-77.567991, 44.0989158], [-77.5596297, 44.0986159], [-77.558563, 44.1009796], [-77.5543446, 44.1030155], [-77.5487408, 44.1034274], [-77.547053, 44.1013995], [-77.5476551, 44.1034384], [-77.5435592, 44.1051099], [-77.5350153, 44.1048126], [-77.5299094, 44.1016758], [-77.5312151, 44.1033275], [-77.5290588, 44.1058543], [-77.5192444, 44.1080884], [-77.5088638, 44.11556], [-77.5092449, 44.1173763], [-77.5081545, 44.115425], [-77.5085993, 44.1172084], [-77.4969053, 44.1178416], [-77.496062, 44.119978], [-77.4897975, 44.1196721], [-77.4897513, 44.117878], [-77.4804407, 44.121209], [-77.4723027, 44.1209979], [-77.4744787, 44.1225761], [-77.4676216, 44.1227262], [-77.4525815, 44.1296913], [-77.4284119, 44.136588], [-77.4291323, 44.1394085], [-77.4267619, 44.13713], [-77.4138066, 44.1403893], [-77.4119221, 44.1440422], [-77.4008436, 44.1473086], [-77.3926954, 44.1534193], [-77.3923597, 44.1494222], [-77.3886486, 44.1504511], [-77.3873243, 44.1485258], [-77.3871424, 44.1516337], [-77.3824563, 44.1525488], [-77.3832104, 44.1542144], [-77.3793664, 44.1560564], [-77.3766139, 44.1530901], [-77.3706036, 44.1584347], [-77.3497433, 44.1651088], [-77.3458822, 44.165572], [-77.3475157, 44.1634063], [-77.3420816, 44.1624749], [-77.335705, 44.1679729], [-77.3296048, 44.1693318], [-77.3276578, 44.1664403], [-77.3275225, 44.1678417], [-77.3225833, 44.168165], [-77.3152767, 44.1725643], [-77.3134357, 44.1728732], [-77.311132, 44.1721983], [-77.3150984, 44.1725002], [-77.3227913, 44.1671908], [-77.3273685, 44.166271], [-77.3252256, 44.1642919], [-77.3206125, 44.1637935], [-77.323111, 44.1646181], [-77.3175607, 44.1662265], [-77.3202176, 44.1677433], [-77.3175592, 44.1665834], [-77.3165768, 44.1651448], [-77.3137647, 44.1662986], [-77.3155827, 44.1636397], [-77.320157, 44.1638831], [-77.3178385, 44.1631503], [-77.3175107, 44.1590337], [-77.3207652, 44.1562487], [-77.3137186, 44.1591615], [-77.3179369, 44.1534324], [-77.3044883, 44.154873], [-77.3035978, 44.157246], [-77.3011252, 44.1554274], [-77.2972629, 44.1565661], [-77.2963789, 44.1534708], [-77.2920021, 44.1555845], [-77.2912996, 44.1553025], [-77.2920456, 44.1570777], [-77.2862568, 44.1575538], [-77.2803802, 44.1628311], [-77.2748913, 44.1636709], [-77.2708259, 44.1703107], [-77.2651209, 44.1730667], [-77.2645357, 44.1754662], [-77.263499, 44.1765997], [-77.258779, 44.1765251], [-77.2553577, 44.1812819], [-77.2552048, 44.1793624], [-77.2491367, 44.1772247], [-77.2516749, 44.1766358], [-77.2484133, 44.1714603], [-77.2451915, 44.1726623], [-77.244614, 44.1762549], [-77.230153, 44.1795947], [-77.2101483, 44.1682851], [-77.19891, 44.17653], [-77.2031506, 44.1701196], [-77.2092029, 44.1685479], [-77.2089193, 44.1648229], [-77.2143581, 44.1582116], [-77.2137777, 44.1557087], [-77.1962953, 44.1598927], [-77.1905678, 44.1573048], [-77.1826693, 44.1600877], [-77.1836668, 44.1617976], [-77.180757, 44.1637892], [-77.1688704, 44.1666986], [-77.1498319, 44.1618246], [-77.1360539, 44.1643924], [-77.1357937, 44.1671074], [-77.1212998, 44.1767872], [-77.1298635, 44.1654723], [-77.1215983, 44.1695959], [-77.1119233, 44.170244], [-77.0974666, 44.1754353], [-77.0984938, 44.177795], [-77.1008344, 44.1782178], [-77.1011211, 44.1784242], [-77.1014239, 44.1787807], [-77.1014351, 44.1789114], [-77.0966508, 44.1781636], [-77.0970613, 44.1762222], [-77.0888408, 44.1757493], [-77.0709187, 44.1823162], [-77.0546372, 44.1918832], [-77.0509388, 44.1913734], [-77.0533843, 44.1895659], [-77.0487099, 44.1911422], [-77.036286, 44.2000171], [-77.0306854, 44.2008753], [-77.0317109, 44.1995665], [-77.0283594, 44.197316], [-77.0318179, 44.1956345], [-77.0214853, 44.2004125], [-77.0060597, 44.2000784], [-76.9963001, 44.2021019], [-76.9965412, 44.2035563], [-76.9958999, 44.2041012], [-76.9940655, 44.2016343], [-76.9969443, 44.201108], [-76.9953033, 44.1989202], [-76.9950829, 44.2009479], [-76.9903262, 44.1992734], [-76.992297, 44.2006769], [-76.9894305, 44.1996273], [-76.9859507, 44.2034046], [-76.989251, 44.2027832], [-76.9904919, 44.203153], [-76.9905568, 44.2012579], [-76.9931264, 44.202695], [-76.9908616, 44.2029643], [-76.9923871, 44.2048069], [-76.9857862, 44.2048201], [-76.9820445, 44.211103], [-76.9833586, 44.2128374], [-76.9814775, 44.2118103], [-76.9755353, 44.2177887], [-76.9772873, 44.216834], [-76.9791688, 44.2197519], [-76.9749781, 44.218755], [-76.9720693, 44.2216518], [-76.9706088, 44.2250998], [-76.9736839, 44.2253859], [-76.9683007, 44.2360897], [-76.9519444, 44.2416751], [-76.952386, 44.2427478], [-76.9451686, 44.2500323], [-76.9512644, 44.2410107], [-76.9666889, 44.2354675], [-76.9677089, 44.2240976], [-76.981601, 44.2056415], [-76.9810322, 44.2022554], [-76.9802137, 44.2045618], [-76.9783701, 44.2025605], [-76.9855464, 44.1990436], [-76.9825132, 44.1980597], [-76.9822576, 44.1968315], [-76.9799903, 44.1967605], [-76.9822946, 44.1965824], [-76.9862174, 44.1988354], [-76.9901727, 44.1930931], [-76.9994586, 44.1899348], [-77.0040605, 44.1904754], [-77.0021224, 44.1918317], [-77.0051881, 44.1924822], [-77.0052237, 44.1932145], [-77.0022413, 44.1921686], [-77.0028353, 44.1936967], [-77.0070515, 44.1949089], [-77.0033943, 44.194144], [-77.007285, 44.1970773], [-77.0102975, 44.1971658], [-77.0089801, 44.1955966], [-77.0118814, 44.1972859], [-77.0102662, 44.1946544], [-77.0124255, 44.1971703], [-77.0145707, 44.1971324], [-77.011997, 44.1933372], [-77.0184934, 44.1952823], [-77.020873, 44.1917885], [-77.0165204, 44.1848509], [-77.0251936, 44.1840213], [-77.0393233, 44.175854], [-77.0499639, 44.1575743], [-77.0530368, 44.1452927], [-77.0593484, 44.139484], [-77.0584351, 44.1354875], [-77.064224, 44.1290106], [-77.0640825, 44.1192333], [-77.067843, 44.1051636], [-77.0596104, 44.1043711], [-77.0547909, 44.1077477], [-77.0544726, 44.1047744], [-77.0448285, 44.1094169], [-77.0306047, 44.1123401], [-77.0235157, 44.1178641], [-77.0210138, 44.1225227], [-77.0224159, 44.1264664], [-77.0074463, 44.138918], [-76.9763146, 44.1499092], [-76.9765337, 44.1529278], [-76.9709627, 44.1568703], [-76.9686445, 44.1555124], [-76.9643013, 44.1587488], [-76.9625852, 44.1587374], [-76.9639452, 44.1580226], [-76.9635931, 44.1572238], [-76.9650987, 44.1558972], [-76.9680775, 44.154898], [-76.9686454, 44.1530536], [-76.9574794, 44.1554822], [-76.9584268, 44.1594064], [-76.9626107, 44.1589263], [-76.9592941, 44.1634975], [-76.9642254, 44.1659268], [-76.9630952, 44.169663], [-76.9337462, 44.1781486], [-76.9385705, 44.1807497], [-76.9388718, 44.182208], [-76.9377019, 44.1838347], [-76.9366065, 44.1798692], [-76.9331718, 44.1824884], [-76.933176, 44.1787998], [-76.9232323, 44.1841629], [-76.9296519, 44.1851908], [-76.9345944, 44.1920298], [-76.9315207, 44.1908335], [-76.9313704, 44.1917381], [-76.9325612, 44.1930163], [-76.9335901, 44.1954169], [-76.9335213, 44.1960266], [-76.9324731, 44.1941451], [-76.9318017, 44.1950137], [-76.9303477, 44.1952957], [-76.9312662, 44.1965534], [-76.9311256, 44.1977171], [-76.928403, 44.1984211], [-76.9306244, 44.201467], [-76.9327541, 44.2017215], [-76.9346216, 44.2006726], [-76.9353466, 44.2008983], [-76.9330025, 44.2018012], [-76.9315738, 44.2018316], [-76.9303119, 44.2014197], [-76.9281971, 44.1987083], [-76.9283213, 44.1981194], [-76.9293485, 44.1973805], [-76.9309689, 44.1975373], [-76.9299607, 44.1953062], [-76.9321681, 44.1937965], [-76.9307482, 44.1908823], [-76.9300052, 44.1918644], [-76.9281974, 44.1926411], [-76.9293329, 44.1947154], [-76.9281988, 44.1949636], [-76.9277105, 44.1927407], [-76.9299648, 44.1912409], [-76.9279206, 44.1917201], [-76.9278749, 44.1888467], [-76.9292692, 44.1880199], [-76.9298684, 44.1911013], [-76.9322998, 44.1899508], [-76.9306252, 44.1873503], [-76.9220363, 44.1850038], [-76.9206994, 44.1864116], [-76.9255756, 44.1795522], [-76.9301863, 44.1791903], [-76.9310939, 44.1748471], [-76.9226707, 44.1737008], [-76.9237479, 44.176231], [-76.9236575, 44.1767994], [-76.9177458, 44.167678], [-76.9194501, 44.164231], [-76.9098255, 44.1737711], [-76.9161355, 44.1750342], [-76.9103464, 44.1761937], [-76.9128651, 44.1782197], [-76.9131887, 44.1795269], [-76.9126504, 44.1809466], [-76.9128403, 44.1785633], [-76.9089115, 44.1758643], [-76.908287, 44.1777156], [-76.9048799, 44.1781277], [-76.9034477, 44.1765045], [-76.9034333, 44.179145], [-76.9015025, 44.1772424], [-76.9019551, 44.1789532], [-76.8982408, 44.1798696], [-76.9070256, 44.1718419], [-76.9019862, 44.1720663], [-76.9066173, 44.1674787], [-76.8910041, 44.1712224], [-76.8873511, 44.174905], [-76.8859273, 44.1748621], [-76.894258, 44.1643166], [-76.8851615, 44.1631988], [-76.8844072, 44.1534843], [-76.8876281, 44.1556593], [-76.8979665, 44.1552857], [-76.9035052, 44.1511287], [-76.9088143, 44.1515213], [-76.9088661, 44.1493846], [-76.909364, 44.1491315], [-76.9106553, 44.1516335], [-76.9106978, 44.1493939], [-76.9123402, 44.1487392], [-76.9105005, 44.1542441], [-76.9127258, 44.1494536], [-76.913637, 44.1520132], [-76.9156955, 44.1498307], [-76.916858, 44.1508921], [-76.9135817, 44.1525889], [-76.9148945, 44.1555726], [-76.9169325, 44.1542576], [-76.9149879, 44.1524535], [-76.9170312, 44.1516903], [-76.9177794, 44.1546835], [-76.9181794, 44.1530698], [-76.9195345, 44.1524005], [-76.9204164, 44.1524575], [-76.9148651, 44.158283], [-76.9401456, 44.1492545], [-76.9472807, 44.1491016], [-76.9478948, 44.150763], [-76.9605753, 44.1466076], [-76.9646348, 44.1478173], [-76.9777055, 44.1406409], [-76.979982, 44.1433292], [-76.9852887, 44.1428085], [-77.0054227, 44.1345592], [-77.0111647, 44.1273682], [-77.0067051, 44.1226097], [-77.0089203, 44.1167722], [-77.0137872, 44.1126916], [-77.0159137, 44.1038828], [-77.0294208, 44.0997671], [-77.0439392, 44.0917717], [-77.0428363, 44.0935951], [-77.0495294, 44.0959018], [-77.0653589, 44.0845656], [-77.0707036, 44.0832611], [-77.0752085, 44.0851548], [-77.0774985, 44.0832215], [-77.0794864, 44.077384], [-77.0777711, 44.0753851], [-77.0673915, 44.0751711], [-77.0634321, 44.0777455], [-77.0603845, 44.0758988], [-77.0605392, 44.0735841], [-77.0644068, 44.0728517], [-77.0696418, 44.0663726], [-77.0578752, 44.0709738], [-77.0538915, 44.0758532], [-77.0455222, 44.0780371], [-77.0482416, 44.0741222], [-77.0434126, 44.0717739], [-77.053059, 44.0661901], [-77.0440753, 44.066934], [-77.0254986, 44.0770666], [-77.0232871, 44.0776307], [-77.024413, 44.075088], [-77.0154599, 44.0775781], [-77.0273055, 44.0708429], [-77.0270426, 44.067927], [-77.0242028, 44.068442], [-77.0318897, 44.0620466], [-77.0575635, 44.0542878], [-77.0554268, 44.0495784], [-77.0510755, 44.0475853], [-77.0247678, 44.0552928], [-77.0224317, 44.0530431], [-77.0240354, 44.0515545], [-77.0206423, 44.0508254], [-77.0121619, 44.0559712], [-77.0189642, 44.0554342], [-77.0178943, 44.0584376], [-77.0157675, 44.0576253], [-77.010924, 44.0608099], [-77.0074186, 44.0623768], [-77.0135822, 44.0570849], [-76.9946604, 44.0639292], [-76.9906518, 44.0626114], [-76.9911715, 44.0604095], [-76.9694003, 44.0636801], [-76.9541293, 44.0743942], [-76.9572189, 44.0763185], [-76.9611445, 44.0752631], [-76.95784, 44.0767334], [-76.956723, 44.0764436], [-76.9569709, 44.0801097], [-76.9395703, 44.0907799], [-76.9411271, 44.0928137], [-76.9380102, 44.0968644], [-76.9322961, 44.0991854], [-76.9274318, 44.1051255], [-76.9215314, 44.104792], [-76.9124997, 44.1118641], [-76.8901855, 44.1189816], [-76.8826645, 44.1253249], [-76.8686563, 44.1302579], [-76.8357779, 44.1489474], [-76.7933623, 44.1673583], [-76.78677, 44.1753153], [-76.7739095, 44.1830349], [-76.7676684, 44.1800077], [-76.7630433, 44.1834782], [-76.7581297, 44.1824199], [-76.729408, 44.197982], [-76.7252536, 44.2034383], [-76.7089286, 44.2042012], [-76.7040706, 44.2092833], [-76.6877542, 44.2164564], [-76.6853435, 44.2154763], [-76.690043, 44.2087428], [-76.6854024, 44.2060101], [-76.674462, 44.209834], [-76.6748025, 44.2125412], [-76.6686489, 44.21227], [-76.6322017, 44.2213925], [-76.6282646, 44.2240343], [-76.6233036, 44.2329338], [-76.608428, 44.241188], [-76.6046223, 44.2420524], [-76.601846, 44.2401656], [-76.5962412, 44.239563], [-76.5957863, 44.2394277], [-76.5949381, 44.2385404], [-76.6059401, 44.2394092], [-76.6149523, 44.2324664], [-76.6183325, 44.2199611], [-76.6065066, 44.2128265], [-76.595866, 44.2166787], [-76.5900786, 44.2157424], [-76.585306, 44.218847], [-76.5802238, 44.2151952], [-76.5757303, 44.2164698], [-76.57694, 44.2124324], [-76.5763113, 44.2116022], [-76.567701, 44.212889], [-76.5646469, 44.2084092], [-76.5577948, 44.2092073], [-76.5570021, 44.2121205], [-76.5524821, 44.2127792], [-76.5490244, 44.2081611], [-76.5447401, 44.2106875], [-76.5490421, 44.2146665], [-76.5457572, 44.2196936], [-76.5408404, 44.2199944], [-76.5370825, 44.2163511], [-76.5379318, 44.2197758], [-76.5372307, 44.2198017], [-76.5307098, 44.2145708], [-76.5250115, 44.2140446], [-76.5160239, 44.2175007], [-76.5177952, 44.2176555], [-76.5166825, 44.2202917], [-76.5142709, 44.2170721], [-76.5008855, 44.2220518], [-76.4860125, 44.2220763], [-76.4772807, 44.2298974], [-76.4780491, 44.2324006], [-76.4758741, 44.2323219], [-76.4770587, 44.2353691], [-76.4798114, 44.2351158], [-76.4809765, 44.2366276], [-76.4782705, 44.236142], [-76.4812066, 44.2396745], [-76.4789837, 44.241228], [-76.4811466, 44.2484241], [-76.4739474, 44.2495163], [-76.4698136, 44.2468678], [-76.467009, 44.2503732], [-76.4738369, 44.2507311], [-76.4758773, 44.253847], [-76.4806641, 44.2548501], [-76.4785768, 44.2610675], [-76.4626629, 44.2695955], [-76.4598336, 44.2738563], [-76.4602778, 44.2763907], [-76.462922, 44.2773117], [-76.4636639, 44.2795351], [-76.4604157, 44.2770233], [-76.452447, 44.2780421], [-76.447732, 44.2866038], [-76.4405522, 44.2933377], [-76.4467329, 44.2865118], [-76.4465642, 44.2810339], [-76.4503665, 44.276677], [-76.456664, 44.2744], [-76.456763, 44.271191], [-76.4684692, 44.2563281], [-76.4619008, 44.2486238], [-76.464404, 44.240945], [-76.470783, 44.2371958], [-76.4701706, 44.2265483], [-76.4654531, 44.2286233], [-76.4640618, 44.2350118], [-76.4611175, 44.2279907], [-76.4457051, 44.2363508], [-76.4499997, 44.2300196], [-76.4423924, 44.2344641], [-76.4275339, 44.2363701], [-76.3406446, 44.2418051], [-76.2788036, 44.2432501], [-76.1076422, 44.2393456], [-76.1148084, 44.2295534], [-76.1265348, 44.2236916], [-76.1369056, 44.2240098], [-76.1498809, 44.2194136], [-76.1601574, 44.219119], [-76.1859235, 44.2041449], [-76.187954, 44.2068117], [-76.1963171, 44.2043045], [-76.1984763, 44.2067098], [-76.2071586, 44.2001935], [-76.2044714, 44.1994195], [-76.2042968, 44.195727], [-76.2162474, 44.1912486], [-76.2245458, 44.1847042], [-76.2267381, 44.1853751], [-76.2258756, 44.1871361], [-76.2318534, 44.1835302], [-76.2294695, 44.1825359], [-76.2457113, 44.1748528], [-76.2438784, 44.1695937], [-76.2480473, 44.1724688], [-76.2511381, 44.1701807], [-76.2496885, 44.1684915], [-76.2723021, 44.1589903], [-76.2811217, 44.1605899], [-76.2876067, 44.1584369], [-76.2916188, 44.1539406], [-76.2980076, 44.1516735], [-76.3153224, 44.1346525], [-76.3427785, 44.1274401], [-76.3638904, 44.1115196], [-76.3704988, 44.1023306], [-76.3686409, 44.0996692], [-76.360441, 44.1014943], [-76.3577414, 44.1000523], [-76.3612024, 44.0949531], [-76.357926, 44.0930496], [-76.3610063, 44.0876043], [-76.349712, 44.0925766], [-76.3443128, 44.0873505], [-76.3597949, 44.0762638], [-76.3598411, 44.0706455], [-76.3469893, 44.07128], [-76.3349336, 44.0765638], [-76.3317748, 44.0730413], [-76.3124834, 44.0822052], [-76.3107183, 44.0791364], [-76.33354, 44.0699386], [-76.3347436, 44.065047], [-76.3153932, 44.0590907], [-76.2986044, 44.059924], [-76.2947929, 44.0582266], [-76.2995991, 44.0505601], [-76.2959839, 44.0492117], [-76.2949287, 44.0446781], [-76.3001071, 44.0405353], [-76.3000485, 44.0317026], [-76.3084513, 44.0265242], [-76.300537, 44.0193329], [-76.3021004, 44.0120049], [-76.2964724, 44.0089369], [-76.287704, 44.0116236], [-76.2832423, 44.0100417], [-76.2737849, 44.0015503], [-76.269564, 44.0010422], [-76.2661638, 43.9953361], [-76.2703065, 43.9852723], [-76.2677662, 43.9837481], [-76.2841223, 43.9664931], [-76.2813474, 43.9610996], [-76.271479, 43.96151], [-76.2635452, 43.9665126], [-76.2537745, 43.9670207], [-76.2368126, 43.9778857], [-76.2205542, 43.9952384], [-76.2218154, 44.0027475], [-76.20369, 44.019587], [-76.200896, 44.025248], [-76.2028522, 44.0279326], [-76.2095889, 44.0294129], [-76.2183239, 44.0262691], [-76.2119986, 44.0308922], [-76.219123, 44.0278678], [-76.2299967, 44.029132], [-76.2848297, 44.0115324], [-76.281178, 44.0179395], [-76.2862353, 44.0176217], [-76.2802937, 44.0223612], [-76.2817998, 44.0250281], [-76.2768254, 44.0329595], [-76.278069, 44.0352947], [-76.2646242, 44.0492784], [-76.27496, 44.0521663], [-76.2640853, 44.0525947], [-76.2465781, 44.064934], [-76.2428197, 44.0620737], [-76.2307358, 44.0664561], [-76.2218889, 44.0667059], [-76.2165249, 44.0724226], [-76.2121309, 44.0716437], [-76.2040923, 44.0769048], [-76.2026859, 44.0788836], [-76.2055436, 44.0803072], [-76.1952092, 44.0811178], [-76.1998282, 44.0781302], [-76.1978434, 44.0777093], [-76.2133424, 44.0599606], [-76.2093936, 44.0568536], [-76.2048421, 44.056999], [-76.2052578, 44.0550039], [-76.1961236, 44.0583811], [-76.18488, 44.0587968], [-76.1707475, 44.0657383], [-76.1653128, 44.0618519], [-76.1535911, 44.065094], [-76.1518661, 44.0666216], [-76.1550563, 44.0664865], [-76.1470133, 44.0702586], [-76.1387731, 44.0695514], [-76.1501842, 44.0580101], [-76.1291527, 44.0651461], [-76.1290203, 44.0632227], [-76.1451319, 44.0555293], [-76.1505814, 44.0493271], [-76.1494873, 44.0461703], [-76.1645537, 44.0370065], [-76.1671321, 44.0329298], [-76.151571, 44.0310203], [-76.139759, 44.0388462], [-76.1335639, 44.0394873], [-76.1300447, 44.0373828], [-76.1209714, 44.0390065], [-76.1198146, 44.0414455], [-76.1113618, 44.0461833], [-76.1208204, 44.0383495], [-76.1188203, 44.0344819], [-76.124249, 44.02621], [-76.123357, 44.0243703], [-76.1308274, 44.0176385], [-76.1485976, 44.0079381], [-76.1880405, 43.9996314], [-76.2039988, 43.9881888], [-76.2079571, 43.9762583], [-76.1999709, 43.9729831], [-76.2003472, 43.9682304], [-76.1757756, 43.9744883], [-76.1706884, 43.9706555], [-76.1747581, 43.9649133], [-76.1691553, 43.962084], [-76.169448, 43.9595334], [-76.1585211, 43.9594255], [-76.1447091, 43.9657356], [-76.1350505, 43.9658053], [-76.1172245, 43.9736939], [-76.0847503, 43.9950878], [-76.0864507, 43.9993248], [-76.0926947, 43.9995896], [-76.0820325, 44.0012202], [-76.0787015, 44.0038126], [-76.0781998, 44.009067], [-76.07459, 44.0114642], [-76.0704924, 44.0123005], [-76.0681091, 44.0169277], [-76.0696143, 44.0122308], [-76.0777259, 44.0076454], [-76.0780046, 43.9980007], [-76.0707851, 43.9991714], [-76.0658791, 43.9972481], [-76.0630498, 43.9992133], [-76.0646176, 43.9956975], [-76.0500186, 44.0058431], [-76.0453509, 44.0050584], [-76.0524728, 44.0036313], [-76.0624286, 43.9929007], [-76.0597464, 43.9893655], [-76.0617346, 43.9877917], [-76.0588394, 43.98617], [-76.0609129, 43.9769189], [-76.0505777, 43.9777607], [-76.0632996, 43.9729434], [-76.0661828, 43.9692794], [-76.0718409, 43.9700723], [-76.0727299, 43.9678739], [-76.0752046, 43.9691232], [-76.0734146, 43.9757425], [-76.0853495, 43.975234], [-76.0835996, 43.9770009], [-76.0993145, 43.9668924], [-76.1043773, 43.9592133], [-76.1122921, 43.9528094], [-76.1129859, 43.9545995], [-76.115143, 43.9508212], [-76.1208751, 43.9479627], [-76.1237705, 43.949724], [-76.1207823, 43.9503616], [-76.1255343, 43.950458], [-76.1386117, 43.9415346], [-76.1366702, 43.9346639], [-76.1300334, 43.9338808], [-76.1294207, 43.9271895], [-76.1260904, 43.9224697], [-76.1243476, 43.9106948], [-76.1284922, 43.9078854], [-76.1264733, 43.9009614], [-76.1284632, 43.9016262], [-76.1270271, 43.9006076], [-76.1290753, 43.8957789], [-76.1424634, 43.8894368], [-76.1542352, 43.8900745], [-76.2020217, 43.8646582], [-76.1995435, 43.8542233], [-76.2056075, 43.8492138], [-76.2068111, 43.8505877], [-76.2096371, 43.847907], [-76.2095796, 43.8497571], [-76.2107254, 43.8480976], [-76.2129259, 43.8486344], [-76.2075884, 43.8544046], [-76.2100616, 43.8578173], [-76.2152185, 43.8592192], [-76.2173714, 43.8636751], [-76.2258827, 43.8652522], [-76.2369726, 43.8629992], [-76.2319659, 43.8726371], [-76.2229789, 43.8804726], [-76.2292873, 43.8847783], [-76.2295126, 43.8874259], [-76.2510558, 43.8808124], [-76.2609904, 43.8817147], [-76.2738566, 43.8763029], [-76.2972069, 43.8559285], [-76.2945639, 43.8493763], [-76.2985791, 43.8385069], [-76.2920909, 43.837539], [-76.2785211, 43.8413171], [-76.2739263, 43.8379391], [-76.2665305, 43.8378554], [-76.2653268, 43.8353064], [-76.2702478, 43.8293588], [-76.2704452, 43.8251756], [-76.2508395, 43.8262421], [-76.2459865, 43.8210769], [-76.248998, 43.8177918], [-76.2459999, 43.8166925], [-76.2432886, 43.8162244], [-76.2384916, 43.821641], [-76.2340962, 43.8222766], [-76.2378489, 43.8106701], [-76.2287902, 43.8035176], [-76.2144715, 43.7593511], [-76.2036609, 43.7209433], [-76.2014154, 43.6866099], [-76.1969153, 43.6659237], [-76.1931452, 43.6654225], [-76.1978581, 43.6712701], [-76.1947996, 43.6803695], [-76.1845997, 43.6828891], [-76.1865118, 43.6815192], [-76.1841909, 43.6821735], [-76.1857322, 43.6811107], [-76.1822809, 43.6784177], [-76.1819107, 43.6743457], [-76.1838292, 43.6737584], [-76.1842244, 43.6726001], [-76.1827174, 43.6718459], [-76.1888897, 43.6703685], [-76.1791005, 43.6707006], [-76.1813019, 43.6714447], [-76.1771826, 43.6711656], [-76.1773216, 43.6726092], [-76.1766956, 43.6732922], [-76.174151, 43.6714015], [-76.1770143, 43.6691969], [-76.1734135, 43.6634928], [-76.1646807, 43.6609016], [-76.1623924, 43.6552143], [-76.156234, 43.6553994], [-76.1676421, 43.6468517], [-76.1690555, 43.642376], [-76.1667167, 43.6392968], [-76.1802618, 43.6394987], [-76.1862687, 43.6370252], [-76.1866894, 43.6330711], [-76.1913502, 43.6313043], [-76.194766, 43.6339965], [-76.194551, 43.6486309], [-76.1923041, 43.6525675], [-76.19564, 43.6563042], [-76.1933162, 43.6643136], [-76.1960613, 43.6635409], [-76.1967178, 43.6292852], [-76.1993427, 43.595902], [-76.2041074, 43.577535], [-76.2028003, 43.5755218], [-76.2053639, 43.5778501], [-76.204016, 43.5750057], [-76.2095507, 43.5606296], [-76.2234513, 43.5379277], [-76.2353668, 43.5292684], [-76.2598583, 43.5246202], [-76.268494, 43.5206327], [-76.277984, 43.5207114], [-76.2878655, 43.5150879], [-76.2973506, 43.5128699], [-76.3161915, 43.5153319], [-76.3312654, 43.5118287], [-76.3346275, 43.5142972], [-76.346974, 43.5136847], [-76.3637731, 43.5239785], [-76.3717568, 43.5257209], [-76.3822943, 43.5236149], [-76.399999, 43.5247508], [-76.4167537, 43.521472], [-76.4233429, 43.5147967], [-76.4327493, 43.5128045], [-76.4476734, 43.5035439], [-76.4702867, 43.4953645], [-76.4869352, 43.4750925], [-76.5122947, 43.4658595], [-76.5105904, 43.4612968], [-76.5090603, 43.462328], [-76.5088356, 43.4574006], [-76.5161512, 43.4656632], [-76.5149976, 43.4620079], [-76.5192523, 43.4651295], [-76.5188675, 43.46276], [-76.5385955, 43.4584708], [-76.5502375, 43.451659], [-76.5648876, 43.4489341], [-76.5694628, 43.4428243], [-76.5952826, 43.4301704], [-76.5991363, 43.4245493], [-76.6094949, 43.4222313], [-76.623881, 43.4126115], [-76.6307771, 43.4130896], [-76.6701398, 43.3654111], [-76.682179, 43.3539369], [-76.696372, 43.3450649], [-76.7073593, 43.3454121], [-76.7078963, 43.3503461], [-76.7086813, 43.3472341], [-76.7170966, 43.3439297], [-76.7296711, 43.3434584], [-76.7614625, 43.3215214], [-76.7935705, 43.3094161], [-76.8247438, 43.3046248], [-76.8406587, 43.3050319], [-76.8553504, 43.2979213], [-76.8787527, 43.2923478], [-76.8960896, 43.2960195], [-76.9182515, 43.2853888], [-76.9247041, 43.2851801], [-76.9320236, 43.2794847], [-76.9519768, 43.2703318], [-76.9642979, 43.2705251], [-76.9649338, 43.2721813], [-76.9666801, 43.2720918], [-76.9671387, 43.2726846], [-76.9724448, 43.2733632], [-76.972342, 43.276855], [-76.9725558, 43.2733019], [-76.9645345, 43.2699631], [-76.9528815, 43.2696969], [-76.9419827, 43.2740446], [-76.9415065, 43.2604026], [-76.9381095, 43.2592623], [-76.9372543, 43.2555734], [-76.9392173, 43.2502801], [-76.9417313, 43.2495112], [-76.9416869, 43.2433445], [-76.937635, 43.24296], [-76.9330654, 43.23598], [-76.9280671, 43.2375624], [-76.923187, 43.2283642], [-76.9256589, 43.2238023], [-76.9309029, 43.2233733], [-76.9314683, 43.2296064], [-76.9373244, 43.228379], [-76.9422784, 43.2315436], [-76.9497464, 43.2423389], [-76.9561349, 43.2374441], [-76.961015, 43.2369561], [-76.9721208, 43.2523505], [-76.9754038, 43.2443501], [-76.9775924, 43.2510048], [-76.9947274, 43.2618517], [-76.991538, 43.266602], [-76.9818766, 43.269531], [-76.9758851, 43.2660578], [-76.9770903, 43.2676535], [-76.9701029, 43.2659242], [-76.9805356, 43.2705016], [-76.9742994, 43.2730546], [-76.9739221, 43.2773925], [-76.974328, 43.2742465], [-76.9888829, 43.2744449], [-77.0013085, 43.2710513], [-77.0408258, 43.2706758], [-77.0470839, 43.2765154], [-77.0555743, 43.2767346], [-77.0694202, 43.2828343], [-77.079411, 43.2814283], [-77.1073968, 43.2892476], [-77.1149224, 43.2864291], [-77.1370201, 43.2855553], [-77.146254, 43.2899088], [-77.1723324, 43.2815701], [-77.1839629, 43.2822463], [-77.1891229, 43.2852062], [-77.2005573, 43.2822463], [-77.2133191, 43.2843715], [-77.2442783, 43.2810027], [-77.2536456, 43.2777939], [-77.2758843, 43.2780303], [-77.2752764, 43.2763595], [-77.28677, 43.2787306], [-77.3041094, 43.2779534], [-77.312456, 43.2814424], [-77.3335067, 43.2777341], [-77.3411799, 43.280644], [-77.3834324, 43.2750834], [-77.3921191, 43.2762373], [-77.4136856, 43.2693477], [-77.4264587, 43.2700436], [-77.4429073, 43.2625015], [-77.4712511, 43.2567071], [-77.4848251, 43.2514166], [-77.5001978, 43.2504562], [-77.5230092, 43.2378291], [-77.5335871, 43.2364369], [-77.5329101, 43.234517], [-77.517214, 43.2387747], [-77.5207914, 43.2326937], [-77.5332531, 43.2272311], [-77.5336814, 43.2247934], [-77.5291436, 43.2227143], [-77.5309153, 43.2099509], [-77.520701, 43.2111079], [-77.5244794, 43.2084865], [-77.521171, 43.2076007], [-77.5159471, 43.1878194], [-77.5187649, 43.1851809], [-77.515874, 43.1762526], [-77.5194127, 43.1747889], [-77.5231051, 43.1776852], [-77.53029, 43.1773239], [-77.5275872, 43.1904127], [-77.5334537, 43.1960351], [-77.5311849, 43.2000214], [-77.5361022, 43.2040349], [-77.5363372, 43.2090064], [-77.5390309, 43.2095578], [-77.5370604, 43.2107058], [-77.5419596, 43.211203], [-77.5395914, 43.2128752], [-77.5424749, 43.2136165], [-77.5422579, 43.2142673], [-77.5390219, 43.213734], [-77.5418395, 43.2179008], [-77.5397277, 43.220411], [-77.5420001, 43.2209609], [-77.5393444, 43.2216979], [-77.5419144, 43.2284137], [-77.5345074, 43.2363031], [-77.5531593, 43.2360338], [-77.577255, 43.243154], [-77.6027862, 43.2571594], [-77.5988407, 43.2639914], [-77.6037752, 43.2586695], [-77.6344204, 43.2740178], [-77.6595578, 43.2824385], [-77.6934956, 43.3046732], [-77.7092356, 43.3116224], [-77.7132578, 43.3151191], [-77.714368, 43.3237175], [-77.7525822, 43.3358264], [-77.7598688, 43.3411674], [-77.781439, 43.3390474], [-77.8162358, 43.3435689], [-77.8273489, 43.3428879], [-77.8441821, 43.3478589], [-77.8894655, 43.3515905], [-77.9042149, 43.3566432], [-77.929919, 43.3577513], [-77.9621049, 43.3679534], [-77.9706913, 43.3666804], [-77.9767902, 43.3687392], [-77.9950023, 43.3649401], [-78.0063579, 43.3682966], [-78.0300443, 43.3672312], [-78.0284355, 43.364599], [-78.0298816, 43.3639424], [-78.0303375, 43.3672798], [-78.0393088, 43.3710889], [-78.0648899, 43.3700878], [-78.1048817, 43.3755651], [-78.1593601, 43.3748174], [-78.183967, 43.3701856], [-78.1914525, 43.3738701], [-78.1923719, 43.3718608], [-78.192291, 43.3738915], [-78.1925857, 43.3717334], [-78.1963343, 43.3708235], [-78.2106643, 43.3716421], [-78.2356941, 43.3688184], [-78.2482363, 43.3694267], [-78.253735, 43.3719736]], [[-76.0489442, 44.004827], [-76.0486298, 44.0050115], [-76.048758, 44.0050502], [-76.0489442, 44.004827]], [[-76.0493331, 44.0048806], [-76.0488449, 44.0051811], [-76.0491386, 44.0054043], [-76.0493331, 44.0048806]], [[-76.0600198, 43.9978589], [-76.0609253, 43.9967947], [-76.0586788, 43.9987638], [-76.0600198, 43.9978589]], [[-76.0605728, 43.9977594], [-76.0592318, 43.9990721], [-76.0598954, 43.9987191], [-76.0605728, 43.9977594]], [[-76.1330668, 44.0385671], [-76.1332668, 44.0385564], [-76.1332668, 44.0385124], [-76.1330668, 44.0385671]], [[-76.147599, 43.942801], [-76.145387, 43.940724], [-76.1414435, 43.9427204], [-76.1432, 43.94409], [-76.147599, 43.942801]], [[-76.149238, 44.2367087], [-76.1498464, 44.2356587], [-76.1488964, 44.236692], [-76.149238, 44.2367087]], [[-76.1590976, 44.0290854], [-76.1584578, 44.0291381], [-76.1584914, 44.0292826], [-76.1590976, 44.0290854]], [[-76.1613738, 44.0300216], [-76.1597611, 44.0297541], [-76.159791, 44.0303906], [-76.1613738, 44.0300216]], [[-76.1686993, 43.9236383], [-76.1663885, 43.9248966], [-76.1689616, 43.9241491], [-76.1686993, 43.9236383]], [[-76.1688863, 44.0044793], [-76.1687441, 44.0045256], [-76.169058, 44.0047398], [-76.1688863, 44.0044793]], [[-76.1870923, 44.0140123], [-76.1774409, 44.0173309], [-76.1693357, 44.0247316], [-76.1735843, 44.0245208], [-76.1870923, 44.0140123]], [[-76.176798, 43.911331], [-76.1754515, 43.9129005], [-76.1761032, 43.9126936], [-76.176798, 43.911331]], [[-76.3292455, 44.2313494], [-76.3344637, 44.2372429], [-76.3475735, 44.2292917], [-76.3516205, 44.2315142], [-76.3593955, 44.2304676], [-76.3671625, 44.2229388], [-76.3709699, 44.2236265], [-76.3722894, 44.2277139], [-76.3753634, 44.2284724], [-76.3814802, 44.2212387], [-76.3877241, 44.2257024], [-76.390252, 44.2327752], [-76.3962159, 44.2302104], [-76.3978588, 44.2323699], [-76.4050789, 44.2274446], [-76.4021974, 44.2244835], [-76.3958778, 44.2269529], [-76.3929151, 44.2254094], [-76.3915984, 44.2228695], [-76.3959617, 44.2151087], [-76.4020999, 44.2155451], [-76.4153239, 44.2114596], [-76.4121278, 44.2144212], [-76.4255367, 44.2153983], [-76.4312716, 44.2103997], [-76.4462166, 44.2053945], [-76.4349546, 44.2027773], [-76.4330002, 44.1987299], [-76.4290408, 44.2006156], [-76.4301895, 44.202152], [-76.4294643, 44.2023265], [-76.414963, 44.201776], [-76.4177523, 44.1998394], [-76.4277742, 44.198566], [-76.4309698, 44.1949881], [-76.4353161, 44.1963693], [-76.4404176, 44.1944171], [-76.4418982, 44.196283], [-76.4410697, 44.194011], [-76.4562218, 44.189414], [-76.4595074, 44.190003], [-76.459616, 44.192189], [-76.46334, 44.1911071], [-76.4664211, 44.1893896], [-76.4660572, 44.1870115], [-76.4801254, 44.1820535], [-76.4981481, 44.1700373], [-76.5055304, 44.167554], [-76.5041326, 44.1644942], [-76.5134509, 44.1585472], [-76.5026738, 44.1600143], [-76.4980522, 44.1571517], [-76.4989074, 44.1538049], [-76.4946349, 44.1576289], [-76.4912621, 44.1582444], [-76.490214, 44.1577241], [-76.4941051, 44.1575515], [-76.4984159, 44.1531748], [-76.5, 44.154571], [-76.5019091, 44.1528518], [-76.501094, 44.1493751], [-76.5081022, 44.1464625], [-76.5111948, 44.1402788], [-76.5064221, 44.1372002], [-76.5100378, 44.1341821], [-76.5018635, 44.1382773], [-76.4905673, 44.1401724], [-76.4863443, 44.1368799], [-76.4870919, 44.1351746], [-76.4812957, 44.1358181], [-76.4708173, 44.1386597], [-76.4587296, 44.1477192], [-76.4598219, 44.1444236], [-76.4515203, 44.1442391], [-76.4484393, 44.1461759], [-76.4475372, 44.145797], [-76.4509031, 44.1429009], [-76.4552863, 44.1432321], [-76.451319, 44.1381348], [-76.4598319, 44.1272655], [-76.4608381, 44.1221218], [-76.490785, 44.104867], [-76.4802595, 44.1055093], [-76.4673162, 44.1165883], [-76.4577432, 44.1167723], [-76.4434368, 44.1110381], [-76.4358581, 44.1044514], [-76.435349, 44.1021525], [-76.4421849, 44.0952735], [-76.4194926, 44.1087423], [-76.4161262, 44.1172652], [-76.3984237, 44.1190841], [-76.3844049, 44.1260414], [-76.3762032, 44.1339205], [-76.3672798, 44.1330221], [-76.3540336, 44.1363725], [-76.3540712, 44.1380224], [-76.3546695, 44.1384485], [-76.3544816, 44.1375247], [-76.3569406, 44.1366915], [-76.3557418, 44.1413811], [-76.3585902, 44.1423589], [-76.3710517, 44.1360035], [-76.3737988, 44.1372532], [-76.3722647, 44.1381713], [-76.3731527, 44.1387965], [-76.3752951, 44.1396297], [-76.3782721, 44.1351424], [-76.3842003, 44.132864], [-76.3791214, 44.1390343], [-76.3829087, 44.1406383], [-76.377676, 44.1497517], [-76.3599833, 44.1598313], [-76.3571213, 44.162237], [-76.3576034, 44.1667587], [-76.3520269, 44.1711238], [-76.3445997, 44.1729792], [-76.3360017, 44.1842617], [-76.3382495, 44.1856707], [-76.3458544, 44.1808076], [-76.3554372, 44.1808281], [-76.3572496, 44.1789762], [-76.3556586, 44.1809406], [-76.360588, 44.1800417], [-76.3577361, 44.1821464], [-76.359342, 44.1840504], [-76.3599926, 44.1830781], [-76.3618309, 44.1822625], [-76.359301, 44.1861305], [-76.3632982, 44.1865106], [-76.3619815, 44.1879733], [-76.3649404, 44.1919286], [-76.3690392, 44.1916401], [-76.3685164, 44.1937722], [-76.3652546, 44.1925214], [-76.3675571, 44.1970979], [-76.3812066, 44.1986229], [-76.3820014, 44.1975805], [-76.3859804, 44.1962345], [-76.3853201, 44.1954289], [-76.3861304, 44.1941966], [-76.3816806, 44.1945294], [-76.387112, 44.1921273], [-76.387825, 44.1944259], [-76.3864995, 44.1944146], [-76.386204, 44.1964947], [-76.3819475, 44.1989308], [-76.4140898, 44.2020832], [-76.3933131, 44.2009615], [-76.3932519, 44.2018409], [-76.3916565, 44.2025351], [-76.3925484, 44.2008327], [-76.385669, 44.1993602], [-76.3682145, 44.1986118], [-76.3471386, 44.2056054], [-76.3519078, 44.2012845], [-76.3424189, 44.200024], [-76.3383017, 44.2041917], [-76.3269633, 44.2006314], [-76.3275115, 44.2045339], [-76.3233301, 44.2083928], [-76.3157284, 44.2093352], [-76.3179921, 44.2062651], [-76.313018, 44.2075026], [-76.3098149, 44.2021565], [-76.2972002, 44.2049148], [-76.2895275, 44.2091539], [-76.2905272, 44.2066281], [-76.2872724, 44.2057254], [-76.2728986, 44.2068176], [-76.2668396, 44.210956], [-76.2698449, 44.2131494], [-76.2686579, 44.2138389], [-76.2643513, 44.2130006], [-76.2666384, 44.2074868], [-76.2623127, 44.2055115], [-76.2573183, 44.2067602], [-76.2566634, 44.2094349], [-76.2537372, 44.2075713], [-76.253747, 44.206183], [-76.2443414, 44.2062651], [-76.2057598, 44.2165051], [-76.1795455, 44.2334796], [-76.1830074, 44.2348647], [-76.1839245, 44.2388982], [-76.1873708, 44.2388701], [-76.1923846, 44.2340539], [-76.2124233, 44.2333276], [-76.217629, 44.2284422], [-76.2350119, 44.2239255], [-76.2310793, 44.230775], [-76.2344986, 44.2336867], [-76.2396313, 44.2356369], [-76.244953, 44.2329861], [-76.2515986, 44.2343265], [-76.2647176, 44.2298586], [-76.2711019, 44.2241051], [-76.2800665, 44.2203966], [-76.2765827, 44.2178784], [-76.2818195, 44.2196093], [-76.2899622, 44.2149294], [-76.2947377, 44.213226], [-76.290087, 44.2151499], [-76.2917415, 44.2164495], [-76.2901765, 44.2181894], [-76.2932643, 44.2172416], [-76.2951828, 44.2192523], [-76.2845831, 44.2269978], [-76.2813516, 44.2332366], [-76.2867676, 44.2312951], [-76.2969698, 44.2324305], [-76.3055312, 44.2198206], [-76.3124308, 44.2224085], [-76.3168046, 44.2181585], [-76.314722, 44.2209184], [-76.3162681, 44.2208036], [-76.3121274, 44.2225819], [-76.3146798, 44.2260096], [-76.3245818, 44.2339446], [-76.3292455, 44.2313494]], [[-76.1840419, 43.663528], [-76.1837406, 43.6633488], [-76.1829639, 43.6639736], [-76.1840419, 43.663528]], [[-76.1869922, 43.6655823], [-76.1858154, 43.6643506], [-76.184074, 43.6649267], [-76.1869922, 43.6655823]], [[-76.2106068, 43.9038398], [-76.2072368, 43.905195], [-76.2045597, 43.904559], [-76.2075928, 43.9066337], [-76.2106068, 43.9038398]], [[-76.2089758, 44.2019424], [-76.2067295, 44.2028038], [-76.2052139, 44.2042213], [-76.2078527, 44.2037416], [-76.2089758, 44.2019424]], [[-76.2173293, 43.8914314], [-76.2291594, 43.8872092], [-76.2218271, 43.8859957], [-76.2209576, 43.8895136], [-76.2196778, 43.8899295], [-76.2154979, 43.8922269], [-76.2169098, 43.8927886], [-76.2140183, 43.8947627], [-76.2116879, 43.8949658], [-76.210569, 43.8970211], [-76.2151932, 43.8972908], [-76.214111, 43.8999951], [-76.2184499, 43.8950975], [-76.2173293, 43.8914314]], [[-76.2137885, 43.894206], [-76.2137455, 43.8940978], [-76.2119588, 43.8948531], [-76.2137885, 43.894206]], [[-76.2124338, 43.9015647], [-76.2123931, 43.9011529], [-76.2119725, 43.9015501], [-76.2124338, 43.9015647]], [[-76.2282921, 44.065236], [-76.2284824, 44.0657186], [-76.2290665, 44.0650363], [-76.2282921, 44.065236]], [[-76.2287099, 44.0659889], [-76.2286749, 44.065871], [-76.2286334, 44.0659135], [-76.2287099, 44.0659889]], [[-76.2548049, 44.2072965], [-76.2546762, 44.207035], [-76.2545142, 44.2072312], [-76.2548049, 44.2072965]], [[-76.3062044, 44.1698654], [-76.266581, 44.1767223], [-76.2644392, 44.1803666], [-76.2697458, 44.1852256], [-76.2777376, 44.183915], [-76.2866884, 44.1905002], [-76.299699, 44.1874953], [-76.3110794, 44.1808461], [-76.3074031, 44.1772178], [-76.3112232, 44.1718314], [-76.3086978, 44.1703769], [-76.3113671, 44.1698174], [-76.3091773, 44.1671801], [-76.3062044, 44.1698654]], [[-76.3413648, 43.884479], [-76.3156721, 43.9044473], [-76.3144713, 43.9056341], [-76.3139249, 43.9069008], [-76.3154775, 43.9006782], [-76.3395573, 43.8834185], [-76.3411061, 43.8842076], [-76.339975, 43.8828345], [-76.3423058, 43.8807878], [-76.335521, 43.8783725], [-76.3268512, 43.8816698], [-76.3088883, 43.9039333], [-76.3043202, 43.9155598], [-76.3004485, 43.9176683], [-76.3052087, 43.9180398], [-76.3139007, 43.913728], [-76.3141634, 43.9066731], [-76.3165346, 43.9040077], [-76.3286228, 43.9035907], [-76.3442254, 43.8948143], [-76.3557766, 43.878533], [-76.3413648, 43.884479]], [[-76.3247197, 44.0449305], [-76.3155107, 44.0490597], [-76.3180803, 44.0506575], [-76.329502, 44.0441444], [-76.3327887, 44.0399408], [-76.3322572, 44.0365232], [-76.337845, 44.0329768], [-76.328801, 44.0348348], [-76.3217617, 44.0312494], [-76.3219998, 44.0367886], [-76.3281516, 44.0403638], [-76.3247197, 44.0449305]], [[-76.3251655, 44.1992258], [-76.3254016, 44.1992105], [-76.3253801, 44.1990412], [-76.3251655, 44.1992258]], [[-76.3261033, 44.1895552], [-76.329367, 44.1962203], [-76.3341074, 44.1889856], [-76.3261033, 44.1895552]], [[-76.3263672, 44.2007334], [-76.326453, 44.2005796], [-76.3262813, 44.200518], [-76.3263672, 44.2007334]], [[-76.3268821, 44.1997643], [-76.3279979, 44.1998719], [-76.3281052, 44.1997181], [-76.3268821, 44.1997643]], [[-76.3359373, 44.1879025], [-76.3367312, 44.1894104], [-76.3375466, 44.1884872], [-76.3359373, 44.1879025]], [[-76.3359778, 44.0500016], [-76.338161, 44.0492126], [-76.33984, 44.0479941], [-76.3384862, 44.0488678], [-76.3359778, 44.0500016]], [[-76.3379328, 44.1878718], [-76.3388126, 44.1878256], [-76.3374393, 44.1872102], [-76.3379328, 44.1878718]], [[-76.3474784, 44.0397009], [-76.3416027, 44.0537888], [-76.3394052, 44.0527132], [-76.3385447, 44.0528857], [-76.3419956, 44.0543526], [-76.3492349, 44.0547668], [-76.3607371, 44.051061], [-76.3680511, 44.0529048], [-76.3786767, 44.0459828], [-76.3832592, 44.0375761], [-76.3785256, 44.0385499], [-76.377093, 44.0369247], [-76.3793528, 44.0345724], [-76.3769851, 44.0331752], [-76.3610504, 44.0331752], [-76.3474784, 44.0397009]], [[-76.3423073, 44.0479286], [-76.342148, 44.0478841], [-76.3421303, 44.0479515], [-76.3423073, 44.0479286]], [[-76.372905, 43.8750698], [-76.366471, 43.8763338], [-76.3640383, 43.8783716], [-76.367015, 43.8790551], [-76.372905, 43.8750698]], [[-76.4079099, 43.9175566], [-76.4043515, 43.9206972], [-76.4095235, 43.9191125], [-76.4323295, 43.9043455], [-76.4447913, 43.8916243], [-76.4456052, 43.8877182], [-76.4282564, 43.8905299], [-76.4005576, 43.9019496], [-76.3883469, 43.9083912], [-76.391817, 43.9075322], [-76.3834126, 43.9179231], [-76.3764446, 43.9214173], [-76.3955252, 43.9216006], [-76.4069591, 43.9176718], [-76.4049421, 43.9172972], [-76.4079099, 43.9175566]], [[-76.3957047, 43.8828879], [-76.3924213, 43.888487], [-76.3987938, 43.8843569], [-76.3957047, 43.8828879]], [[-76.4472172, 44.195994], [-76.4466585, 44.1963492], [-76.4485557, 44.1965844], [-76.4472172, 44.195994]], [[-76.4488249, 44.230228], [-76.4488015, 44.2300935], [-76.4487847, 44.2302448], [-76.4488249, 44.230228]], [[-76.4497728, 44.2287493], [-76.4495583, 44.2288873], [-76.4495989, 44.2289955], [-76.4497728, 44.2287493]], [[-76.4535048, 44.2274424], [-76.4555158, 44.2242753], [-76.4497117, 44.2286532], [-76.4535048, 44.2274424]], [[-76.4502483, 44.2302331], [-76.4503356, 44.2300858], [-76.450202, 44.2302245], [-76.4502483, 44.2302331]], [[-76.4511447, 44.2290521], [-76.4506819, 44.2294894], [-76.4515368, 44.2293113], [-76.4511447, 44.2290521]], [[-76.4563363, 44.2753548], [-76.4548367, 44.2766143], [-76.4565184, 44.2761763], [-76.4563363, 44.2753548]], [[-76.471667, 44.1984597], [-76.4611489, 44.1991523], [-76.4630413, 44.2025871], [-76.4607441, 44.2058263], [-76.4698702, 44.2005925], [-76.471667, 44.1984597]], [[-76.4717797, 44.1992015], [-76.4709809, 44.1994615], [-76.4710349, 44.1995467], [-76.4717797, 44.1992015]], [[-76.4717967, 44.2348012], [-76.4716639, 44.2349695], [-76.4742191, 44.2349332], [-76.4717967, 44.2348012]], [[-76.4748904, 44.2345229], [-76.4747483, 44.2348792], [-76.4759654, 44.2347813], [-76.4748904, 44.2345229]], [[-76.494173, 44.1788554], [-76.5026272, 44.1786536], [-76.5008688, 44.1805463], [-76.505951, 44.1841515], [-76.514546, 44.1811831], [-76.5251501, 44.1826647], [-76.5276504, 44.1787059], [-76.526842, 44.172592], [-76.5559853, 44.1515694], [-76.5520982, 44.1492726], [-76.5480803, 44.1500638], [-76.494173, 44.1788554]], [[-76.5053023, 44.1484062], [-76.5026184, 44.1492715], [-76.5024032, 44.1496664], [-76.5027233, 44.1499101], [-76.5053023, 44.1484062]], [[-76.518404, 44.165103], [-76.5115492, 44.1676731], [-76.5104078, 44.1691285], [-76.510442, 44.1693842], [-76.518404, 44.165103]], [[-76.520997, 44.1560617], [-76.5247128, 44.147943], [-76.5190182, 44.149172], [-76.5157021, 44.1552804], [-76.5202733, 44.1537452], [-76.5187461, 44.1564691], [-76.520997, 44.1560617]], [[-76.5270398, 44.1518732], [-76.5246553, 44.1521416], [-76.5235757, 44.1536653], [-76.524532, 44.1536689], [-76.5270398, 44.1518732]], [[-76.542981, 44.1906265], [-76.5432445, 44.1910694], [-76.54334, 44.1906853], [-76.542981, 44.1906265]], [[-76.5900719, 43.9260145], [-76.5852906, 43.9277214], [-76.5821512, 43.9308376], [-76.590629, 43.9283931], [-76.5900719, 43.9260145]], [[-76.5922557, 44.1984025], [-76.5920694, 44.1984821], [-76.5923067, 44.1994523], [-76.5922557, 44.1984025]], [[-76.617506, 43.9309321], [-76.6219443, 43.9361086], [-76.6302035, 43.9348069], [-76.6390366, 43.9309014], [-76.6180728, 43.9226998], [-76.6095482, 43.921409], [-76.5962564, 43.9261427], [-76.6124664, 43.9255525], [-76.6180778, 43.9231507], [-76.6142105, 43.926469], [-76.6191489, 43.9274018], [-76.617506, 43.9309321]], [[-76.6986425, 44.1133681], [-76.7034647, 44.1034572], [-76.6975607, 44.1063498], [-76.6905201, 44.1209408], [-76.683768, 44.1273453], [-76.6803942, 44.1338737], [-76.6816041, 44.1379719], [-76.6700329, 44.1467755], [-76.6631274, 44.148857], [-76.6518603, 44.1610239], [-76.6211937, 44.176892], [-76.61876, 44.180245], [-76.6202825, 44.186302], [-76.6359681, 44.1877257], [-76.6414766, 44.1918346], [-76.6463417, 44.1914676], [-76.6657733, 44.1843301], [-76.6727762, 44.1793272], [-76.6822379, 44.180288], [-76.6951096, 44.1721522], [-76.6986153, 44.1715117], [-76.6976992, 44.1739258], [-76.7093577, 44.1683879], [-76.7071967, 44.1711617], [-76.7099384, 44.1714789], [-76.7225113, 44.1655097], [-76.725294, 44.1670937], [-76.7204273, 44.1719838], [-76.7239984, 44.1744153], [-76.732624, 44.165621], [-76.7446283, 44.1590329], [-76.7826157, 44.1444215], [-76.7883047, 44.1466011], [-76.8043356, 44.1398242], [-76.8069868, 44.1331141], [-76.8126172, 44.1282837], [-76.8013804, 44.1171906], [-76.7966427, 44.1167464], [-76.7870707, 44.1215201], [-76.7802243, 44.1193423], [-76.7790078, 44.1158338], [-76.7827593, 44.1121126], [-76.7812293, 44.109309], [-76.7858096, 44.1015313], [-76.770819, 44.1076867], [-76.7646419, 44.1053739], [-76.7655523, 44.1023078], [-76.7538387, 44.101756], [-76.7425526, 44.1126344], [-76.7360626, 44.1146609], [-76.7187106, 44.1107837], [-76.7153418, 44.1158247], [-76.7079405, 44.118978], [-76.7104485, 44.1216892], [-76.7099432, 44.1244105], [-76.7087372, 44.1259814], [-76.7073934, 44.1189325], [-76.7098923, 44.1173916], [-76.7019132, 44.1161137], [-76.6986425, 44.1133681]], [[-76.6229396, 44.1912675], [-76.6217501, 44.187595], [-76.6217955, 44.1910193], [-76.6229396, 44.1912675]], [[-76.6231298, 44.1919021], [-76.6225761, 44.1988706], [-76.6247721, 44.2044418], [-76.6231298, 44.1919021]], [[-76.6233905, 44.1909927], [-76.6230086, 44.1917935], [-76.6236386, 44.1908252], [-76.6240378, 44.189302], [-76.6233905, 44.1909927]], [[-76.6250452, 44.2060077], [-76.623526, 44.2047361], [-76.6231462, 44.2051605], [-76.6250452, 44.2060077]], [[-76.6308357, 44.2060964], [-76.628826, 44.2061357], [-76.6273907, 44.2060219], [-76.629943, 44.2074223], [-76.6308357, 44.2060964]], [[-76.6392354, 44.2067053], [-76.6396867, 44.2059836], [-76.6377351, 44.2077084], [-76.6392354, 44.2067053]], [[-76.7308105, 44.0976562], [-76.7231094, 44.0982572], [-76.7192337, 44.1040714], [-76.7226122, 44.1054981], [-76.7266754, 44.1036082], [-76.7308105, 44.0976562]], [[-76.7880341, 44.0973028], [-76.7857777, 44.0986785], [-76.7864153, 44.0994565], [-76.7880341, 44.0973028]], [[-76.8128683, 43.946654], [-76.8027412, 43.9459883], [-76.7980267, 43.9487106], [-76.8034002, 43.9502013], [-76.8128683, 43.946654]], [[-76.8278181, 43.9422334], [-76.8273479, 43.9420786], [-76.8270635, 43.9422475], [-76.8278181, 43.9422334]], [[-76.8434439, 43.9559215], [-76.8431736, 43.9533052], [-76.839575, 43.9537253], [-76.8315566, 43.9617383], [-76.8434439, 43.9559215]], [[-76.9025846, 44.1773417], [-76.9031552, 44.1757177], [-76.9019351, 44.1769939], [-76.9025846, 44.1773417]], [[-76.9040037, 44.1767683], [-76.9067419, 44.1772803], [-76.9063121, 44.1756386], [-76.9067037, 44.1746746], [-76.9040037, 44.1767683]], [[-76.9075519, 44.1761657], [-76.9067906, 44.1749316], [-76.9071946, 44.1776417], [-76.9075519, 44.1761657]], [[-76.91303, 44.1558319], [-76.9090494, 44.1574722], [-76.9083215, 44.1580716], [-76.9116337, 44.156979], [-76.91303, 44.1558319]], [[-76.9112039, 44.1754012], [-76.9104854, 44.1756631], [-76.9117629, 44.1757207], [-76.9112039, 44.1754012]], [[-76.9122095, 44.1744012], [-76.9113357, 44.174439], [-76.9122495, 44.1746482], [-76.9122095, 44.1744012]], [[-76.9135595, 44.1750339], [-76.912216, 44.1754214], [-76.9144219, 44.1748574], [-76.9135595, 44.1750339]], [[-76.9246423, 44.0117901], [-76.923769, 44.0116243], [-76.9233839, 44.0117908], [-76.9246423, 44.0117901]], [[-76.9437117, 43.260529], [-76.9420869, 43.2624957], [-76.9442125, 43.2709861], [-76.946859, 43.2665773], [-76.9437117, 43.260529]], [[-76.9480655, 43.2524494], [-76.9452227, 43.2556243], [-76.9463952, 43.2586785], [-76.9484371, 43.2607077], [-76.9541721, 43.2594643], [-76.9535374, 43.254923], [-76.9480655, 43.2524494]], [[-76.9600162, 43.2591457], [-76.9564927, 43.2609007], [-76.959598, 43.2649346], [-76.9607512, 43.2606039], [-76.9600162, 43.2591457]], [[-76.972005, 44.0], [-76.9886175, 43.9920604], [-76.9893682, 43.9872677], [-76.9852345, 43.9873801], [-76.9876643, 43.9814462], [-76.9848633, 43.9816551], [-76.9825547, 43.9772097], [-76.9733016, 43.9797561], [-76.9655531, 43.9864047], [-76.9662977, 43.9915764], [-76.9622014, 43.9961241], [-76.9627409, 44.0027475], [-76.9724579, 44.0033148], [-76.972005, 44.0]], [[-76.964178, 44.1572273], [-76.9638951, 44.1572964], [-76.964205, 44.157444], [-76.964178, 44.1572273]], [[-76.9910232, 44.2034478], [-76.9877648, 44.2031144], [-76.9855161, 44.2039743], [-76.9899478, 44.2044982], [-76.9910232, 44.2034478]], [[-76.9998202, 44.0574735], [-76.9978769, 44.0579096], [-76.9967551, 44.0588939], [-76.9998202, 44.0574735]], [[-77.0038778, 44.1974291], [-77.0043018, 44.1955908], [-77.0029962, 44.1950975], [-77.0038778, 44.1974291]], [[-77.0156963, 44.1241524], [-77.0165918, 44.1271098], [-77.0185406, 44.1248669], [-77.0156963, 44.1241524]], [[-77.0617723, 44.0547273], [-77.0570077, 44.0563351], [-77.0534238, 44.0581987], [-77.0582664, 44.056809], [-77.0617723, 44.0547273]], [[-77.0603974, 44.1801138], [-77.0553108, 44.1778054], [-77.0576929, 44.1795497], [-77.0535346, 44.1807279], [-77.0574488, 44.1827827], [-77.0603974, 44.1801138]], [[-77.0556885, 44.1795261], [-77.0561994, 44.1789539], [-77.0549668, 44.1789444], [-77.0556885, 44.1795261]], [[-77.0617151, 44.0739489], [-77.0614444, 44.0737365], [-77.0612739, 44.0739392], [-77.0617151, 44.0739489]], [[-77.1178432, 44.1625709], [-77.1157702, 44.1622133], [-77.1158257, 44.1630593], [-77.1178432, 44.1625709]], [[-77.1220796, 44.1633781], [-77.1222337, 44.1630892], [-77.1213305, 44.1632133], [-77.1220796, 44.1633781]], [[-77.24733, 44.0960891], [-77.2460152, 44.0965505], [-77.2476283, 44.0965538], [-77.24733, 44.0960891]], [[-77.2463783, 44.0990257], [-77.2463601, 44.0987838], [-77.2461249, 44.0989276], [-77.2463783, 44.0990257]], [[-77.2472776, 44.0933758], [-77.2462143, 44.0940998], [-77.247292, 44.094075], [-77.2472776, 44.0933758]], [[-77.2485557, 44.0941894], [-77.2479677, 44.0932068], [-77.2475538, 44.0940558], [-77.2485557, 44.0941894]], [[-77.2478808, 44.0989238], [-77.2503788, 44.0972135], [-77.2547711, 44.0943185], [-77.2501008, 44.0950032], [-77.2478808, 44.0989238]], [[-77.2500439, 44.1711246], [-77.2500114, 44.1716861], [-77.250318, 44.1711078], [-77.2500439, 44.1711246]], [[-77.263129, 44.174207], [-77.262727, 44.1743533], [-77.2630633, 44.1744042], [-77.263129, 44.174207]], [[-77.2637059, 44.1761495], [-77.263262, 44.176113], [-77.2634367, 44.1764423], [-77.2637059, 44.1761495]], [[-77.2925616, 44.1549504], [-77.2924491, 44.1544966], [-77.2920053, 44.154781], [-77.2925616, 44.1549504]], [[-77.304711, 44.1262842], [-77.2987673, 44.1257907], [-77.3047362, 44.1269127], [-77.304711, 44.1262842]], [[-77.3045755, 44.0924396], [-77.3109391, 44.0886297], [-77.3085276, 44.0896812], [-77.3045755, 44.0924396]], [[-77.3117085, 44.1260838], [-77.3114062, 44.1261407], [-77.3114768, 44.1264117], [-77.3117085, 44.1260838]], [[-77.3120345, 44.1264164], [-77.3119958, 44.1263535], [-77.3115171, 44.1265024], [-77.3120345, 44.1264164]], [[-77.3202545, 44.1539472], [-77.3204611, 44.1536507], [-77.3199065, 44.1537658], [-77.3202545, 44.1539472]], [[-77.3275299, 44.1454751], [-77.3284463, 44.143932], [-77.3263939, 44.1455166], [-77.3275299, 44.1454751]], [[-77.3298973, 44.1548833], [-77.3293947, 44.1548351], [-77.3293796, 44.1549052], [-77.3298973, 44.1548833]], [[-77.3302636, 44.1427481], [-77.3300924, 44.1429877], [-77.3307206, 44.1426862], [-77.3302636, 44.1427481]], [[-77.3322001, 44.1437685], [-77.3321562, 44.143558], [-77.3314356, 44.1438681], [-77.3322001, 44.1437685]], [[-77.3578072, 44.1417683], [-77.3576957, 44.1412783], [-77.3574526, 44.1417322], [-77.3578072, 44.1417683]], [[-77.360926, 44.1394769], [-77.3606352, 44.1394081], [-77.3604842, 44.139597], [-77.360926, 44.1394769]], [[-77.3640377, 44.1454083], [-77.3626635, 44.145667], [-77.3623084, 44.146501], [-77.3640377, 44.1454083]], [[-77.365258, 44.1456034], [-77.3650397, 44.1457693], [-77.3653606, 44.1456977], [-77.365258, 44.1456034]], [[-77.3728507, 44.1295391], [-77.3690245, 44.1319511], [-77.3671942, 44.1335908], [-77.371168, 44.134057], [-77.3728507, 44.1295391]], [[-77.3740712, 44.1423536], [-77.3744543, 44.1412873], [-77.3729895, 44.1425808], [-77.3740712, 44.1423536]], [[-77.3863418, 44.1449684], [-77.3867697, 44.1471771], [-77.3871788, 44.1475905], [-77.3871814, 44.1471973], [-77.3863418, 44.1449684]], [[-77.4918705, 44.1142548], [-77.4924566, 44.1150605], [-77.4943852, 44.1132838], [-77.4918705, 44.1142548]], [[-77.5108391, 43.9201239], [-77.5200746, 43.9201507], [-77.5316679, 43.9136085], [-77.514837, 43.915097], [-77.5111406, 43.9169855], [-77.5108391, 43.9201239]], [[-77.5295985, 44.1016636], [-77.5272988, 44.1002357], [-77.5236595, 44.1030595], [-77.5241917, 44.1037055], [-77.5295985, 44.1016636]], [[-77.5241083, 44.002711], [-77.5238997, 44.0025313], [-77.5237183, 44.0027688], [-77.5241083, 44.002711]], [[-77.5266639, 43.2085342], [-77.5252358, 43.2082921], [-77.5252196, 43.208438], [-77.5266639, 43.2085342]], [[-77.5254514, 43.2095985], [-77.5256996, 43.2094351], [-77.5254161, 43.2094475], [-77.5254514, 43.2095985]], [[-77.5263464, 44.0818956], [-77.526246, 44.0817976], [-77.5259864, 44.0818384], [-77.5263464, 44.0818956]], [[-77.5265018, 44.0817241], [-77.5264923, 44.0818221], [-77.5265454, 44.0817976], [-77.5265018, 44.0817241]], [[-77.5269186, 44.0815302], [-77.5269205, 44.0814036], [-77.5266022, 44.0814675], [-77.5269186, 44.0815302]], [[-77.5278327, 44.0809379], [-77.5276527, 44.0808464], [-77.5270559, 44.0813016], [-77.5278327, 44.0809379]], [[-77.534408, 44.0054735], [-77.5345117, 44.0051105], [-77.5338484, 44.005122], [-77.534408, 44.0054735]], [[-77.5430146, 43.8994131], [-77.5409705, 43.8997282], [-77.5399641, 43.9000077], [-77.5430146, 43.8994131]], [[-77.5484092, 43.9902676], [-77.5485711, 43.9898524], [-77.5481829, 43.9902307], [-77.5484092, 43.9902676]], [[-77.5575397, 44.1011892], [-77.5572114, 44.1012957], [-77.5572724, 44.1013364], [-77.5575397, 44.1011892]], [[-77.5688991, 44.0755392], [-77.5686851, 44.0725414], [-77.5665527, 44.0739752], [-77.5688991, 44.0755392]], [[-77.5686573, 43.9912524], [-77.5681952, 43.9912684], [-77.5681805, 43.9913385], [-77.5686573, 43.9912524]], [[-77.5857722, 44.0213227], [-77.5848254, 44.0207925], [-77.584687, 44.0214412], [-77.5857722, 44.0213227]], [[-77.5958728, 44.0172152], [-77.5976299, 44.0176168], [-77.6015453, 44.0159867], [-77.6002281, 44.0149428], [-77.5958728, 44.0172152]], [[-77.6015284, 44.0101316], [-77.5992943, 44.0115444], [-77.5988464, 44.01224], [-77.6003523, 44.0121792], [-77.6015284, 44.0101316]], [[-77.6020166, 44.0140249], [-77.6016947, 44.0134842], [-77.6016114, 44.013568], [-77.6020166, 44.0140249]], [[-77.602531, 44.015537], [-77.6016274, 44.0154821], [-77.6023421, 44.0161206], [-77.602531, 44.015537]], [[-77.6021709, 44.0150618], [-77.6020393, 44.0144226], [-77.6017297, 44.0144696], [-77.6021709, 44.0150618]], [[-77.602943, 44.014249], [-77.602336, 44.014181], [-77.6025299, 44.0143665], [-77.602943, 44.014249]], [[-77.6051475, 44.0144119], [-77.6038404, 44.014385], [-77.6042009, 44.0149242], [-77.6051475, 44.0144119]], [[-77.6168536, 44.0243601], [-77.6271862, 44.0250961], [-77.6080581, 44.0156593], [-77.6159066, 44.0233731], [-77.6192421, 44.0227128], [-77.6168536, 44.0243601]], [[-77.6895979, 44.0261691], [-77.6873717, 44.0267171], [-77.6903235, 44.0265528], [-77.6895979, 44.0261691]], [[-77.7069148, 44.0269213], [-77.7047331, 44.0275518], [-77.7071521, 44.027225], [-77.7069148, 44.0269213]], [[-77.7100774, 44.0263419], [-77.7082253, 44.0261522], [-77.708, 44.0266369], [-77.7100774, 44.0263419]], [[-77.715045, 44.0], [-77.714713, 44.0004339], [-77.7152785, 44.0001821], [-77.715045, 44.0]], [[-77.715813, 43.9999961], [-77.7156297, 43.9995674], [-77.7154336, 43.9999971], [-77.715813, 43.9999961]], [[-77.7161268, 43.9998867], [-77.7164811, 43.9994279], [-77.7159383, 43.9997848], [-77.7161268, 43.9998867]], [[-77.7178235, 43.9996888], [-77.7170879, 43.9996596], [-77.716557, 43.9998544], [-77.7178235, 43.9996888]], [[-77.7351229, 43.9870939], [-77.7349363, 43.9870199], [-77.734083, 43.987625], [-77.7351229, 43.9870939]], [[-77.737666, 44.0145137], [-77.7362074, 44.0142574], [-77.7361864, 44.0143337], [-77.737666, 44.0145137]], [[-77.7408674, 43.9826291], [-77.7443782, 43.9835992], [-77.7453676, 43.9832315], [-77.7422112, 43.9809805], [-77.7366949, 43.9842302], [-77.7363543, 43.9860988], [-77.7408674, 43.9826291]], [[-77.7464032, 43.9723304], [-77.7422393, 43.9757512], [-77.7430687, 43.9794443], [-77.7508117, 43.9749423], [-77.7512777, 43.9724505], [-77.7464032, 43.9723304]], [[-78.1929193, 43.37457], [-78.1909136, 43.3745914], [-78.190969, 43.3746141], [-78.1929193, 43.37457]], [[-79.2318642, 43.7085162], [-79.2296399, 43.7092492], [-79.2272165, 43.7116001], [-79.2318642, 43.7085162]], [[-79.3287419, 43.6334788], [-79.3278002, 43.6339211], [-79.327377, 43.6339482], [-79.3278122, 43.6341387], [-79.3287419, 43.6334788]], [[-79.3525082, 43.633712], [-79.3567244, 43.6333165], [-79.3581466, 43.6313538], [-79.3563062, 43.6290134], [-79.3582784, 43.6265172], [-79.3657635, 43.6214987], [-79.3704692, 43.6208264], [-79.3698475, 43.6193664], [-79.3714563, 43.6185996], [-79.3794128, 43.61611], [-79.3817514, 43.6196097], [-79.3848641, 43.6183716], [-79.3893095, 43.6208439], [-79.3887536, 43.6171724], [-79.3846399, 43.6164426], [-79.383355, 43.6135153], [-79.3894712, 43.6144232], [-79.3869973, 43.6148708], [-79.3903466, 43.6182249], [-79.3896648, 43.6297552], [-79.3874595, 43.6305459], [-79.3881073, 43.6319488], [-79.3889094, 43.6327235], [-79.3921772, 43.6312628], [-79.3949247, 43.6336577], [-79.4049155, 43.6278629], [-79.3922309, 43.6178924], [-79.3899602, 43.6123536], [-79.3822757, 43.6122108], [-79.3669545, 43.6189773], [-79.354423, 43.6298036], [-79.3498142, 43.6290321], [-79.3525082, 43.633712]], [[-79.3622171, 43.6249707], [-79.3577517, 43.6278307], [-79.3578716, 43.6301399], [-79.3622623, 43.6270592], [-79.3622171, 43.6249707]], [[-79.3643334, 43.6249643], [-79.3639792, 43.6231143], [-79.3625963, 43.6240067], [-79.3643334, 43.6249643]], [[-79.3645883, 43.6223069], [-79.3644853, 43.6231499], [-79.3656613, 43.6227511], [-79.3669057, 43.6227116], [-79.3645883, 43.6223069]], [[-79.3661049, 43.6229272], [-79.3651055, 43.6235626], [-79.366403, 43.6235902], [-79.3661049, 43.6229272]], [[-79.3680124, 43.6239456], [-79.3665439, 43.6236298], [-79.3680162, 43.6239916], [-79.3680124, 43.6239456]], [[-79.3716393, 43.6217432], [-79.3691678, 43.6215628], [-79.3666653, 43.6217655], [-79.3696682, 43.6227512], [-79.3716393, 43.6217432]], [[-79.3674156, 43.6230334], [-79.3705496, 43.6244084], [-79.3712929, 43.6236028], [-79.3674156, 43.6230334]], [[-79.3767411, 43.6215005], [-79.3840788, 43.6249487], [-79.3827412, 43.622061], [-79.3809267, 43.6227396], [-79.3823861, 43.6210363], [-79.3704555, 43.6194342], [-79.3718336, 43.621039], [-79.3767411, 43.6215005]], [[-79.3728069, 43.6236278], [-79.3770247, 43.6219419], [-79.3721461, 43.6216457], [-79.3728069, 43.6236278]], [[-79.377715, 43.618513], [-79.37984, 43.6187154], [-79.3783931, 43.617269], [-79.377715, 43.618513]], [[-79.3866311, 43.6275409], [-79.3864163, 43.621537], [-79.3830842, 43.6208959], [-79.3844678, 43.625603], [-79.3866311, 43.6275409]], [[-79.3851283, 43.6193172], [-79.3855752, 43.6200458], [-79.3857758, 43.6196783], [-79.3851283, 43.6193172]], [[-79.3853466, 43.6155502], [-79.3861108, 43.615223], [-79.3854627, 43.6149294], [-79.3853466, 43.6155502]], [[-79.3869393, 43.6146731], [-79.3870925, 43.6148071], [-79.3871192, 43.6147683], [-79.3869393, 43.6146731]], [[-79.4044743, 43.6320242], [-79.4047226, 43.6330205], [-79.4045727, 43.6320649], [-79.4044743, 43.6320242]], [[-79.4161443, 43.6296309], [-79.4146683, 43.6280878], [-79.4139332, 43.6290275], [-79.4161443, 43.6296309]], [[-79.4745322, 43.6234975], [-79.4743091, 43.6237709], [-79.4749099, 43.6234851], [-79.4745322, 43.6234975]], [[-79.4762415, 43.6244118], [-79.4760545, 43.6240363], [-79.4759271, 43.6240465], [-79.4762415, 43.6244118]], [[-79.4761156, 43.6253548], [-79.4760197, 43.6253024], [-79.4759774, 43.6257591], [-79.4761156, 43.6253548]], [[-79.476369, 43.6245762], [-79.4761296, 43.624846], [-79.4762021, 43.624982], [-79.476369, 43.6245762]], [[-79.4858408, 43.6129811], [-79.4863067, 43.6131218], [-79.4861056, 43.6128946], [-79.4858408, 43.6129811]], [[-79.5402362, 43.5758254], [-79.5405045, 43.5752658], [-79.5400044, 43.575796], [-79.5402362, 43.5758254]], [[-79.5407088, 43.5777231], [-79.5405381, 43.5776848], [-79.5404283, 43.5783828], [-79.5407088, 43.5777231]], [[-79.5416178, 43.5799566], [-79.5414595, 43.5798877], [-79.5413978, 43.5807309], [-79.5416178, 43.5799566]], [[-79.5973429, 43.5530323], [-79.5939333, 43.5522283], [-79.598623, 43.5537908], [-79.5973429, 43.5530323]], [[-79.7264979, 43.3679696], [-79.7265928, 43.3675662], [-79.7263936, 43.3679179], [-79.7264979, 43.3679696]], [[-79.7271809, 43.3672456], [-79.7271429, 43.36738], [-79.7272995, 43.3672766], [-79.7271809, 43.3672456]], [[-79.7275081, 43.3671559], [-79.7274844, 43.3672697], [-79.7276077, 43.367187], [-79.7275081, 43.3671559]], [[-79.8018219, 43.3026902], [-79.802597, 43.3028338], [-79.801859, 43.3025557], [-79.8018219, 43.3026902]], [[-79.8025967, 43.3045536], [-79.803087, 43.3054058], [-79.8032038, 43.3051781], [-79.8025967, 43.3045536]], [[-79.8046101, 43.3070232], [-79.8044054, 43.3062404], [-79.8040924, 43.3062611], [-79.8046101, 43.3070232]], [[-79.8054525, 43.3084332], [-79.8054662, 43.3081164], [-79.8052349, 43.3082541], [-79.8054525, 43.3084332]], [[-79.9008727, 43.2745868], [-79.9006741, 43.2745567], [-79.9006928, 43.2747064], [-79.9008727, 43.2745868]], [[-79.9043071, 43.279299], [-79.9038847, 43.2792418], [-79.9038679, 43.2792902], [-79.9043071, 43.279299]], [[-79.9132696, 43.2762103], [-79.9121825, 43.2758378], [-79.9122098, 43.2759419], [-79.9132696, 43.2762103]], [[-79.9132704, 43.2762826], [-79.9129633, 43.2764269], [-79.9132804, 43.2764017], [-79.9132704, 43.2762826]], [[-79.9251416, 43.2718491], [-79.9185454, 43.2737335], [-79.916228, 43.2745271], [-79.9229486, 43.2745459], [-79.9251416, 43.2718491]]]}}